<?xml version="1.0" encoding="UTF-8"?>
<kml xmlns="http://www.opengis.net/kml/2.2" xmlns:gx="http://www.google.com/kml/ext/2.2" xmlns:kml="http://www.opengis.net/kml/2.2" xmlns:atom="http://www.w3.org/2005/Atom">
<Document>
	<name>Arcos de Valdevez.kml</name>
	<Style id="PolyStyle000001">
		<LabelStyle>
			<color>ff000000</color>
			<scale>1.2</scale>
		</LabelStyle>
		<LineStyle>
			<color>ff0000ff</color>
			<width>2</width>
		</LineStyle>
		<PolyStyle>
			<color>4dffffff</color>
		</PolyStyle>
	</Style>
	<Style id="PolyStyle00005">
		<LabelStyle>
			<color>ff000000</color>
			<scale>1.2</scale>
		</LabelStyle>
		<LineStyle>
			<color>ff0000ff</color>
			<width>2</width>
		</LineStyle>
		<PolyStyle>
			<color>4dffffff</color>
		</PolyStyle>
	</Style>
	<StyleMap id="PolyStyle00183">
		<Pair>
			<key>normal</key>
			<styleUrl>#PolyStyle00005</styleUrl>
		</Pair>
		<Pair>
			<key>highlight</key>
			<styleUrl>#PolyStyle000001</styleUrl>
		</Pair>
	</StyleMap>
	<Placemark>
		<name>Arcos de Valdevez</name>
		<Snippet maxLines="0"></Snippet>
		<styleUrl>#PolyStyle00183</styleUrl>
		<MultiGeometry>
			<extrude>1</extrude>
			<Polygon>
				<extrude>1</extrude>
				<tessellate>1</tessellate>
				<outerBoundaryIs>
					<LinearRing>
						<coordinates>
							-8.288994000000001,41.978388,5000 -8.289144,41.978609,5000 -8.289122000000001,41.978857,5000 -8.288989000000001,41.979352,5000 -8.288988,41.979376,5000 -8.288982000000001,41.979613,5000 -8.289007,41.979857,5000 -8.289260000000001,41.980444,5000 -8.289361,41.980678,5000 -8.289358999999999,41.98091,5000 -8.289300000000001,41.981154,5000 -8.28927,41.981268,5000 -8.289269000000001,41.981292,5000 -8.289337,41.981521,5000 -8.289353999999999,41.981587,5000 -8.289446999999999,41.981818,5000 -8.289557,41.982038,5000 -8.289659,41.982258,5000 -8.289758000000001,41.982473,5000 -8.289840999999999,41.982604,5000 -8.290051,41.982775,5000 -8.290177,41.982875,5000 -8.290297000000001,41.983113,5000 -8.290387000000001,41.983355,5000 -8.290480000000001,41.983595,5000 -8.290621,41.983824,5000 -8.290705000000001,41.983971,5000 -8.290709,41.983996,5000 -8.290705000000001,41.984227,5000 -8.290692,41.984457,5000 -8.290683,41.984689,5000 -8.290683,41.984714,5000 -8.290691000000001,41.98474,5000 -8.290697,41.984825,5000 -8.290705000000001,41.984857,5000 -8.290717000000001,41.984888,5000 -8.290841,41.985099,5000 -8.290850000000001,41.985137,5000 -8.290891,41.985369,5000 -8.290925,41.985612,5000 -8.290953,41.985864,5000 -8.290998999999999,41.986116,5000 -8.291038,41.986358,5000 -8.291073000000001,41.986592,5000 -8.291072,41.986818,5000 -8.291073000000001,41.987072,5000 -8.291081,41.987304,5000 -8.291059000000001,41.987533,5000 -8.291009000000001,41.987772,5000 -8.290997000000001,41.988002,5000 -8.290993,41.988241,5000 -8.291017999999999,41.988481,5000 -8.291052000000001,41.98872,5000 -8.291093,41.988953,5000 -8.291174,41.989197,5000 -8.291293,41.989414,5000 -8.291468,41.98961,5000 -8.29167,41.989816,5000 -8.291848,41.990014,5000 -8.291998,41.990235,5000 -8.292132000000001,41.990469,5000 -8.292247,41.990699,5000 -8.292327,41.99093,5000 -8.292444,41.991151,5000 -8.292555999999999,41.991377,5000 -8.292631,41.991597,5000 -8.292657999999999,41.991723,5000 -8.292776,41.991931,5000 -8.292824,41.991999,5000 -8.292852,41.992034,5000 -8.293039,41.992144,5000 -8.293089999999999,41.992175,5000 -8.293119000000001,41.992186,5000 -8.293206,41.992206,5000 -8.293411000000001,41.992216,5000 -8.293447,41.992221,5000 -8.293483999999999,41.992234,5000 -8.293628,41.992317,5000 -8.293657,41.992327,5000 -8.293685999999999,41.992334,5000 -8.293716,41.992338,5000 -8.294044,41.992353,5000 -8.294199000000001,41.99236,5000 -8.294236,41.992364,5000 -8.294304,41.99238,5000 -8.294625,41.992495,5000 -8.294934,41.992624,5000 -8.295206,41.992761,5000 -8.295477999999999,41.992899,5000 -8.295794000000001,41.99301,5000 -8.29612,41.992966,5000 -8.296196,41.992931,5000 -8.296419,41.992776,5000 -8.296663000000001,41.992626,5000 -8.296887,41.99247,5000 -8.296913,41.992454,5000 -8.296939,41.99244,5000 -8.297214,41.992328,5000 -8.297257999999999,41.992316,5000 -8.297302,41.992309,5000 -8.297532,41.992311,5000 -8.297582999999999,41.992324,5000 -8.297608,41.992338,5000 -8.297677999999999,41.99239,5000 -8.297713,41.992426,5000 -8.29773,41.992448,5000 -8.297822,41.992688,5000 -8.297916000000001,41.992914,5000 -8.297938,41.992958,5000 -8.297958,41.992998,5000 -8.297995,41.993057,5000 -8.298069,41.993139,5000 -8.298287,41.993309,5000 -8.298503,41.993472,5000 -8.298731999999999,41.99364,5000 -8.298976,41.993788,5000 -8.299243000000001,41.993908,5000 -8.299417999999999,41.993989,5000 -8.299716,41.994102,5000 -8.300013,41.994184,5000 -8.300342000000001,41.994266,5000 -8.300639,41.994323,5000 -8.300960999999999,41.994355,5000 -8.301289000000001,41.994384,5000 -8.301615999999999,41.994425,5000 -8.301829,41.994455,5000 -8.302117000000001,41.994557,5000 -8.302389,41.994694,5000 -8.302670000000001,41.994823,5000 -8.302943000000001,41.994955,5000 -8.303234,41.995065,5000 -8.303528999999999,41.995166,5000 -8.303838000000001,41.995246,5000 -8.304169,41.995304,5000 -8.304553,41.99538,5000 -8.304779,41.995415,5000 -8.305103000000001,41.995419,5000 -8.305413,41.995391,5000 -8.305744000000001,41.995327,5000 -8.30603,41.995227,5000 -8.306341,41.995127,5000 -8.306668999999999,41.995073,5000 -8.306991,41.995088,5000 -8.307035000000001,41.995096,5000 -8.307081,41.995109,5000 -8.307344000000001,41.995252,5000 -8.307656,41.9954,5000 -8.307971,41.995466,5000 -8.308268999999999,41.995494,5000 -8.308573000000001,41.995513,5000 -8.308878999999999,41.995517,5000 -8.309200000000001,41.995521,5000 -8.309502,41.995525,5000 -8.309828,41.995559,5000 -8.310138999999999,41.995603,5000 -8.310211000000001,41.995615,5000 -8.310466999999999,41.995658,5000 -8.310807,41.995679,5000 -8.311140999999999,41.995723,5000 -8.311437,41.995778,5000 -8.311768000000001,41.995775,5000 -8.311887,41.995748,5000 -8.312139,41.995621,5000 -8.312802,41.995296,5000 -8.312967,41.99522,5000 -8.312996999999999,41.995213,5000 -8.313121000000001,41.995214,5000 -8.313154000000001,41.995219,5000 -8.313186999999999,41.995228,5000 -8.313473999999999,41.995351,5000 -8.313997000000001,41.995522,5000 -8.314019,41.995541,5000 -8.314045999999999,41.995551,5000 -8.314080000000001,41.99556,5000 -8.314120000000001,41.995568,5000 -8.314425999999999,41.995617,5000 -8.314477,41.995621,5000 -8.314527,41.995625,5000 -8.314558999999999,41.995632,5000 -8.314655999999999,41.995724,5000 -8.314768000000001,41.995825,5000 -8.31479,41.995854,5000 -8.314807999999999,41.995885,5000 -8.314838999999999,41.995958,5000 -8.314859999999999,41.995988,5000 -8.314882000000001,41.996013,5000 -8.314909999999999,41.996033,5000 -8.31494,41.99605,5000 -8.315224000000001,41.996138,5000 -8.315367999999999,41.996167,5000 -8.315421000000001,41.996172,5000 -8.315471000000001,41.996171,5000 -8.315621999999999,41.99615,5000 -8.315670000000001,41.996138,5000 -8.315785999999999,41.996091,5000 -8.316011,41.995935,5000 -8.316174,41.995737,5000 -8.316354,41.995539,5000 -8.316560000000001,41.995351,5000 -8.316716,41.995156,5000 -8.316872,41.994946,5000 -8.317097,41.994778,5000 -8.317138999999999,41.994756,5000 -8.317186,41.994737,5000 -8.317408,41.994699,5000 -8.317717999999999,41.994727,5000 -8.317902999999999,41.99478,5000 -8.317954,41.994801,5000 -8.318235,41.994905,5000 -8.318498,41.995023,5000 -8.318847,41.995199,5000 -8.319146999999999,41.995323,5000 -8.319452,41.995418,5000 -8.319507,41.995431,5000 -8.319564,41.99544,5000 -8.319883000000001,41.995424,5000 -8.320198,41.995376,5000 -8.320349,41.995354,5000 -8.320463999999999,41.995354,5000 -8.320767,41.995426,5000 -8.320885000000001,41.995467,5000 -8.321147,41.99559,5000 -8.321232,41.995634,5000 -8.321273,41.995656,5000 -8.321524999999999,41.995785,5000 -8.321616000000001,41.995826,5000 -8.321814,41.995908,5000 -8.322106,41.996011,5000 -8.322411000000001,41.996112,5000 -8.322464,41.996121,5000 -8.322531,41.996121,5000 -8.322609999999999,41.996122,5000 -8.322702,41.996123,5000 -8.323007,41.996062,5000 -8.323248,41.995973,5000 -8.323299,41.995955,5000 -8.323395,41.995903,5000 -8.323598,41.995719,5000 -8.323765,41.995496,5000 -8.32399,41.995319,5000 -8.324066999999999,41.995276,5000 -8.324197,41.995225,5000 -8.324242999999999,41.995212,5000 -8.324289,41.995205,5000 -8.324336000000001,41.995203,5000 -8.324386000000001,41.995205,5000 -8.324439,41.995213,5000 -8.324486,41.99523,5000 -8.32452,41.995252,5000 -8.324545000000001,41.995278,5000 -8.324565,41.995308,5000 -8.324607,41.995405,5000 -8.324619,41.995426,5000 -8.324648,41.995463,5000 -8.324861,41.995667,5000 -8.325075999999999,41.995843,5000 -8.325115,41.995874,5000 -8.325399000000001,41.996016,5000 -8.325682,41.996115,5000 -8.325983000000001,41.996198,5000 -8.326290999999999,41.996248,5000 -8.326584,41.996303,5000 -8.326891,41.996355,5000 -8.327190999999999,41.996376,5000 -8.32751,41.996368,5000 -8.327821999999999,41.996329,5000 -8.328127,41.996284,5000 -8.328462999999999,41.996223,5000 -8.328516,41.996206,5000 -8.328775,41.99609,5000 -8.328925999999999,41.996001,5000 -8.328992,41.995948,5000 -8.329102000000001,41.995836,5000 -8.329338,41.995672,5000 -8.329376999999999,41.995652,5000 -8.329421,41.995636,5000 -8.329472000000001,41.995622,5000 -8.329528,41.995618,5000 -8.329559,41.995619,5000 -8.329611,41.995629,5000 -8.329656,41.995652,5000 -8.32987,41.995829,5000 -8.330037000000001,41.99604,5000 -8.330218,41.996227,5000 -8.330474000000001,41.996397,5000 -8.330517,41.996413,5000 -8.33056,41.996413,5000 -8.330605,41.996401,5000 -8.33065,41.996384,5000 -8.330738999999999,41.996338,5000 -8.330774999999999,41.996312,5000 -8.330802,41.996284,5000 -8.330824,41.996253,5000 -8.330842000000001,41.996218,5000 -8.331035999999999,41.995846,5000 -8.331044,41.995752,5000 -8.331208999999999,41.995506,5000 -8.331251999999999,41.995434,5000 -8.331432,41.99521,5000 -8.331554000000001,41.995094,5000 -8.331583,41.995055,5000 -8.331594000000001,41.995034,5000 -8.331602999999999,41.995012,5000 -8.331624,41.994902,5000 -8.331621,41.99486,5000 -8.33155,41.994625,5000 -8.331353999999999,41.99449,5000 -8.33123,41.994215,5000 -8.331056999999999,41.993989,5000 -8.331021,41.993957,5000 -8.330776,41.993815,5000 -8.3306,41.993672,5000 -8.330493000000001,41.993435,5000 -8.330425999999999,41.993215,5000 -8.33037,41.993063,5000 -8.330354,41.99295,5000 -8.330323999999999,41.992835,5000 -8.330306,41.992798,5000 -8.330285,41.992762,5000 -8.330257,41.992726,5000 -8.330226,41.992693,5000 -8.330107,41.992604,5000 -8.330057,41.99258,5000 -8.330005999999999,41.992559,5000 -8.329952,41.992541,5000 -8.329644,41.992445,5000 -8.329597,41.992432,5000 -8.329554999999999,41.992415,5000 -8.329522000000001,41.992346,5000 -8.329368000000001,41.992265,5000 -8.329355,41.992232,5000 -8.329351000000001,41.992197,5000 -8.329359999999999,41.992092,5000 -8.329402999999999,41.991983,5000 -8.329426,41.991947,5000 -8.329459999999999,41.991911,5000 -8.329708999999999,41.991744,5000 -8.329959000000001,41.991598,5000 -8.330061000000001,41.991546,5000 -8.330106000000001,41.991529,5000 -8.330276,41.991435,5000 -8.330313,41.991412,5000 -8.330384,41.99137,5000 -8.330498,41.99132,5000 -8.330806000000001,41.991228,5000 -8.331129000000001,41.991148,5000 -8.331436,41.991103,5000 -8.331583999999999,41.991084,5000 -8.331893000000001,41.990994,5000 -8.332096,41.990908,5000 -8.332300999999999,41.990738,5000 -8.332495,41.990551,5000 -8.332678,41.990361,5000 -8.332882,41.990173,5000 -8.333093,41.989974,5000 -8.333119999999999,41.989951,5000 -8.333173,41.989924,5000 -8.333211,41.989913,5000 -8.333254,41.989913,5000 -8.333297999999999,41.98992,5000 -8.333345,41.989933,5000 -8.333387999999999,41.98995,5000 -8.333458,41.989988,5000 -8.333492,41.990003,5000 -8.333527999999999,41.990012,5000 -8.33357,41.990011,5000 -8.333779,41.989968,5000 -8.334087,41.98985,5000 -8.334132,41.989831,5000 -8.334179000000001,41.989817,5000 -8.334228,41.989806,5000 -8.334431,41.989783,5000 -8.334479999999999,41.989772,5000 -8.334588999999999,41.989743,5000 -8.334637000000001,41.989725,5000 -8.334883,41.989587,5000 -8.335091,41.989424,5000 -8.335312999999999,41.989248,5000 -8.335516999999999,41.989076,5000 -8.335815999999999,41.988738,5000 -8.335946,41.988679,5000 -8.336150999999999,41.988471,5000 -8.336252,41.988302,5000 -8.336263000000001,41.988271,5000 -8.336274,41.988213,5000 -8.336275000000001,41.988185,5000 -8.336287,41.988053,5000 -8.336295,41.988026,5000 -8.336304999999999,41.987939,5000 -8.336323,41.987881,5000 -8.336335,41.987858,5000 -8.336349999999999,41.987835,5000 -8.336377000000001,41.987809,5000 -8.336410000000001,41.987789,5000 -8.336448000000001,41.987773,5000 -8.336487999999999,41.987767,5000 -8.336531000000001,41.987768,5000 -8.336573,41.987772,5000 -8.336613,41.987783,5000 -8.336651,41.9878,5000 -8.336679,41.987817,5000 -8.336705,41.987836,5000 -8.336729999999999,41.987861,5000 -8.336753,41.987888,5000 -8.336849000000001,41.987995,5000 -8.336881,41.988037,5000 -8.336964,41.988153,5000 -8.336995,41.988182,5000 -8.337031,41.988207,5000 -8.337146000000001,41.988268,5000 -8.337209,41.988283,5000 -8.337303,41.988286,5000 -8.337349,41.988287,5000 -8.337436,41.988286,5000 -8.337481,41.98828,5000 -8.337577,41.988262,5000 -8.337629,41.988248,5000 -8.337700999999999,41.988222,5000 -8.337967000000001,41.988071,5000 -8.338126000000001,41.987949,5000 -8.338165999999999,41.987919,5000 -8.338298,41.987844,5000 -8.338383,41.987813,5000 -8.338438,41.987778,5000 -8.338747,41.987811,5000 -8.338787,41.987827,5000 -8.338868,41.987871,5000 -8.339032,41.988013,5000 -8.339247,41.988206,5000 -8.339435,41.988404,5000 -8.339537,41.988498,5000 -8.339593000000001,41.988546,5000 -8.339672999999999,41.988605,5000 -8.339694,41.988629,5000 -8.339708,41.988651,5000 -8.339740000000001,41.988659,5000 -8.339812,41.988695,5000 -8.339861000000001,41.988725,5000 -8.339976999999999,41.988788,5000 -8.340206999999999,41.98894,5000 -8.340463,41.9891,5000 -8.340498999999999,41.989118,5000 -8.340771,41.989243,5000 -8.340945,41.989331,5000 -8.340980999999999,41.989347,5000 -8.341132999999999,41.98943,5000 -8.341165,41.989441,5000 -8.341481999999999,41.989502,5000 -8.341517,41.989517,5000 -8.34155,41.989537,5000 -8.341582000000001,41.989561,5000 -8.341609999999999,41.989588,5000 -8.341761999999999,41.989812,5000 -8.341806999999999,41.989868,5000 -8.341832999999999,41.989892,5000 -8.341983000000001,41.989992,5000 -8.342015,41.990005,5000 -8.342052000000001,41.990011,5000 -8.342086999999999,41.990008,5000 -8.342115,41.989994,5000 -8.342139,41.989973,5000 -8.342162999999999,41.989929,5000 -8.342174,41.989896,5000 -8.342198,41.989651,5000 -8.342244000000001,41.989497,5000 -8.342364999999999,41.989264,5000 -8.342395,41.989231,5000 -8.342428,41.989201,5000 -8.342465000000001,41.989172,5000 -8.342713,41.989022,5000 -8.342897000000001,41.988916,5000 -8.342928000000001,41.988895,5000 -8.343166999999999,41.988777,5000 -8.343196000000001,41.988752,5000 -8.343305000000001,41.988625,5000 -8.343330999999999,41.988589,5000 -8.343488000000001,41.9884,5000 -8.343525,41.988375,5000 -8.343565999999999,41.988352,5000 -8.343605,41.988333,5000 -8.343722,41.988295,5000 -8.343831,41.98825,5000 -8.343868000000001,41.988231,5000 -8.343896000000001,41.988208,5000 -8.343919,41.98818,5000 -8.343938,41.988148,5000 -8.343947999999999,41.988115,5000 -8.343949,41.988083,5000 -8.343914,41.987852,5000 -8.343959,41.987619,5000 -8.344025,41.987389,5000 -8.344101999999999,41.987152,5000 -8.344167000000001,41.986893,5000 -8.344207000000001,41.986659,5000 -8.344245000000001,41.986425,5000 -8.344295000000001,41.986188,5000 -8.344372999999999,41.985953,5000 -8.344409000000001,41.985718,5000 -8.344450999999999,41.985576,5000 -8.344468000000001,41.985546,5000 -8.344488999999999,41.985518,5000 -8.344512999999999,41.985494,5000 -8.344543,41.985473,5000 -8.344576,41.985456,5000 -8.344614,41.985448,5000 -8.344654999999999,41.985448,5000 -8.344696000000001,41.985454,5000 -8.344733,41.985466,5000 -8.344842,41.985513,5000 -8.344877,41.985519,5000 -8.344915,41.985517,5000 -8.345015,41.9855,5000 -8.345053,41.985497,5000 -8.345094,41.985488,5000 -8.345157,41.985461,5000 -8.345250999999999,41.98541,5000 -8.345544,41.985296,5000 -8.345654,41.985227,5000 -8.345666,41.985221,5000 -8.345687,41.985208,5000 -8.345698000000001,41.985201,5000 -8.34573,41.985182,5000 -8.345767,41.985161,5000 -8.345841999999999,41.985117,5000 -8.345876000000001,41.985096,5000 -8.345978000000001,41.985035,5000 -8.346221,41.984912,5000 -8.346659000000001,41.984663,5000 -8.346784,41.984598,5000 -8.347002,41.984511,5000 -8.347332,41.984408,5000 -8.347638,41.98427,5000 -8.347935,41.984092,5000 -8.347944,41.984086,5000 -8.348352,41.98383,5000 -8.349084,41.983634,5000 -8.349427,41.983489,5000 -8.349684999999999,41.983332,5000 -8.349843999999999,41.983294,5000 -8.350047999999999,41.98329,5000 -8.350607999999999,41.98339,5000 -8.350835,41.983433,5000 -8.351295,41.983422,5000 -8.351621,41.983295,5000 -8.352148,41.983094,5000 -8.352791,41.982766,5000 -8.353085,41.982663,5000 -8.353465999999999,41.98262,5000 -8.353785999999999,41.982718,5000 -8.354132999999999,41.982873,5000 -8.354417,41.983104,5000 -8.354538,41.983336,5000 -8.354808999999999,41.983642,5000 -8.355153,41.984002,5000 -8.355274,41.984097,5000 -8.355494,41.984176,5000 -8.355651999999999,41.984203,5000 -8.355850999999999,41.984202,5000 -8.355966,41.98419,5000 -8.356076,41.984148,5000 -8.356337,41.983919,5000 -8.3565,41.983605,5000 -8.356693,41.983073,5000 -8.35707,41.982572,5000 -8.357248,41.982424,5000 -8.357483999999999,41.982279,5000 -8.357771,41.982142,5000 -8.358158,41.982061,5000 -8.358193999999999,41.982065,5000 -8.358461,41.982092,5000 -8.358917999999999,41.982231,5000 -8.359301,41.982378,5000 -8.359453999999999,41.982522,5000 -8.359632,41.982708,5000 -8.359843,41.982962,5000 -8.360025,41.983333,5000 -8.360168,41.983675,5000 -8.360258999999999,41.983738,5000 -8.360405999999999,41.983757,5000 -8.360576,41.983674,5000 -8.360677000000001,41.983455,5000 -8.360682000000001,41.983078,5000 -8.360676,41.982971,5000 -8.360796000000001,41.982762,5000 -8.361051,41.982403,5000 -8.361086,41.982242,5000 -8.361063,41.98202,5000 -8.360854,41.981767,5000 -8.360476,41.981295,5000 -8.360326000000001,41.980886,5000 -8.360369,41.980279,5000 -8.36054,41.980217,5000 -8.360658000000001,41.980179,5000 -8.360799,41.980186,5000 -8.36102,41.980395,5000 -8.361219999999999,41.980542,5000 -8.361488,41.980602,5000 -8.361776000000001,41.980552,5000 -8.362276,41.980393,5000 -8.362527,41.980154,5000 -8.362733,41.979983,5000 -8.362837000000001,41.980011,5000 -8.363016,41.980156,5000 -8.363182,41.980308,5000 -8.363343,41.980469,5000 -8.363524999999999,41.980628,5000 -8.363676,41.980803,5000 -8.36379,41.980987,5000 -8.363943000000001,41.981171,5000 -8.364138000000001,41.98135,5000 -8.364388999999999,41.981524,5000 -8.364692,41.981647,5000 -8.364742,41.981656,5000 -8.364796999999999,41.981659,5000 -8.36496,41.981655,5000 -8.365296000000001,41.981633,5000 -8.365900999999999,41.981619,5000 -8.366247,41.981611,5000 -8.366548,41.981592,5000 -8.366776,41.981546,5000 -8.366885,41.981524,5000 -8.367158999999999,41.981414,5000 -8.367433999999999,41.981323,5000 -8.367744,41.981238,5000 -8.367789999999999,41.981232,5000 -8.368247,41.981026,5000 -8.368684,41.980913,5000 -8.369384,41.980805,5000 -8.370473,41.980706,5000 -8.370943,41.980687,5000 -8.371387,41.980676,5000 -8.371981,41.980808,5000 -8.372282999999999,41.980955,5000 -8.372706000000001,41.981059,5000 -8.373111,41.981168,5000 -8.373419,41.9813,5000 -8.373802,41.981403,5000 -8.374076000000001,41.981428,5000 -8.374909000000001,41.981473,5000 -8.376150000000001,41.981533,5000 -8.376234,41.981538,5000 -8.377193999999999,41.98115,5000 -8.379205000000001,41.980792,5000 -8.383485,41.978352,5000 -8.387622,41.977761,5000 -8.387912,41.97772,5000 -8.394496,41.978438,5000 -8.401479999999999,41.975702,5000 -8.401498,41.975694,5000 -8.401536999999999,41.975711,5000 -8.401842,41.975828,5000 -8.402149,41.975926,5000 -8.402481999999999,41.975998,5000 -8.402779000000001,41.976043,5000 -8.403129,41.976098,5000 -8.403332000000001,41.97618,5000 -8.403464,41.976202,5000 -8.404574999999999,41.976344,5000 -8.405339,41.976408,5000 -8.406095000000001,41.976424,5000 -8.408795,41.976426,5000 -8.41039,41.976436,5000 -8.410482999999999,41.976436,5000 -8.411265999999999,41.976437,5000 -8.412148,41.976457,5000 -8.413232000000001,41.976506,5000 -8.414406,41.976604,5000 -8.415997000000001,41.976636,5000 -8.415998,41.976616,5000 -8.416247,41.976617,5000 -8.416679,41.976578,5000 -8.417095,41.976561,5000 -8.417524999999999,41.976571,5000 -8.417835999999999,41.976602,5000 -8.418068,41.976617,5000 -8.418642,41.976558,5000 -8.418792,41.97653,5000 -8.418960999999999,41.976498,5000 -8.419131999999999,41.976482,5000 -8.419222,41.976458,5000 -8.419276,41.976409,5000 -8.419292,41.976331,5000 -8.419311,41.976376,5000 -8.419328,41.976399,5000 -8.41935,41.976421,5000 -8.419376,41.976439,5000 -8.419404999999999,41.976454,5000 -8.419615,41.97652,5000 -8.419649,41.976525,5000 -8.419682999999999,41.976527,5000 -8.41982,41.976529,5000 -8.420139000000001,41.976507,5000 -8.420436,41.976498,5000 -8.420767,41.976589,5000 -8.42098,41.976705,5000 -8.421243,41.97682,5000 -8.421567,41.976877,5000 -8.421906,41.976917,5000 -8.422226,41.97695,5000 -8.422385999999999,41.976989,5000 -8.422541000000001,41.977002,5000 -8.422857,41.977044,5000 -8.42319,41.977071,5000 -8.423515999999999,41.977076,5000 -8.423844000000001,41.977078,5000 -8.424177,41.977073,5000 -8.424276000000001,41.977055,5000 -8.425185000000001,41.976894,5000 -8.425319,41.976936,5000 -8.425613,41.977017,5000 -8.425928000000001,41.977068,5000 -8.426310000000001,41.97708,5000 -8.426645000000001,41.977081,5000 -8.426978999999999,41.977065,5000 -8.427292,41.977099,5000 -8.427491,41.977108,5000 -8.427790999999999,41.977199,5000 -8.428110999999999,41.977268,5000 -8.428454,41.977341,5000 -8.428604999999999,41.977393,5000 -8.428877999999999,41.977515,5000 -8.429176,41.97761,5000 -8.429292,41.977635,5000 -8.429349,41.977643,5000 -8.429656,41.97764,5000 -8.429989000000001,41.977619,5000 -8.430289999999999,41.97764,5000 -8.430612999999999,41.977652,5000 -8.430937,41.977628,5000 -8.431253999999999,41.977535,5000 -8.431381999999999,41.977488,5000 -8.431441,41.97746,5000 -8.431679000000001,41.97731,5000 -8.431953,41.977187,5000 -8.432003,41.97717,5000 -8.432274,41.977045,5000 -8.432499,41.976875,5000 -8.432682,41.976674,5000 -8.432848,41.976485,5000 -8.433064,41.976307,5000 -8.433344999999999,41.97614,5000 -8.433469000000001,41.976091,5000 -8.433532,41.976074,5000 -8.433598,41.976062,5000 -8.433669,41.976059,5000 -8.433819,41.976069,5000 -8.433890999999999,41.976082,5000 -8.433961999999999,41.976101,5000 -8.434011,41.976124,5000 -8.434195000000001,41.976155,5000 -8.434627000000001,41.976296,5000 -8.434943000000001,41.976418,5000 -8.435321999999999,41.976537,5000 -8.43576,41.976607,5000 -8.436199999999999,41.976667,5000 -8.436572999999999,41.976676,5000 -8.436983,41.976659,5000 -8.437279999999999,41.976591,5000 -8.437578999999999,41.976415,5000 -8.437754,41.976139,5000 -8.438139,41.975299,5000 -8.438670999999999,41.973737,5000 -8.440303999999999,41.97366,5000 -8.449127000000001,41.972597,5000 -8.451784,41.973114,5000 -8.454280000000001,41.973598,5000 -8.461893999999999,41.971057,5000 -8.462888,41.971159,5000 -8.463168,41.971216,5000 -8.463831000000001,41.971351,5000 -8.464798999999999,41.971587,5000 -8.465686,41.971749,5000 -8.466946,41.972023,5000 -8.468144000000001,41.972297,5000 -8.469706,41.972736,5000 -8.471147,41.973184,5000 -8.472147,41.973411,5000 -8.472652999999999,41.973279,5000 -8.473383999999999,41.973037,5000 -8.473983,41.972788,5000 -8.474629999999999,41.972399,5000 -8.475078,41.972055,5000 -8.475326000000001,41.971889,5000 -8.475604000000001,41.971744,5000 -8.475885999999999,41.971593,5000 -8.476127,41.971438,5000 -8.476402999999999,41.971276,5000 -8.476672000000001,41.97114,5000 -8.476913,41.970994,5000 -8.477164999999999,41.970823,5000 -8.47738,41.970659,5000 -8.477544,41.970463,5000 -8.477676000000001,41.970218,5000 -8.477772,41.970001,5000 -8.477907,41.969765,5000 -8.478002999999999,41.969664,5000 -8.478156999999999,41.969557,5000 -8.478415,41.9694,5000 -8.478452000000001,41.96937,5000 -8.478471000000001,41.969351,5000 -8.478773,41.969163,5000 -8.479290000000001,41.968819,5000 -8.479827999999999,41.968453,5000 -8.480297999999999,41.968125,5000 -8.480827,41.967755,5000 -8.481348000000001,41.96745,5000 -8.481878,41.967158,5000 -8.482563000000001,41.966808,5000 -8.483281,41.966391,5000 -8.483919,41.966149,5000 -8.484617999999999,41.965889,5000 -8.485315999999999,41.965787,5000 -8.486003,41.965783,5000 -8.486741,41.965797,5000 -8.487558,41.965884,5000 -8.488441999999999,41.965982,5000 -8.489305999999999,41.966107,5000 -8.490237,41.966132,5000 -8.490425999999999,41.966126,5000 -8.491132,41.966104,5000 -8.492149,41.966137,5000 -8.494476000000001,41.966077,5000 -8.497711000000001,41.963468,5000 -8.50107,41.960627,5000 -8.501213999999999,41.957425,5000 -8.503807999999999,41.954588,5000 -8.504096000000001,41.953841,5000 -8.504667,41.952383,5000 -8.504816,41.948244,5000 -8.507484,41.945689,5000 -8.508019000000001,41.944349,5000 -8.507961,41.944345,5000 -8.507936000000001,41.944213,5000 -8.507854,41.943973,5000 -8.507757,41.943701,5000 -8.507536999999999,41.943141,5000 -8.507455,41.942903,5000 -8.507370999999999,41.942683,5000 -8.507234,41.942261,5000 -8.507014,41.941756,5000 -8.50698,41.941643,5000 -8.506962,41.941547,5000 -8.506962,41.941462,5000 -8.506992,41.941381,5000 -8.507058000000001,41.941218,5000 -8.507192999999999,41.940965,5000 -8.507209,41.940909,5000 -8.507209,41.940814,5000 -8.507201,41.940703,5000 -8.507135,41.940181,5000 -8.507104999999999,41.939928,5000 -8.507116999999999,41.9398,5000 -8.507142999999999,41.93968,5000 -8.507269000000001,41.939292,5000 -8.507389999999999,41.938899,5000 -8.507455999999999,41.938717,5000 -8.507531999999999,41.938564,5000 -8.507674,41.938328,5000 -8.507733999999999,41.93817,5000 -8.507787,41.937967,5000 -8.507826,41.937817,5000 -8.507825,41.937706,5000 -8.507799,41.937615,5000 -8.507757,41.93754,5000 -8.507683,41.937475,5000 -8.507577,41.937409,5000 -8.507299,41.937301,5000 -8.506875000000001,41.937169,5000 -8.506717999999999,41.937108,5000 -8.506596,41.937049,5000 -8.506475,41.936968,5000 -8.506373,41.93688,5000 -8.506143,41.936642,5000 -8.505777,41.936259,5000 -8.505502,41.935969,5000 -8.505343999999999,41.935793,5000 -8.50515,41.93561,5000 -8.504960000000001,41.935468,5000 -8.504731,41.935312,5000 -8.504566000000001,41.935209,5000 -8.504484,41.935129,5000 -8.504428000000001,41.935049,5000 -8.504367999999999,41.93492,5000 -8.504223,41.934416,5000 -8.504118,41.93403,5000 -8.504023,41.933662,5000 -8.503928,41.933345,5000 -8.503885,41.933238,5000 -8.503795,41.933059,5000 -8.503558,41.932663,5000 -8.503156000000001,41.931934,5000 -8.503,41.931696,5000 -8.502938,41.931627,5000 -8.502852000000001,41.931534,5000 -8.502742,41.93145,5000 -8.502364,41.931213,5000 -8.501654,41.930777,5000 -8.501253999999999,41.930536,5000 -8.50095,41.930391,5000 -8.500487,41.930192,5000 -8.500343000000001,41.930123,5000 -8.500132000000001,41.929979,5000 -8.499888,41.929791,5000 -8.499670999999999,41.929645,5000 -8.498977,41.929254,5000 -8.498621,41.929058,5000 -8.498454000000001,41.928941,5000 -8.498347000000001,41.928847,5000 -8.498236,41.928699,5000 -8.498055000000001,41.928423,5000 -8.49766,41.927807,5000 -8.497418,41.927402,5000 -8.497158000000001,41.926984,5000 -8.497026999999999,41.92682,5000 -8.496884,41.926692,5000 -8.496506,41.926439,5000 -8.495668999999999,41.925884,5000 -8.495302000000001,41.925621,5000 -8.495120999999999,41.925465,5000 -8.494607,41.924936,5000 -8.494431000000001,41.92476,5000 -8.494094,41.924422,5000 -8.4938,41.924114,5000 -8.493411999999999,41.923712,5000 -8.493345,41.923624,5000 -8.493315000000001,41.923562,5000 -8.493309,41.923509,5000 -8.493311,41.923433,5000 -8.493318,41.923381,5000 -8.493404999999999,41.923178,5000 -8.493592,41.922766,5000 -8.493791,41.922303,5000 -8.493892000000001,41.922067,5000 -8.494151,41.921491,5000 -8.494213,41.921331,5000 -8.494246,41.92125,5000 -8.494253,41.921194,5000 -8.494296,41.920823,5000 -8.494294999999999,41.920609,5000 -8.494278,41.920454,5000 -8.494232999999999,41.920276,5000 -8.494197,41.920173,5000 -8.494116,41.919986,5000 -8.494025000000001,41.919773,5000 -8.493938999999999,41.91957,5000 -8.493892000000001,41.919431,5000 -8.493866000000001,41.919289,5000 -8.493847000000001,41.919143,5000 -8.493812,41.919026,5000 -8.493766000000001,41.918911,5000 -8.493637,41.918749,5000 -8.493452,41.918503,5000 -8.493226,41.918183,5000 -8.493041,41.917978,5000 -8.492749999999999,41.917683,5000 -8.492547,41.917478,5000 -8.492516,41.917436,5000 -8.492495999999999,41.9174,5000 -8.492432000000001,41.917285,5000 -8.492369999999999,41.91713,5000 -8.492286999999999,41.916873,5000 -8.492195000000001,41.916594,5000 -8.492115,41.916367,5000 -8.492069000000001,41.916196,5000 -8.492058999999999,41.916063,5000 -8.492058,41.915849,5000 -8.492076000000001,41.915665,5000 -8.492115,41.915523,5000 -8.492179999999999,41.915402,5000 -8.492281999999999,41.91526,5000 -8.492402999999999,41.915118,5000 -8.49244,41.915045,5000 -8.492461,41.914978,5000 -8.492454,41.914913,5000 -8.492424,41.914858,5000 -8.492319999999999,41.914719,5000 -8.492251,41.914623,5000 -8.492182,41.914546,5000 -8.492099,41.914471,5000 -8.492032,41.914435,5000 -8.491959,41.914413,5000 -8.491832,41.914382,5000 -8.491630000000001,41.914355,5000 -8.491178,41.914315,5000 -8.491104,41.914303,5000 -8.491034000000001,41.914264,5000 -8.490977000000001,41.914217,5000 -8.490904,41.914121,5000 -8.490809,41.913968,5000 -8.490663,41.913715,5000 -8.490617,41.91366,5000 -8.490513,41.913567,5000 -8.490332,41.913438,5000 -8.490100999999999,41.913297,5000 -8.489736000000001,41.913145,5000 -8.489236,41.912951,5000 -8.489011,41.912863,5000 -8.488899,41.912817,5000 -8.488810000000001,41.912759,5000 -8.488769,41.912708,5000 -8.48875,41.912667,5000 -8.488712,41.912582,5000 -8.488699,41.912487,5000 -8.488699,41.912347,5000 -8.488718,41.912137,5000 -8.488757,41.9118,5000 -8.488788,41.911442,5000 -8.488845,41.911143,5000 -8.488958,41.910761,5000 -8.489027999999999,41.910461,5000 -8.489127,41.910256,5000 -8.489262999999999,41.910072,5000 -8.489421,41.90992,5000 -8.489649999999999,41.909717,5000 -8.490065,41.909357,5000 -8.490366,41.909086,5000 -8.490532999999999,41.908923,5000 -8.490598,41.908848,5000 -8.490663,41.908752,5000 -8.490831999999999,41.908424,5000 -8.491011,41.908016,5000 -8.491063,41.907862,5000 -8.491099,41.907775,5000 -8.491108000000001,41.907703,5000 -8.491097999999999,41.907637,5000 -8.491042,41.907561,5000 -8.490780000000001,41.907349,5000 -8.490702000000001,41.907274,5000 -8.490640000000001,41.907177,5000 -8.490596,41.907076,5000 -8.490563999999999,41.906911,5000 -8.490531000000001,41.906607,5000 -8.490504,41.906326,5000 -8.490503,41.906171,5000 -8.490487,41.906085,5000 -8.490458,41.906025,5000 -8.490405000000001,41.905955,5000 -8.490259,41.905827,5000 -8.490016000000001,41.905672,5000 -8.48976,41.905518,5000 -8.489611999999999,41.905425,5000 -8.489547999999999,41.905367,5000 -8.489443,41.905233,5000 -8.489292000000001,41.904988,5000 -8.489207,41.904819,5000 -8.489171000000001,41.904678,5000 -8.489155,41.904403,5000 -8.489136,41.904012,5000 -8.489106,41.903556,5000 -8.489110999999999,41.903339,5000 -8.489077,41.903343,5000 -8.488574,41.901539,5000 -8.489423,41.899369,5000 -8.490364,41.896965,5000 -8.492914000000001,41.894278,5000 -8.498409000000001,41.889014,5000 -8.498905000000001,41.888393,5000 -8.498903,41.888318,5000 -8.498941,41.888078,5000 -8.498977,41.887925,5000 -8.499003999999999,41.88774,5000 -8.498991999999999,41.887559,5000 -8.498984,41.887512,5000 -8.498951999999999,41.887476,5000 -8.498896999999999,41.887421,5000 -8.498745,41.88633,5000 -8.498745,41.886327,5000 -8.498768999999999,41.886247,5000 -8.499383,41.884826,5000 -8.499497,41.884758,5000 -8.499552,41.884756,5000 -8.500283,41.884775,5000 -8.501039,41.885018,5000 -8.50108,41.885038,5000 -8.501099999999999,41.885043,5000 -8.501120999999999,41.885047,5000 -8.501136000000001,41.885049,5000 -8.501162000000001,41.885052,5000 -8.501177999999999,41.88505,5000 -8.501201,41.885044,5000 -8.501227999999999,41.885036,5000 -8.501261,41.885028,5000 -8.501961,41.884915,5000 -8.502041,41.884897,5000 -8.50207,41.884893,5000 -8.502083000000001,41.884893,5000 -8.502109000000001,41.884897,5000 -8.502126000000001,41.884902,5000 -8.502179999999999,41.884916,5000 -8.502366,41.88495,5000 -8.502446000000001,41.884971,5000 -8.502565000000001,41.884982,5000 -8.502769000000001,41.884984,5000 -8.502872,41.884885,5000 -8.503360000000001,41.884307,5000 -8.503594,41.88412,5000 -8.50418,41.884056,5000 -8.504232,41.884057,5000 -8.504363,41.88409,5000 -8.504479,41.884121,5000 -8.504587000000001,41.884153,5000 -8.504671999999999,41.884165,5000 -8.504773,41.88417,5000 -8.504852,41.884146,5000 -8.504935,41.884114,5000 -8.505091999999999,41.884085,5000 -8.505222,41.884068,5000 -8.505373000000001,41.884058,5000 -8.5055,41.884064,5000 -8.505597,41.884065,5000 -8.505712000000001,41.884064,5000 -8.50581,41.884055,5000 -8.505888000000001,41.884047,5000 -8.505944,41.884037,5000 -8.505990000000001,41.884028,5000 -8.506071,41.884006,5000 -8.506192,41.883945,5000 -8.506278999999999,41.883882,5000 -8.506372000000001,41.883808,5000 -8.506525,41.88369,5000 -8.506653999999999,41.88357,5000 -8.506728000000001,41.883478,5000 -8.50681,41.8834,5000 -8.507085999999999,41.883271,5000 -8.507197,41.88321,5000 -8.507299,41.883155,5000 -8.507339999999999,41.883125,5000 -8.507402000000001,41.883072,5000 -8.507440000000001,41.883034,5000 -8.507474,41.882973,5000 -8.507516000000001,41.882886,5000 -8.507538,41.882825,5000 -8.507571,41.88271,5000 -8.507593,41.882637,5000 -8.507633999999999,41.882533,5000 -8.507671999999999,41.882441,5000 -8.507709,41.88237,5000 -8.507733,41.88234,5000 -8.507775000000001,41.882283,5000 -8.507778,41.882266,5000 -8.507754,41.88222,5000 -8.507724,41.88218,5000 -8.507688,41.882162,5000 -8.507569,41.882079,5000 -8.507410999999999,41.881966,5000 -8.507315,41.881878,5000 -8.507196,41.8818,5000 -8.507121,41.881706,5000 -8.507066999999999,41.881609,5000 -8.507047,41.88152,5000 -8.507045,41.881415,5000 -8.507054999999999,41.881328,5000 -8.507080999999999,41.881209,5000 -8.507085,41.881136,5000 -8.50708,41.881065,5000 -8.507059999999999,41.880955,5000 -8.507013000000001,41.880767,5000 -8.507015000000001,41.880639,5000 -8.507038,41.880513,5000 -8.507078999999999,41.880408,5000 -8.507142,41.880274,5000 -8.507254,41.880069,5000 -8.507377,41.879786,5000 -8.507508,41.879572,5000 -8.507630000000001,41.87936,5000 -8.507758000000001,41.879171,5000 -8.507854999999999,41.879064,5000 -8.508004,41.878902,5000 -8.508155,41.878789,5000 -8.508334,41.878669,5000 -8.508552999999999,41.878515,5000 -8.508698000000001,41.878406,5000 -8.508877,41.878288,5000 -8.509031,41.878207,5000 -8.509346000000001,41.878051,5000 -8.509600000000001,41.87795,5000 -8.509629,41.87789,5000 -8.509667,41.877815,5000 -8.509713,41.87776,5000 -8.509772,41.87772,5000 -8.509836999999999,41.877679,5000 -8.509917,41.877661,5000 -8.510012,41.877637,5000 -8.510107,41.877587,5000 -8.510172000000001,41.877532,5000 -8.510268,41.877473,5000 -8.510348,41.877403,5000 -8.51042,41.877319,5000 -8.510476000000001,41.877246,5000 -8.510557,41.877141,5000 -8.510619,41.877083,5000 -8.510738999999999,41.877014,5000 -8.510868,41.87694,5000 -8.510952,41.876892,5000 -8.511010000000001,41.876863,5000 -8.511084,41.876804,5000 -8.511165,41.876715,5000 -8.511210999999999,41.876665,5000 -8.511241999999999,41.876638,5000 -8.511286,41.876627,5000 -8.511365,41.876629,5000 -8.511483999999999,41.876662,5000 -8.5116,41.87672,5000 -8.511733,41.876781,5000 -8.511898,41.876878,5000 -8.511964000000001,41.876933,5000 -8.51205,41.876972,5000 -8.512207999999999,41.877024,5000 -8.512311,41.877068,5000 -8.512382000000001,41.877089,5000 -8.512449,41.877115,5000 -8.512518999999999,41.877124,5000 -8.51258,41.87712,5000 -8.512639,41.877109,5000 -8.512708999999999,41.877077,5000 -8.512822999999999,41.877041,5000 -8.512995999999999,41.876944,5000 -8.51318,41.876852,5000 -8.513334,41.876766,5000 -8.513415,41.876707,5000 -8.513483000000001,41.87665,5000 -8.513551,41.876596,5000 -8.513607,41.87652,5000 -8.513641,41.876473,5000 -8.513731,41.876382,5000 -8.513824,41.876295,5000 -8.513947,41.876221,5000 -8.514046,41.876144,5000 -8.514132999999999,41.876078,5000 -8.51421,41.875996,5000 -8.514241,41.875946,5000 -8.514331,41.875862,5000 -8.51435,41.875816,5000 -8.514378000000001,41.875764,5000 -8.514422,41.875704,5000 -8.514472,41.875638,5000 -8.514514999999999,41.875582,5000 -8.514556000000001,41.875536,5000 -8.514614999999999,41.875456,5000 -8.514652999999999,41.875388,5000 -8.514666,41.875317,5000 -8.514678999999999,41.875219,5000 -8.514658000000001,41.875143,5000 -8.514633999999999,41.875093,5000 -8.514564999999999,41.875017,5000 -8.514528,41.874969,5000 -8.51313,41.868184,5000 -8.514908,41.867053,5000 -8.517712,41.86479,5000 -8.520465,41.859624,5000 -8.523012,41.857738,5000 -8.523206999999999,41.856574,5000 -8.523152,41.855962,5000 -8.523128,41.854471,5000 -8.523111,41.854181,5000 -8.523206999999999,41.853736,5000 -8.523605999999999,41.852255,5000 -8.5236,41.852158,5000 -8.523529,41.850446,5000 -8.523638,41.850473,5000 -8.523706000000001,41.850414,5000 -8.5238,41.850285,5000 -8.523835,41.850216,5000 -8.523879000000001,41.850027,5000 -8.523895,41.84992,5000 -8.523955000000001,41.849592,5000 -8.523972000000001,41.849501,5000 -8.524008,41.84926,5000 -8.524032999999999,41.849057,5000 -8.523887999999999,41.847909,5000 -8.524065,41.847404,5000 -8.524309000000001,41.846949,5000 -8.524652,41.846419,5000 -8.525074,41.84581,5000 -8.525620999999999,41.845182,5000 -8.526123,41.844517,5000 -8.526578000000001,41.84391,5000 -8.526801000000001,41.843558,5000 -8.52774,41.841915,5000 -8.528559,41.84048,5000 -8.530052,41.835776,5000 -8.530427,41.832397,5000 -8.530867000000001,41.831598,5000 -8.530968,41.831414,5000 -8.531036,41.830218,5000 -8.530778,41.82912,5000 -8.530498,41.828108,5000 -8.529726,41.826497,5000 -8.529396,41.826308,5000 -8.529035,41.826164,5000 -8.528708999999999,41.826078,5000 -8.528435999999999,41.825952,5000 -8.528074999999999,41.825742,5000 -8.527855000000001,41.825618,5000 -8.527734000000001,41.825534,5000 -8.527699999999999,41.8254,5000 -8.527708000000001,41.825315,5000 -8.527665000000001,41.825156,5000 -8.527445,41.824909,5000 -8.527243,41.824694,5000 -8.527119000000001,41.824553,5000 -8.527054,41.824385,5000 -8.526968999999999,41.82418,5000 -8.526871999999999,41.823924,5000 -8.526764999999999,41.823765,5000 -8.526578000000001,41.82363,5000 -8.526099,41.823509,5000 -8.525479000000001,41.823342,5000 -8.524846999999999,41.823231,5000 -8.524091,41.82326,5000 -8.523353,41.823438,5000 -8.522413,41.82355,5000 -8.521945000000001,41.823471,5000 -8.521687,41.823225,5000 -8.521463000000001,41.823134,5000 -8.521253,41.823149,5000 -8.520676999999999,41.82306,5000 -8.52028,41.822938,5000 -8.519992999999999,41.822804,5000 -8.519754000000001,41.822727,5000 -8.519526000000001,41.82265,5000 -8.519639,41.822539,5000 -8.519793,41.822327,5000 -8.519845,41.822195,5000 -8.519942,41.821959,5000 -8.520014,41.821727,5000 -8.520139,41.821498,5000 -8.520223,41.821405,5000 -8.520338000000001,41.821322,5000 -8.520477,41.821244,5000 -8.520531,41.821225,5000 -8.520583999999999,41.821207,5000 -8.520822000000001,41.821071,5000 -8.521001999999999,41.820879,5000 -8.521193,41.820707,5000 -8.521217999999999,41.820669,5000 -8.521286,41.82043,5000 -8.521376999999999,41.820188,5000 -8.521572000000001,41.82,5000 -8.521592999999999,41.819978,5000 -8.521610000000001,41.819743,5000 -8.521547999999999,41.819361,5000 -8.521436,41.818779,5000 -8.521587999999999,41.818159,5000 -8.521723,41.817224,5000 -8.521602,41.8166,5000 -8.521497,41.816114,5000 -8.521471999999999,41.815752,5000 -8.521412,41.815285,5000 -8.521528,41.814705,5000 -8.521642999999999,41.814236,5000 -8.521734,41.813799,5000 -8.521824000000001,41.813107,5000 -8.521898,41.812504,5000 -8.521922,41.81211,5000 -8.521903,41.811643,5000 -8.521953999999999,41.811479,5000 -8.522157,41.811118,5000 -8.52252,41.810635,5000 -8.522746,41.810386,5000 -8.522864,41.810256,5000 -8.523110000000001,41.809986,5000 -8.523415999999999,41.809409,5000 -8.523510999999999,41.808771,5000 -8.523580000000001,41.808096,5000 -8.523588,41.807884,5000 -8.523558,41.807546,5000 -8.523421000000001,41.807146,5000 -8.523203000000001,41.806657,5000 -8.522944000000001,41.806173,5000 -8.522736,41.805754,5000 -8.521919,41.805758,5000 -8.519043,41.805918,5000 -8.518788000000001,41.805587,5000 -8.518195,41.804989,5000 -8.517541,41.804254,5000 -8.517226000000001,41.803743,5000 -8.516747000000001,41.802994,5000 -8.515946,41.802194,5000 -8.515599,41.801664,5000 -8.515188,41.801099,5000 -8.517677000000001,41.798119,5000 -8.517573000000001,41.798015,5000 -8.517405,41.797554,5000 -8.517170999999999,41.797007,5000 -8.517151,41.796958,5000 -8.517037999999999,41.796492,5000 -8.517039,41.796207,5000 -8.51702,41.795766,5000 -8.516914999999999,41.795042,5000 -8.516797,41.794189,5000 -8.516738999999999,41.793789,5000 -8.516695,41.793504,5000 -8.515637,41.792747,5000 -8.514894999999999,41.792561,5000 -8.514011,41.79247,5000 -8.512817999999999,41.792888,5000 -8.511914000000001,41.793228,5000 -8.511075,41.793416,5000 -8.510198000000001,41.793519,5000 -8.510126,41.793519,5000 -8.510028999999999,41.793519,5000 -8.509789,41.793518,5000 -8.509100999999999,41.793517,5000 -8.508106,41.793461,5000 -8.506899000000001,41.793253,5000 -8.505527000000001,41.792993,5000 -8.504541,41.792633,5000 -8.503892,41.792472,5000 -8.502243,41.792064,5000 -8.501522,41.791785,5000 -8.500813000000001,41.791496,5000 -8.500627,41.79142,5000 -8.499979,41.791194,5000 -8.499344000000001,41.791018,5000 -8.498103,41.790861,5000 -8.497123999999999,41.790853,5000 -8.496295999999999,41.790996,5000 -8.495513000000001,41.791267,5000 -8.494756000000001,41.791605,5000 -8.493988,41.791936,5000 -8.493226,41.792217,5000 -8.492388,41.792268,5000 -8.491921,41.792296,5000 -8.4907,41.792156,5000 -8.489668999999999,41.792064,5000 -8.488818999999999,41.792074,5000 -8.48795,41.79215,5000 -8.486821000000001,41.792248,5000 -8.486661,41.792262,5000 -8.485436,41.792527,5000 -8.484377,41.792866,5000 -8.483181999999999,41.793355,5000 -8.481873,41.79392,5000 -8.481058000000001,41.794352,5000 -8.480988,41.794381,5000 -8.480184,41.794712,5000 -8.479236,41.794928,5000 -8.478116999999999,41.795259,5000 -8.477660999999999,41.795712,5000 -8.477264,41.796091,5000 -8.476661,41.796524,5000 -8.475778,41.797115,5000 -8.474478,41.7984,5000 -8.474178,41.798876,5000 -8.474000999999999,41.799408,5000 -8.473857000000001,41.799894,5000 -8.473748000000001,41.800344,5000 -8.473532000000001,41.80082,5000 -8.47298,41.801373,5000 -8.47259,41.801576,5000 -8.472396,41.801677,5000 -8.471850999999999,41.801832,5000 -8.470516,41.802098,5000 -8.469645,41.802186,5000 -8.469377,41.802229,5000 -8.469021,41.802286,5000 -8.468106000000001,41.80237,5000 -8.467109000000001,41.80247,5000 -8.467036999999999,41.802482,5000 -8.466255,41.80261,5000 -8.465247,41.802737,5000 -8.464331,41.802807,5000 -8.463437000000001,41.802816,5000 -8.462669,41.80283,5000 -8.461693,41.802935,5000 -8.46067,41.803057,5000 -8.46027,41.803127,5000 -8.459775,41.803213,5000 -8.458834,41.803466,5000 -8.458057,41.803678,5000 -8.457238,41.803903,5000 -8.456402000000001,41.804146,5000 -8.455560999999999,41.804345,5000 -8.454684,41.804509,5000 -8.453884,41.804643,5000 -8.453093000000001,41.804788,5000 -8.452299999999999,41.804962,5000 -8.451549,41.805136,5000 -8.450924000000001,41.805344,5000 -8.450407999999999,41.805594,5000 -8.449985,41.805843,5000 -8.44956,41.80605,5000 -8.449101000000001,41.806207,5000 -8.448543000000001,41.806315,5000 -8.447951,41.80633,5000 -8.447516999999999,41.806317,5000 -8.447289,41.806284,5000 -8.446989,41.806241,5000 -8.446479,41.806128,5000 -8.44594,41.805956,5000 -8.445356,41.805778,5000 -8.444883000000001,41.805657,5000 -8.444762000000001,41.805626,5000 -8.444174,41.805494,5000 -8.443671,41.805463,5000 -8.443009,41.805477,5000 -8.442424000000001,41.80555,5000 -8.441865,41.80565,5000 -8.441219,41.805699,5000 -8.440618000000001,41.805702,5000 -8.439959,41.805728,5000 -8.439315000000001,41.805795,5000 -8.438689999999999,41.805867,5000 -8.438140000000001,41.805929,5000 -8.437633999999999,41.805991,5000 -8.437054,41.806067,5000 -8.436674999999999,41.806083,5000 -8.436546,41.806089,5000 -8.4361,41.806078,5000 -8.435617000000001,41.80601,5000 -8.435150999999999,41.805934,5000 -8.434568000000001,41.805912,5000 -8.434010000000001,41.805975,5000 -8.433496,41.806087,5000 -8.432992,41.806251,5000 -8.432036,41.80644,5000 -8.431991,41.806444,5000 -8.431369999999999,41.806501,5000 -8.430623000000001,41.806443,5000 -8.429902,41.806205,5000 -8.428967999999999,41.806128,5000 -8.428089,41.80625,5000 -8.426970000000001,41.806453,5000 -8.426171,41.806634,5000 -8.425852000000001,41.806835,5000 -8.425746999999999,41.807154,5000 -8.425428,41.807534,5000 -8.424606000000001,41.808574,5000 -8.424246999999999,41.80896,5000 -8.423916999999999,41.809314,5000 -8.423304999999999,41.809615,5000 -8.422371999999999,41.809678,5000 -8.420958000000001,41.809522,5000 -8.420051000000001,41.809524,5000 -8.419183,41.809676,5000 -8.418665000000001,41.809767,5000 -8.417813000000001,41.810008,5000 -8.417228,41.810369,5000 -8.417016,41.810529,5000 -8.416563,41.81065,5000 -8.41638,41.810639,5000 -8.415948999999999,41.810612,5000 -8.415521999999999,41.810453,5000 -8.415013999999999,41.810175,5000 -8.414159,41.809778,5000 -8.413517000000001,41.809261,5000 -8.412419999999999,41.808545,5000 -8.411431,41.807988,5000 -8.410764,41.80783,5000 -8.410043999999999,41.807812,5000 -8.409431,41.807873,5000 -8.408668,41.808157,5000 -8.408220999999999,41.808407,5000 -8.407807,41.808691,5000 -8.407633000000001,41.808808,5000 -8.407353000000001,41.808995,5000 -8.40696,41.809219,5000 -8.406485,41.809449,5000 -8.406082,41.809614,5000 -8.405735,41.809774,5000 -8.405428000000001,41.809956,5000 -8.405155000000001,41.810189,5000 -8.404945,41.810462,5000 -8.404776,41.81079,5000 -8.404617999999999,41.811133,5000 -8.404477999999999,41.811528,5000 -8.404388000000001,41.811972,5000 -8.404317000000001,41.812423,5000 -8.404222000000001,41.812754,5000 -8.404121999999999,41.813101,5000 -8.404052999999999,41.813406,5000 -8.403964,41.813682,5000 -8.403817,41.813945,5000 -8.40363,41.814116,5000 -8.403492,41.81419,5000 -8.403337000000001,41.814274,5000 -8.402998,41.814399,5000 -8.402592,41.814478,5000 -8.402167,41.814512,5000 -8.402061,41.814521,5000 -8.401574999999999,41.814516,5000 -8.401039000000001,41.814468,5000 -8.400467000000001,41.814438,5000 -8.399972,41.814434,5000 -8.399523,41.814413,5000 -8.398966,41.814366,5000 -8.398614,41.814292,5000 -8.3985,41.814268,5000 -8.398009999999999,41.814129,5000 -8.397451999999999,41.81396,5000 -8.397027,41.813813,5000 -8.396395,41.813639,5000 -8.395973,41.81353,5000 -8.395803000000001,41.813487,5000 -8.39533,41.813366,5000 -8.394792000000001,41.813257,5000 -8.394268,41.813152,5000 -8.393840000000001,41.81308,5000 -8.393606,41.813046,5000 -8.393298,41.813001,5000 -8.392823,41.812994,5000 -8.392253,41.813028,5000 -8.391662,41.813118,5000 -8.391073,41.813204,5000 -8.389994,41.813461,5000 -8.389699,41.813585,5000 -8.389578999999999,41.813634,5000 -8.389281,41.813837,5000 -8.389097,41.814041,5000 -8.388951,41.814269,5000 -8.388735,41.814509,5000 -8.388610999999999,41.814699,5000 -8.388341,41.814921,5000 -8.38801,41.815137,5000 -8.387665,41.815329,5000 -8.387224,41.815536,5000 -8.386645,41.815707,5000 -8.386060000000001,41.815822,5000 -8.385403,41.815907,5000 -8.384838999999999,41.815919,5000 -8.384209999999999,41.815925,5000 -8.383895000000001,41.815899,5000 -8.383877,41.815897,5000 -8.383597999999999,41.815874,5000 -8.383169000000001,41.815783,5000 -8.382659,41.815571,5000 -8.382232,41.815314,5000 -8.381830000000001,41.814933,5000 -8.381489999999999,41.814598,5000 -8.381186,41.814224,5000 -8.380917999999999,41.813847,5000 -8.380627,41.813491,5000 -8.380321,41.813127,5000 -8.379972,41.812797,5000 -8.379588999999999,41.812504,5000 -8.379215,41.812267,5000 -8.378835,41.812093,5000 -8.378819,41.812087,5000 -8.378465,41.811957,5000 -8.378007999999999,41.811831,5000 -8.37758,41.811736,5000 -8.377062,41.811679,5000 -8.376924000000001,41.81165,5000 -8.376543,41.811595,5000 -8.376113999999999,41.811579,5000 -8.375640000000001,41.811558,5000 -8.375253000000001,41.81153,5000 -8.374930000000001,41.81151,5000 -8.374582,41.811488,5000 -8.374278,41.811455,5000 -8.373934,41.811392,5000 -8.373552999999999,41.811291,5000 -8.373419999999999,41.811248,5000 -8.373157000000001,41.811162,5000 -8.372795,41.811061,5000 -8.372391,41.810969,5000 -8.371956000000001,41.810809,5000 -8.371639999999999,41.810622,5000 -8.371432,41.810459,5000 -8.371219999999999,41.810297,5000 -8.370960999999999,41.810175,5000 -8.370619,41.810133,5000 -8.370267,41.810138,5000 -8.369891000000001,41.81015,5000 -8.369603,41.81017,5000 -8.369232999999999,41.810193,5000 -8.368852,41.810218,5000 -8.368031999999999,41.810325,5000 -8.367779000000001,41.810373,5000 -8.367533,41.810454,5000 -8.367308,41.81058,5000 -8.367158,41.810715,5000 -8.367010000000001,41.810866,5000 -8.366841000000001,41.81102,5000 -8.366591,41.811144,5000 -8.366243000000001,41.811246,5000 -8.366129000000001,41.811265,5000 -8.365788,41.81132,5000 -8.365116,41.811379,5000 -8.364501000000001,41.811395,5000 -8.363989,41.811409,5000 -8.363446,41.811423,5000 -8.363001000000001,41.811415,5000 -8.362591999999999,41.811367,5000 -8.362111000000001,41.811285,5000 -8.361796999999999,41.811216,5000 -8.361433999999999,41.811152,5000 -8.361090000000001,41.811142,5000 -8.360844,41.811181,5000 -8.360588,41.811305,5000 -8.360412999999999,41.81146,5000 -8.360300000000001,41.811665,5000 -8.360234999999999,41.811835,5000 -8.360092,41.812013,5000 -8.359881,41.812144,5000 -8.359526000000001,41.812255,5000 -8.359214,41.812302,5000 -8.358492999999999,41.812412,5000 -8.358040000000001,41.812469,5000 -8.357632000000001,41.812494,5000 -8.357093000000001,41.812507,5000 -8.356577,41.812521,5000 -8.356125,41.812535,5000 -8.355756,41.812557,5000 -8.355199000000001,41.812586,5000 -8.354725999999999,41.812621,5000 -8.354293999999999,41.81264,5000 -8.354079,41.812646,5000 -8.353096000000001,41.812711,5000 -8.35202,41.812802,5000 -8.350814,41.812883,5000 -8.349849000000001,41.812909,5000 -8.348971000000001,41.812922,5000 -8.348102000000001,41.812888,5000 -8.347569999999999,41.812832,5000 -8.347557,41.812831,5000 -8.347541,41.81283,5000 -8.347258,41.812799,5000 -8.346473,41.812653,5000 -8.345846,41.812522,5000 -8.344946,41.812447,5000 -8.344321000000001,41.812464,5000 -8.343662999999999,41.812481,5000 -8.342707000000001,41.812792,5000 -8.342362,41.813055,5000 -8.34207,41.81327,5000 -8.341761999999999,41.813583,5000 -8.341526999999999,41.813826,5000 -8.34126,41.814011,5000 -8.340883,41.814125,5000 -8.340581999999999,41.814163,5000 -8.339978,41.814165,5000 -8.338169000000001,41.814285,5000 -8.337609,41.814358,5000 -8.337235,41.814405,5000 -8.336762999999999,41.814462,5000 -8.336359,41.814538,5000 -8.335813,41.814639,5000 -8.335334,41.814753,5000 -8.334901,41.814877,5000 -8.33441,41.815024,5000 -8.334035,41.815183,5000 -8.333913000000001,41.815248,5000 -8.333541,41.815444,5000 -8.333278999999999,41.815722,5000 -8.333121,41.816072,5000 -8.333074999999999,41.816494,5000 -8.333045,41.81685,5000 -8.333050999999999,41.817628,5000 -8.33305,41.817972,5000 -8.333048,41.818285,5000 -8.333048,41.818609,5000 -8.333,41.818962,5000 -8.33282,41.819713,5000 -8.332468,41.820285,5000 -8.33215,41.820449,5000 -8.331797,41.820573,5000 -8.331556000000001,41.820578,5000 -8.331276000000001,41.820573,5000 -8.330681,41.820663,5000 -8.330170000000001,41.820757,5000 -8.329755,41.820914,5000 -8.329509,41.821146,5000 -8.329408000000001,41.8213,5000 -8.329212999999999,41.821599,5000 -8.329140000000001,41.821762,5000 -8.329050000000001,41.821988,5000 -8.329075,41.822495,5000 -8.329015999999999,41.82288,5000 -8.328885,41.823224,5000 -8.328804,41.82349,5000 -8.328329999999999,41.823958,5000 -8.328082,41.824109,5000 -8.327596,41.824356,5000 -8.327162,41.824614,5000 -8.326631000000001,41.824842,5000 -8.325956,41.825207,5000 -8.325310999999999,41.825447,5000 -8.324667,41.825762,5000 -8.324108000000001,41.825938,5000 -8.323413,41.825933,5000 -8.322613,41.825918,5000 -8.322329999999999,41.825927,5000 -8.321873,41.825881,5000 -8.321337,41.825898,5000 -8.321160000000001,41.825904,5000 -8.320857,41.8259,5000 -8.320627,41.825894,5000 -8.320173,41.825934,5000 -8.319483999999999,41.826155,5000 -8.318267000000001,41.826512,5000 -8.317007,41.826712,5000 -8.315215,41.826999,5000 -8.315028,41.827029,5000 -8.313169,41.827258,5000 -8.311512,41.827939,5000 -8.310143,41.82861,5000 -8.309307,41.829139,5000 -8.307836,41.830072,5000 -8.306138000000001,41.831123,5000 -8.305158,41.831859,5000 -8.304543000000001,41.832546,5000 -8.304213000000001,41.832833,5000 -8.303988,41.832991,5000 -8.303898,41.833051,5000 -8.303565000000001,41.833267,5000 -8.303210999999999,41.833522,5000 -8.302864,41.833786,5000 -8.302564,41.834079,5000 -8.302358,41.834319,5000 -8.302084000000001,41.834619,5000 -8.301752,41.83499,5000 -8.301481000000001,41.835229,5000 -8.301314,41.835379,5000 -8.301124,41.835554,5000 -8.300776000000001,41.835788,5000 -8.300293,41.836031,5000 -8.299855000000001,41.83622,5000 -8.299588,41.836381,5000 -8.299308999999999,41.836661,5000 -8.299115,41.836858,5000 -8.299015000000001,41.836971,5000 -8.298823000000001,41.837211,5000 -8.298605,41.837487,5000 -8.298287999999999,41.837876,5000 -8.298063000000001,41.838179,5000 -8.29791,41.838452,5000 -8.297777999999999,41.838767,5000 -8.297686000000001,41.839059,5000 -8.297573999999999,41.83932,5000 -8.297473,41.839527,5000 -8.297383,41.839626,5000 -8.297283999999999,41.839766,5000 -8.297102000000001,41.839966,5000 -8.296925,41.840114,5000 -8.296604,41.840399,5000 -8.296334999999999,41.840677,5000 -8.296115,41.84092,5000 -8.295852,41.841274,5000 -8.295604000000001,41.84156,5000 -8.295446999999999,41.841682,5000 -8.295432,41.841692,5000 -8.295242,41.841889,5000 -8.294791999999999,41.842223,5000 -8.294559,41.842396,5000 -8.294195,41.842634,5000 -8.293889999999999,41.842834,5000 -8.293431999999999,41.843008,5000 -8.293191999999999,41.843067,5000 -8.292714,41.843177,5000 -8.29228,41.84328,5000 -8.291945,41.84339,5000 -8.291663,41.843462,5000 -8.291491000000001,41.843507,5000 -8.291123000000001,41.843615,5000 -8.290721,41.843773,5000 -8.290545,41.84385,5000 -8.290357999999999,41.843902,5000 -8.290024000000001,41.844037,5000 -8.28973,41.844172,5000 -8.289161999999999,41.844574,5000 -8.288878,41.844917,5000 -8.288767999999999,41.845104,5000 -8.288717,41.84527,5000 -8.288683000000001,41.845416,5000 -8.288595000000001,41.845784,5000 -8.288587,41.84612,5000 -8.288563999999999,41.846562,5000 -8.288518,41.847032,5000 -8.288456,41.847639,5000 -8.288444,41.847771,5000 -8.288437,41.847795,5000 -8.288372000000001,41.848243,5000 -8.288295,41.848848,5000 -8.288214999999999,41.849444,5000 -8.288169,41.850009,5000 -8.288175000000001,41.850195,5000 -8.288185,41.850448,5000 -8.288219,41.850874,5000 -8.288226999999999,41.851263,5000 -8.288223,41.851739,5000 -8.288192,41.852277,5000 -8.288149000000001,41.852817,5000 -8.288114999999999,41.852972,5000 -8.288081999999999,41.853215,5000 -8.288046,41.853537,5000 -8.287951,41.853883,5000 -8.287796,41.854238,5000 -8.287642,41.854568,5000 -8.287499,41.854768,5000 -8.287393,41.854992,5000 -8.287159000000001,41.855302,5000 -8.286823999999999,41.855609,5000 -8.286549000000001,41.855805,5000 -8.286154,41.856033,5000 -8.285995,41.856116,5000 -8.285883999999999,41.856162,5000 -8.285455000000001,41.856341,5000 -8.285178,41.856529,5000 -8.285000999999999,41.856672,5000 -8.284697,41.856892,5000 -8.284506,41.857021,5000 -8.284431,41.857065,5000 -8.284395999999999,41.857085,5000 -8.28392,41.857361,5000 -8.283531,41.857539,5000 -8.283207000000001,41.857678,5000 -8.282755999999999,41.857825,5000 -8.282396,41.857927,5000 -8.28224,41.857974,5000 -8.282211999999999,41.857981,5000 -8.28181,41.858114,5000 -8.281499999999999,41.858204,5000 -8.280953,41.858347,5000 -8.280346,41.858479,5000 -8.279976,41.858565,5000 -8.279719999999999,41.858632,5000 -8.279192,41.858768,5000 -8.278784,41.858878,5000 -8.278401000000001,41.858989,5000 -8.277984,41.859103,5000 -8.277709,41.859177,5000 -8.277602999999999,41.859209,5000 -8.277409,41.85927,5000 -8.277058,41.859393,5000 -8.276823,41.859443,5000 -8.276508,41.859557,5000 -8.276221,41.85964,5000 -8.275925000000001,41.859697,5000 -8.275759000000001,41.859712,5000 -8.275512000000001,41.859731,5000 -8.275274,41.859764,5000 -8.275067999999999,41.85978,5000 -8.275033000000001,41.859782,5000 -8.275003999999999,41.859785,5000 -8.274855000000001,41.859796,5000 -8.27453,41.859774,5000 -8.274518,41.859773,5000 -8.274437000000001,41.859759,5000 -8.274399000000001,41.859752,5000 -8.273815000000001,41.859611,5000 -8.273287,41.859545,5000 -8.272513999999999,41.85948,5000 -8.271832,41.859465,5000 -8.271087,41.859642,5000 -8.270334,41.859809,5000 -8.269482999999999,41.859916,5000 -8.268851,41.859932,5000 -8.268158,41.859862,5000 -8.267491,41.859765,5000 -8.267087,41.859691,5000 -8.266475,41.859628,5000 -8.2659,41.859526,5000 -8.265200999999999,41.859326,5000 -8.264563000000001,41.85915,5000 -8.264157000000001,41.859121,5000 -8.263432999999999,41.85929,5000 -8.262998,41.859433,5000 -8.262401000000001,41.859735,5000 -8.261582000000001,41.860238,5000 -8.261034,41.860608,5000 -8.260339999999999,41.861099,5000 -8.259887000000001,41.86132,5000 -8.259444,41.861449,5000 -8.258870999999999,41.861518,5000 -8.256384000000001,41.861888,5000 -8.256323999999999,41.861902,5000 -8.255922999999999,41.861961,5000 -8.255499,41.861976,5000 -8.255098,41.861984,5000 -8.254643,41.861961,5000 -8.254189999999999,41.86193,5000 -8.253809,41.861899,5000 -8.253375,41.861882,5000 -8.252988999999999,41.86186,5000 -8.252775,41.861832,5000 -8.252749,41.861829,5000 -8.252428999999999,41.861784,5000 -8.252193,41.86171,5000 -8.251908,41.861691,5000 -8.251556000000001,41.861685,5000 -8.251289999999999,41.86167,5000 -8.251032,41.861654,5000 -8.250591,41.861661,5000 -8.250188,41.861667,5000 -8.249701,41.861684,5000 -8.24929,41.861715,5000 -8.248836000000001,41.861763,5000 -8.248402,41.861786,5000 -8.247942999999999,41.861838,5000 -8.247612999999999,41.862026,5000 -8.247192,41.862338,5000 -8.246874,41.862682,5000 -8.246718,41.862944,5000 -8.246585,41.86326,5000 -8.246486000000001,41.863636,5000 -8.246435999999999,41.863843,5000 -8.246344000000001,41.864158,5000 -8.246294000000001,41.86431,5000 -8.246226999999999,41.864469,5000 -8.246195,41.864698,5000 -8.246205,41.864925,5000 -8.246271,41.865195,5000 -8.246325000000001,41.865405,5000 -8.246321999999999,41.86561,5000 -8.246117,41.866067,5000 -8.245849,41.866388,5000 -8.245462,41.866673,5000 -8.245271000000001,41.866773,5000 -8.245089999999999,41.866848,5000 -8.244908000000001,41.866905,5000 -8.244479999999999,41.866967,5000 -8.244038,41.867038,5000 -8.243748,41.867072,5000 -8.243397999999999,41.867078,5000 -8.243016000000001,41.867017,5000 -8.242858999999999,41.866972,5000 -8.242499,41.866796,5000 -8.242228000000001,41.866574,5000 -8.241991000000001,41.866267,5000 -8.241811,41.865929,5000 -8.241680000000001,41.865612,5000 -8.241588,41.865321,5000 -8.241463,41.864975,5000 -8.241294999999999,41.864656,5000 -8.240973,41.864516,5000 -8.24053,41.864422,5000 -8.240273999999999,41.864367,5000 -8.239909000000001,41.864417,5000 -8.239509999999999,41.864541,5000 -8.239193,41.864663,5000 -8.238777000000001,41.864849,5000 -8.238472,41.864995,5000 -8.238127,41.865133,5000 -8.237864999999999,41.865231,5000 -8.237522,41.865365,5000 -8.237137000000001,41.865522,5000 -8.23686,41.865642,5000 -8.236490999999999,41.865767,5000 -8.236176,41.865901,5000 -8.235758000000001,41.866114,5000 -8.235436,41.866248,5000 -8.235112000000001,41.866358,5000 -8.235056,41.866383,5000 -8.234696,41.866546,5000 -8.234484,41.866693,5000 -8.234213,41.86683,5000 -8.233915,41.86695,5000 -8.233435999999999,41.867107,5000 -8.232611,41.867328,5000 -8.232211,41.867399,5000 -8.231820000000001,41.867491,5000 -8.231465,41.867603,5000 -8.230987000000001,41.868118,5000 -8.230731,41.868524,5000 -8.230739,41.868746,5000 -8.230762,41.869047,5000 -8.230712,41.86926,5000 -8.23057,41.869442,5000 -8.230328,41.869685,5000 -8.230186,41.869837,5000 -8.230035000000001,41.869916,5000 -8.229825999999999,41.869946,5000 -8.229578999999999,41.869963,5000 -8.229215,41.869989,5000 -8.228897,41.870002,5000 -8.228617,41.870089,5000 -8.228313999999999,41.870223,5000 -8.228009,41.870431,5000 -8.227868000000001,41.870553,5000 -8.227703999999999,41.87069,5000 -8.227595000000001,41.870765,5000 -8.227487,41.870845,5000 -8.22739,41.870906,5000 -8.227198,41.870982,5000 -8.226976000000001,41.871036,5000 -8.226743000000001,41.871048,5000 -8.226350999999999,41.871066,5000 -8.226317,41.871067,5000 -8.22612,41.871073,5000 -8.225947,41.871067,5000 -8.225680000000001,41.871046,5000 -8.225448999999999,41.871001,5000 -8.225263,41.870924,5000 -8.224962,41.870725,5000 -8.224716000000001,41.870501,5000 -8.224489,41.870328,5000 -8.224157999999999,41.870095,5000 -8.223998999999999,41.870032,5000 -8.223573,41.870065,5000 -8.223229,41.87005,5000 -8.222804999999999,41.869916,5000 -8.222529,41.869708,5000 -8.222246,41.869466,5000 -8.221954,41.869241,5000 -8.221484999999999,41.868887,5000 -8.220604,41.868383,5000 -8.219963,41.868211,5000 -8.219074000000001,41.868111,5000 -8.218721,41.868082,5000 -8.218384,41.868032,5000 -8.218086,41.867937,5000 -8.217824,41.867773,5000 -8.217722,41.867756,5000 -8.217506999999999,41.867781,5000 -8.217313000000001,41.867832,5000 -8.217198,41.867897,5000 -8.217167,41.867915,5000 -8.217031,41.868023,5000 -8.216932,41.868162,5000 -8.216837999999999,41.868311,5000 -8.216759,41.868512,5000 -8.216703000000001,41.868733,5000 -8.216658000000001,41.868922,5000 -8.216620000000001,41.869129,5000 -8.216595,41.869307,5000 -8.216613000000001,41.869445,5000 -8.216529,41.869611,5000 -8.21637,41.869776,5000 -8.216086000000001,41.869999,5000 -8.215843,41.870156,5000 -8.21561,41.870269,5000 -8.215348000000001,41.8704,5000 -8.215064,41.870522,5000 -8.214848999999999,41.87061,5000 -8.214665999999999,41.870727,5000 -8.214480999999999,41.87089,5000 -8.214368,41.87103,5000 -8.214299,41.871224,5000 -8.214287000000001,41.871351,5000 -8.214306000000001,41.871592,5000 -8.214340999999999,41.871883,5000 -8.21435,41.872043,5000 -8.214314,41.872219,5000 -8.214259999999999,41.87238,5000 -8.214173000000001,41.872522,5000 -8.214026,41.87265,5000 -8.213843000000001,41.872739,5000 -8.213653000000001,41.872771,5000 -8.213596000000001,41.872773,5000 -8.213437000000001,41.872778,5000 -8.213196,41.872749,5000 -8.212956,41.872701,5000 -8.212675000000001,41.872606,5000 -8.212396999999999,41.872482,5000 -8.212173,41.872377,5000 -8.211767999999999,41.872199,5000 -8.211451,41.872092,5000 -8.211155,41.871946,5000 -8.21092,41.87184,5000 -8.210606,41.871735,5000 -8.21036,41.871671,5000 -8.209944999999999,41.871692,5000 -8.209711,41.871747,5000 -8.209388000000001,41.871843,5000 -8.209091000000001,41.871943,5000 -8.208736999999999,41.872076,5000 -8.208411,41.872189,5000 -8.208071,41.872305,5000 -8.207655000000001,41.872408,5000 -8.207202000000001,41.872406,5000 -8.206989,41.872353,5000 -8.206695,41.872247,5000 -8.206465,41.872113,5000 -8.206162000000001,41.871843,5000 -8.205983,41.871633,5000 -8.205826,41.871475,5000 -8.205657,41.87137,5000 -8.205401,41.871285,5000 -8.205251000000001,41.871257,5000 -8.205054000000001,41.871233,5000 -8.204662000000001,41.8713,5000 -8.204373,41.871415,5000 -8.204096,41.871521,5000 -8.203516,41.871788,5000 -8.203248,41.871883,5000 -8.203011,41.871986,5000 -8.202723000000001,41.87209,5000 -8.202181,41.872243,5000 -8.201209,41.872721,5000 -8.200863,41.872918,5000 -8.200374,41.873191,5000 -8.199783,41.87357,5000 -8.199503999999999,41.87388,5000 -8.200082999999999,41.874161,5000 -8.200535,41.874552,5000 -8.200918,41.875257,5000 -8.201000000000001,41.875588,5000 -8.201022,41.875952,5000 -8.200894,41.876373,5000 -8.200721,41.877188,5000 -8.200462,41.877869,5000 -8.200188000000001,41.878362,5000 -8.199838,41.878686,5000 -8.199411,41.878912,5000 -8.198983999999999,41.879192,5000 -8.198698,41.879639,5000 -8.198629,41.880004,5000 -8.198587,41.880653,5000 -8.198793999999999,41.881185,5000 -8.199922000000001,41.88243,5000 -8.20022,41.883094,5000 -8.200319,41.883766,5000 -8.200183000000001,41.885601,5000 -8.200269,41.885986,5000 -8.201107,41.887745,5000 -8.201468999999999,41.888212,5000 -8.201715999999999,41.888655,5000 -8.202070000000001,41.889146,5000 -8.202228,41.889259,5000 -8.202966,41.88963,5000 -8.203621,41.890063,5000 -8.203925999999999,41.89029,5000 -8.204252,41.890667,5000 -8.204389000000001,41.890955,5000 -8.204679,41.891996,5000 -8.204825,41.892354,5000 -8.205283,41.893375,5000 -8.205508,41.893673,5000 -8.205932000000001,41.893828,5000 -8.207713999999999,41.894175,5000 -8.207943,41.894315,5000 -8.208007,41.894543,5000 -8.208587,41.895285,5000 -8.209106999999999,41.895689,5000 -8.210501000000001,41.896456,5000 -8.212115000000001,41.897267,5000 -8.212842999999999,41.89745,5000 -8.213715000000001,41.897549,5000 -8.21485,41.897611,5000 -8.215605,41.897953,5000 -8.21579,41.898603,5000 -8.215733,41.899563,5000 -8.215477999999999,41.900225,5000 -8.215170000000001,41.900705,5000 -8.214638000000001,41.901257,5000 -8.214542,41.901762,5000 -8.214956000000001,41.902779,5000 -8.215268,41.903224,5000 -8.215864,41.904284,5000 -8.216267,41.905466,5000 -8.216372,41.906641,5000 -8.216215999999999,41.907349,5000 -8.215937,41.907953,5000 -8.215937,41.908158,5000 -8.216022000000001,41.908378,5000 -8.216328000000001,41.90881,5000 -8.216644000000001,41.909139,5000 -8.216811999999999,41.909404,5000 -8.216875999999999,41.909701,5000 -8.216847,41.910179,5000 -8.216570000000001,41.911474,5000 -8.216556000000001,41.911732,5000 -8.216574,41.912042,5000 -8.21692,41.913174,5000 -8.216853,41.913472,5000 -8.216787999999999,41.913601,5000 -8.216419,41.914069,5000 -8.215393000000001,41.914918,5000 -8.214924,41.915399,5000 -8.214670999999999,41.915785,5000 -8.214055,41.916468,5000 -8.213438999999999,41.917059,5000 -8.212501,41.917571,5000 -8.211857999999999,41.918442,5000 -8.211634,41.91885,5000 -8.211425,41.919609,5000 -8.211453000000001,41.920688,5000 -8.211353000000001,41.921038,5000 -8.210967999999999,41.921583,5000 -8.210886,41.921757,5000 -8.21078,41.922183,5000 -8.210572000000001,41.922727,5000 -8.210445,41.923624,5000 -8.210252000000001,41.923744,5000 -8.210305999999999,41.923993,5000 -8.21031,41.924025,5000 -8.210445,41.924256,5000 -8.210523999999999,41.924483,5000 -8.210599999999999,41.924717,5000 -8.21062,41.924929,5000 -8.210621,41.924946,5000 -8.210616,41.924973,5000 -8.210547,41.925112,5000 -8.210535,41.925142,5000 -8.210526,41.925171,5000 -8.210519,41.925397,5000 -8.210523999999999,41.92543,5000 -8.210554999999999,41.925518,5000 -8.210673,41.925704,5000 -8.210792,41.925895,5000 -8.210903,41.926112,5000 -8.210983000000001,41.926302,5000 -8.211053,41.926503,5000 -8.211074,41.926673,5000 -8.211119999999999,41.926908,5000 -8.211238,41.927124,5000 -8.211378,41.927326,5000 -8.211539,41.927507,5000 -8.211619000000001,41.927626,5000 -8.211814,41.928185,5000 -8.213067000000001,41.930641,5000 -8.213519,41.932183,5000 -8.213533999999999,41.932216,5000 -8.213521999999999,41.932231,5000 -8.213509,41.932251,5000 -8.213502999999999,41.93227,5000 -8.213501000000001,41.932292,5000 -8.213504,41.932313,5000 -8.213511,41.932337,5000 -8.213536,41.932385,5000 -8.213671,41.932562,5000 -8.213789999999999,41.932777,5000 -8.213927999999999,41.932992,5000 -8.214003999999999,41.93317,5000 -8.214111000000001,41.933378,5000 -8.214232000000001,41.933589,5000 -8.214340999999999,41.933826,5000 -8.214349,41.933997,5000 -8.214335999999999,41.934217,5000 -8.21433,41.934241,5000 -8.214283,41.934432,5000 -8.214214999999999,41.93465,5000 -8.214204000000001,41.934677,5000 -8.214197,41.934705,5000 -8.21419,41.934759,5000 -8.214221999999999,41.935883,5000 -8.214207,41.936115,5000 -8.214247,41.936356,5000 -8.214340999999999,41.936577,5000 -8.214475999999999,41.936803,5000 -8.214592,41.937019,5000 -8.214722,41.937239,5000 -8.214836,41.937448,5000 -8.214931999999999,41.937688,5000 -8.215020000000001,41.937933,5000 -8.215104,41.93818,5000 -8.215164,41.938435,5000 -8.215366,41.938678,5000 -8.215387,41.938711,5000 -8.215506,41.938896,5000 -8.215522,41.938959,5000 -8.215509000000001,41.939017,5000 -8.215479999999999,41.939073,5000 -8.215289,41.939274,5000 -8.215268,41.9393,5000 -8.215233,41.939354,5000 -8.215119,41.939571,5000 -8.215088,41.939752,5000 -8.215082000000001,41.939996,5000 -8.215137,41.940239,5000 -8.215218999999999,41.940493,5000 -8.215365,41.940717,5000 -8.215429,41.940767,5000 -8.215638999999999,41.940929,5000 -8.215849,41.941097,5000 -8.215868,41.941119,5000 -8.216039,41.941335,5000 -8.216203,41.94154,5000 -8.216340000000001,41.941745,5000 -8.216507999999999,41.941988,5000 -8.216623,41.942204,5000 -8.21674,41.942449,5000 -8.216887,41.942686,5000 -8.217007000000001,41.942937,5000 -8.217090000000001,41.94318,5000 -8.217171,41.94341,5000 -8.217274,41.94364,5000 -8.217406,41.943854,5000 -8.217532,41.944067,5000 -8.217586000000001,41.944229,5000 -8.217661,41.944462,5000 -8.217722,41.945298,5000 -8.217715999999999,41.945527,5000 -8.217736,41.945754,5000 -8.217746,41.946,5000 -8.217753999999999,41.946042,5000 -8.217767,41.946074,5000 -8.217777,41.946106,5000 -8.217749,41.946203,5000 -8.217653,41.946427,5000 -8.217454,41.946626,5000 -8.217317,41.946726,5000 -8.217245999999999,41.946822,5000 -8.217196,41.946944,5000 -8.217204000000001,41.947727,5000 -8.217282000000001,41.947972,5000 -8.217288,41.948132,5000 -8.217331,41.948376,5000 -8.217357,41.948605,5000 -8.217370000000001,41.948838,5000 -8.217382000000001,41.949079,5000 -8.217402,41.949317,5000 -8.217415000000001,41.949565,5000 -8.217421999999999,41.94981,5000 -8.217437,41.950048,5000 -8.217409,41.950283,5000 -8.217344000000001,41.950523,5000 -8.217274,41.950775,5000 -8.217229,41.951014,5000 -8.21721,41.95125,5000 -8.217167999999999,41.951506,5000 -8.217141,41.951813,5000 -8.217139,41.95209,5000 -8.217134,41.952358,5000 -8.217103,41.952583,5000 -8.217055999999999,41.952859,5000 -8.216995000000001,41.953107,5000 -8.216912000000001,41.95334,5000 -8.216822000000001,41.953572,5000 -8.216727000000001,41.953794,5000 -8.216614999999999,41.954023,5000 -8.216480000000001,41.954321,5000 -8.216206,41.954891,5000 -8.215963,41.955525,5000 -8.2159,41.955821,5000 -8.215858000000001,41.95636,5000 -8.215726,41.956817,5000 -8.215553,41.957224,5000 -8.215332,41.95764,5000 -8.214990999999999,41.958106,5000 -8.214699,41.958427,5000 -8.214411999999999,41.958742,5000 -8.214102,41.959115,5000 -8.213737,41.95954,5000 -8.21359,41.959737,5000 -8.213425000000001,41.959957,5000 -8.213274,41.960177,5000 -8.21312,41.960407,5000 -8.212963,41.960629,5000 -8.212794000000001,41.960834,5000 -8.212603,41.961063,5000 -8.212452000000001,41.961259,5000 -8.212239,41.961465,5000 -8.212011,41.961629,5000 -8.211796,41.961789,5000 -8.211549,41.961932,5000 -8.211323999999999,41.962102,5000 -8.211194000000001,41.962316,5000 -8.211112999999999,41.962535,5000 -8.210978000000001,41.96275,5000 -8.210887,41.962835,5000 -8.21069,41.962997,5000 -8.210571,41.963077,5000 -8.210532000000001,41.963098,5000 -8.210482000000001,41.963129,5000 -8.210455,41.963141,5000 -8.210424,41.963151,5000 -8.210400999999999,41.963161,5000 -8.210369,41.963181,5000 -8.210334,41.963204,5000 -8.210302,41.963227,5000 -8.210279999999999,41.963253,5000 -8.208379000000001,41.96466,5000 -8.208157,41.964838,5000 -8.20791,41.965015,5000 -8.207651,41.965165,5000 -8.207373,41.965329,5000 -8.207124,41.965498,5000 -8.206897,41.965653,5000 -8.206668000000001,41.965804,5000 -8.206424,41.965976,5000 -8.206206999999999,41.966162,5000 -8.205952999999999,41.966331,5000 -8.205714,41.966484,5000 -8.205484,41.966652,5000 -8.205247,41.966817,5000 -8.205021,41.96697,5000 -8.204808999999999,41.967129,5000 -8.204439000000001,41.967543,5000 -8.204043,41.968142,5000 -8.203918,41.968356,5000 -8.203678999999999,41.968838,5000 -8.203251,41.969504,5000 -8.202776999999999,41.970064,5000 -8.202709,41.970201,5000 -8.20255,41.970412,5000 -8.202394999999999,41.970636,5000 -8.202252,41.970874,5000 -8.202102,41.971118,5000 -8.201976999999999,41.971357,5000 -8.201877,41.971582,5000 -8.201791,41.971822,5000 -8.201677999999999,41.972055,5000 -8.201503000000001,41.972265,5000 -8.201313000000001,41.972475,5000 -8.201115,41.972685,5000 -8.200958,41.972894,5000 -8.200818999999999,41.973109,5000 -8.200711,41.973332,5000 -8.200645,41.973563,5000 -8.200573,41.973792,5000 -8.200497,41.974046,5000 -8.200436,41.974296,5000 -8.200415,41.974385,5000 -8.200377,41.974618,5000 -8.200332,41.974867,5000 -8.200267,41.97509,5000 -8.200222999999999,41.975349,5000 -8.20016,41.975599,5000 -8.200058,41.975848,5000 -8.19989,41.976073,5000 -8.199584,41.976495,5000 -8.199412000000001,41.976693,5000 -8.199210000000001,41.976869,5000 -8.198999000000001,41.977046,5000 -8.198847000000001,41.977262,5000 -8.198741999999999,41.977475,5000 -8.198624000000001,41.977697,5000 -8.198598,41.977721,5000 -8.198445,41.977916,5000 -8.198306000000001,41.978149,5000 -8.198211000000001,41.978377,5000 -8.198126999999999,41.978618,5000 -8.198064,41.978849,5000 -8.198001,41.979834,5000 -8.197932,41.980066,5000 -8.197867,41.98029,5000 -8.197798000000001,41.980519,5000 -8.197747,41.980747,5000 -8.197723999999999,41.980973,5000 -8.197694,41.981209,5000 -8.197666999999999,41.981485,5000 -8.197656,41.981514,5000 -8.19755,41.981742,5000 -8.197511,41.981955,5000 -8.197509999999999,41.981987,5000 -8.197505,41.982021,5000 -8.197414,41.982262,5000 -8.197336999999999,41.982504,5000 -8.197307,41.982755,5000 -8.197317,41.98301,5000 -8.197359000000001,41.983243,5000 -8.197362,41.983495,5000 -8.197350999999999,41.983726,5000 -8.19725,41.983955,5000 -8.197089,41.984158,5000 -8.196887,41.984366,5000 -8.196706000000001,41.984569,5000 -8.196567,41.984785,5000 -8.196372999999999,41.984988,5000 -8.196203000000001,41.985209,5000 -8.196035,41.985408,5000 -8.19584,41.985606,5000 -8.195669000000001,41.985795,5000 -8.195486000000001,41.985988,5000 -8.195404,41.98607,5000 -8.195145999999999,41.986235,5000 -8.194928000000001,41.986434,5000 -8.194739999999999,41.986633,5000 -8.194552,41.986823,5000 -8.194411000000001,41.987024,5000 -8.194267999999999,41.987242,5000 -8.194103999999999,41.987459,5000 -8.193954,41.98766,5000 -8.193803000000001,41.987859,5000 -8.193612999999999,41.988073,5000 -8.193415999999999,41.988278,5000 -8.19323,41.988466,5000 -8.193047,41.988657,5000 -8.192876999999999,41.988863,5000 -8.192550000000001,41.989198,5000 -8.192413,41.98932,5000 -8.191727999999999,41.989832,5000 -8.191864000000001,41.989995,5000 -8.192107999999999,41.990155,5000 -8.192144000000001,41.990167,5000 -8.192254,41.990194,5000 -8.192536,41.990289,5000 -8.192572,41.990307,5000 -8.192603,41.990326,5000 -8.192629999999999,41.99035,5000 -8.192652000000001,41.990375,5000 -8.192733,41.990532,5000 -8.192814,41.990752,5000 -8.192821,41.990783,5000 -8.192836,41.991034,5000 -8.192724,41.991273,5000 -8.192596999999999,41.9915,5000 -8.192591,41.991525,5000 -8.192591999999999,41.99155,5000 -8.192701,41.99177,5000 -8.19285,41.99198,5000 -8.192928999999999,41.992197,5000 -8.192928999999999,41.992223,5000 -8.192921999999999,41.992249,5000 -8.192895,41.9923,5000 -8.192887000000001,41.992312,5000 -8.192878,41.992324,5000 -8.192638000000001,41.992489,5000 -8.192614000000001,41.992506,5000 -8.192593,41.992527,5000 -8.192574,41.99255,5000 -8.192501,41.992724,5000 -8.192485,41.992846,5000 -8.192403000000001,41.993016,5000 -8.192379000000001,41.99307,5000 -8.192373,41.993095,5000 -8.192421,41.993322,5000 -8.192437,41.993358,5000 -8.192482999999999,41.993427,5000 -8.192648999999999,41.993632,5000 -8.192780000000001,41.99384,5000 -8.192803,41.993916,5000 -8.19281,41.994059,5000 -8.192819999999999,41.994093,5000 -8.192837000000001,41.994126,5000 -8.192861000000001,41.994158,5000 -8.192890999999999,41.99419,5000 -8.193128,41.994367,5000 -8.193182,41.994429,5000 -8.193244999999999,41.994536,5000 -8.193362,41.994767,5000 -8.193522,41.994979,5000 -8.193702,41.995185,5000 -8.193905000000001,41.995397,5000 -8.194127,41.995565,5000 -8.194196,41.995598,5000 -8.194466,41.995722,5000 -8.194646000000001,41.995842,5000 -8.194547999999999,41.996027,5000 -8.194538,41.996084,5000 -8.19454,41.996141,5000 -8.194613,41.996371,5000 -8.194727,41.996596,5000 -8.194743000000001,41.996753,5000 -8.194739,41.99678,5000 -8.194731000000001,41.996806,5000 -8.194705000000001,41.996855,5000 -8.194687,41.996877,5000 -8.194622000000001,41.996932,5000 -8.19422,41.999222,5000 -8.191792,42.007644,5000 -8.192572999999999,42.008756,5000 -8.192525,42.010144,5000 -8.192880000000001,42.011001,5000 -8.193709,42.015483,5000 -8.194019000000001,42.017398,5000 -8.194036000000001,42.017393,5000 -8.199882000000001,42.015917,5000 -8.20401,42.018728,5000 -8.206785999999999,42.017582,5000 -8.209637000000001,42.016048,5000 -8.212541,42.014375,5000 -8.222958999999999,42.006899,5000 -8.230812,42.011177,5000 -8.236605000000001,42.014331,5000 -8.247104999999999,42.012677,5000 -8.249128000000001,42.01244,5000 -8.25104,42.012216,5000 -8.251893000000001,42.011897,5000 -8.252463000000001,42.011567,5000 -8.253223,42.011159,5000 -8.253644,42.010754,5000 -8.253981,42.010376,5000 -8.254289,42.010073,5000 -8.254607999999999,42.009764,5000 -8.254827000000001,42.009495,5000 -8.255013,42.009296,5000 -8.255167,42.009093,5000 -8.255323000000001,42.008869,5000 -8.255514,42.008624,5000 -8.255689,42.008418,5000 -8.255853999999999,42.008213,5000 -8.256104000000001,42.007899,5000 -8.256266,42.007686,5000 -8.256462000000001,42.007423,5000 -8.256603,42.007276,5000 -8.256705,42.007188,5000 -8.256824,42.007087,5000 -8.257028999999999,42.006926,5000 -8.257231000000001,42.006724,5000 -8.257770000000001,42.005507,5000 -8.258709,42.00409,5000 -8.260154,42.00204,5000 -8.261920999999999,42.000356,5000 -8.26206,42.000176,5000 -8.262437,41.999688,5000 -8.263057999999999,41.998664,5000 -8.263401999999999,41.997975,5000 -8.264176000000001,41.997379,5000 -8.2644,41.996933,5000 -8.264485000000001,41.996129,5000 -8.264469999999999,41.995537,5000 -8.264429,41.995098,5000 -8.263965000000001,41.993764,5000 -8.263534,41.992873,5000 -8.265107,41.98954,5000 -8.26507,41.988306,5000 -8.265919999999999,41.98555,5000 -8.265980000000001,41.985336,5000 -8.265924999999999,41.985131,5000 -8.265915,41.985064,5000 -8.265912,41.984975,5000 -8.265917999999999,41.984905,5000 -8.265930000000001,41.984832,5000 -8.265969,41.984723,5000 -8.265993999999999,41.98466,5000 -8.266124,41.984395,5000 -8.266218,41.984213,5000 -8.266289,41.984034,5000 -8.266327,41.983932,5000 -8.266353000000001,41.983854,5000 -8.266368999999999,41.983789,5000 -8.266386000000001,41.983643,5000 -8.266387999999999,41.983556,5000 -8.266382999999999,41.983467,5000 -8.26628,41.982855,5000 -8.266069,41.981998,5000 -8.265902000000001,41.981224,5000 -8.265884,41.981148,5000 -8.265855,41.981044,5000 -8.266022,41.9809,5000 -8.266389999999999,41.980487,5000 -8.267061,41.980002,5000 -8.268663999999999,41.979249,5000 -8.269183,41.978648,5000 -8.269345,41.978579,5000 -8.269562000000001,41.978586,5000 -8.269821,41.978514,5000 -8.270057,41.978436,5000 -8.270288000000001,41.97836,5000 -8.270447000000001,41.978353,5000 -8.270763000000001,41.978176,5000 -8.270958,41.978042,5000 -8.271061,41.977951,5000 -8.271209000000001,41.977765,5000 -8.271430000000001,41.977542,5000 -8.271737999999999,41.977335,5000 -8.271915999999999,41.977216,5000 -8.272663,41.976686,5000 -8.273066,41.976268,5000 -8.273426000000001,41.975957,5000 -8.273683999999999,41.975789,5000 -8.273991000000001,41.975626,5000 -8.274248999999999,41.975486,5000 -8.274490999999999,41.975344,5000 -8.274658000000001,41.975258,5000 -8.279074,41.972794,5000 -8.279094000000001,41.972807,5000 -8.279348000000001,41.972965,5000 -8.279541999999999,41.973071,5000 -8.279856000000001,41.973172,5000 -8.280163,41.973319,5000 -8.280436,41.973418,5000 -8.280471,41.973423,5000 -8.280611,41.973425,5000 -8.280927,41.973399,5000 -8.280968,41.973395,5000 -8.281304,41.973413,5000 -8.281352,41.973424,5000 -8.281399,41.973439,5000 -8.281485,41.973474,5000 -8.281527000000001,41.973495,5000 -8.281732999999999,41.97369,5000 -8.28185,41.973918,5000 -8.282000999999999,41.974135,5000 -8.282241000000001,41.97428,5000 -8.282317000000001,41.974313,5000 -8.282396,41.974333,5000 -8.282436000000001,41.974333,5000 -8.282767,41.974287,5000 -8.282809,41.974281,5000 -8.283137,41.974286,5000 -8.283175999999999,41.974292,5000 -8.283251,41.97431,5000 -8.283287,41.974323,5000 -8.283574,41.974444,5000 -8.283674,41.97448,5000 -8.283733,41.974485,5000 -8.283763,41.97449,5000 -8.284136,41.974674,5000 -8.284378,41.974823,5000 -8.284623,41.974999,5000 -8.285102,41.975118,5000 -8.285128,41.975134,5000 -8.285144000000001,41.975159,5000 -8.285170000000001,41.97519,5000 -8.285285999999999,41.975273,5000 -8.285313,41.975285,5000 -8.285342,41.975294,5000 -8.285375,41.975298,5000 -8.285686,41.975303,5000 -8.285795999999999,41.975305,5000 -8.285842000000001,41.975306,5000 -8.285923,41.975307,5000 -8.286061,41.975321,5000 -8.286108,41.975326,5000 -8.286158,41.975335,5000 -8.286466000000001,41.975451,5000 -8.286593,41.975534,5000 -8.286626999999999,41.97556,5000 -8.286681,41.975613,5000 -8.286701000000001,41.97564,5000 -8.286721999999999,41.975667,5000 -8.286747,41.975693,5000 -8.286809,41.975741,5000 -8.286837,41.975768,5000 -8.286867000000001,41.975796,5000 -8.286972,41.97587,5000 -8.286994999999999,41.975899,5000 -8.287096,41.976031,5000 -8.287157000000001,41.976085,5000 -8.287190000000001,41.976112,5000 -8.287221000000001,41.976147,5000 -8.287364999999999,41.976353,5000 -8.287511,41.976561,5000 -8.287675999999999,41.976762,5000 -8.287850000000001,41.976935,5000 -8.288004000000001,41.977126,5000 -8.288192,41.977326,5000 -8.288382,41.977505,5000 -8.288541,41.977702,5000 -8.288702000000001,41.977936,5000 -8.288778000000001,41.978054,5000 -8.288994000000001,41.978388,5000 
						</coordinates>
					</LinearRing>
				</outerBoundaryIs>
			</Polygon>
		</MultiGeometry>
		<atom:link rel="app" href="https://www.google.com/earth/about/versions/#earth-pro" title="Google Earth Pro 7.3.7.1155"></atom:link>
	</Placemark>
</Document>
</kml>
