<?xml version="1.0" encoding="UTF-8"?>
<kml xmlns="http://www.opengis.net/kml/2.2" xmlns:gx="http://www.google.com/kml/ext/2.2" xmlns:kml="http://www.opengis.net/kml/2.2" xmlns:atom="http://www.w3.org/2005/Atom">
<Document>
	<name>Caminha.kml</name>
	<Style id="PolyStyle000001">
		<LabelStyle>
			<color>ff000000</color>
			<scale>1.2</scale>
		</LabelStyle>
		<LineStyle>
			<color>ff0000ff</color>
			<width>2</width>
		</LineStyle>
		<PolyStyle>
			<color>4dffffff</color>
		</PolyStyle>
	</Style>
	<Style id="PolyStyle00005">
		<LabelStyle>
			<color>ff000000</color>
			<scale>1.2</scale>
		</LabelStyle>
		<LineStyle>
			<color>ff0000ff</color>
			<width>2</width>
		</LineStyle>
		<PolyStyle>
			<color>4dffffff</color>
		</PolyStyle>
	</Style>
	<StyleMap id="PolyStyle00183">
		<Pair>
			<key>normal</key>
			<styleUrl>#PolyStyle00005</styleUrl>
		</Pair>
		<Pair>
			<key>highlight</key>
			<styleUrl>#PolyStyle000001</styleUrl>
		</Pair>
	</StyleMap>
	<Placemark>
		<name>Caminha</name>
		<Snippet maxLines="0"></Snippet>
		<styleUrl>#PolyStyle00183</styleUrl>
		<MultiGeometry>
			<extrude>1</extrude>
			<Polygon>
				<extrude>1</extrude>
				<tessellate>1</tessellate>
				<outerBoundaryIs>
					<LinearRing>
						<coordinates>
							-8.808465999999999,41.91378,5000 -8.812358,41.913062,5000 -8.816245,41.91198,5000 -8.818409000000001,41.911305,5000 -8.82131,41.909203,5000 -8.824642000000001,41.90594,5000 -8.82643,41.903315,5000 -8.826677999999999,41.901725,5000 -8.827108000000001,41.900464,5000 -8.828289,41.899067,5000 -8.830525,41.896969,5000 -8.838236999999999,41.88941,5000 -8.843095999999999,41.885015,5000 -8.844419,41.883779,5000 -8.846098,41.882164,5000 -8.847156999999999,41.88122,5000 -8.848977,41.879514,5000 -8.850246,41.878083,5000 -8.852561,41.875256,5000 -8.853702999999999,41.874487,5000 -8.855641,41.873549,5000 -8.857519999999999,41.872799,5000 -8.861332000000001,41.871692,5000 -8.863759999999999,41.871048,5000 -8.865387999999999,41.87021,5000 -8.866484,41.869277,5000 -8.867316000000001,41.868293,5000 -8.868105,41.867259,5000 -8.869414000000001,41.865718,5000 -8.870073,41.865034,5000 -8.870734000000001,41.864492,5000 -8.871560000000001,41.863918,5000 -8.86909,41.858113,5000 -8.868999000000001,41.857814,5000 -8.868887000000001,41.857601,5000 -8.868822,41.857521,5000 -8.868183,41.856728,5000 -8.867953,41.85626,5000 -8.867698000000001,41.855409,5000 -8.867411000000001,41.853585,5000 -8.867457,41.852879,5000 -8.867656999999999,41.852432,5000 -8.867721,41.852169,5000 -8.867749999999999,41.851691,5000 -8.867683,41.850556,5000 -8.867414,41.849782,5000 -8.867405,41.849303,5000 -8.867654999999999,41.848355,5000 -8.867813,41.847413,5000 -8.868083,41.846769,5000 -8.868224,41.846532,5000 -8.868331,41.846257,5000 -8.868368,41.845985,5000 -8.868783000000001,41.845202,5000 -8.868954,41.845015,5000 -8.869202,41.844863,5000 -8.869498999999999,41.844803,5000 -8.870213,41.844727,5000 -8.871064000000001,41.844538,5000 -8.872035,41.844165,5000 -8.872904999999999,41.843881,5000 -8.873472,41.843497,5000 -8.874273000000001,41.842671,5000 -8.874991,41.842092,5000 -8.875702,41.841254,5000 -8.876127,41.840409,5000 -8.876213,41.839914,5000 -8.876212000000001,41.839153,5000 -8.876111999999999,41.838787,5000 -8.876116,41.838526,5000 -8.876301,41.838168,5000 -8.876614,41.836663,5000 -8.876601000000001,41.836428,5000 -8.876377,41.835955,5000 -8.876237,41.835555,5000 -8.876277999999999,41.835233,5000 -8.876469999999999,41.834973,5000 -8.876574,41.834742,5000 -8.876639000000001,41.834516,5000 -8.876645999999999,41.83429,5000 -8.876544000000001,41.833637,5000 -8.876301,41.832802,5000 -8.876319000000001,41.832663,5000 -8.876737,41.831917,5000 -8.876802,41.8316,5000 -8.876738,41.831294,5000 -8.876557,41.830935,5000 -8.876583,41.830666,5000 -8.876927999999999,41.830137,5000 -8.876984999999999,41.829976,5000 -8.876977,41.829836,5000 -8.876906,41.829646,5000 -8.876810000000001,41.829558,5000 -8.87665,41.829491,5000 -8.876526999999999,41.82944,5000 -8.876476,41.829364,5000 -8.876464,41.829206,5000 -8.876569999999999,41.828942,5000 -8.876519,41.828607,5000 -8.876393999999999,41.828478,5000 -8.876155000000001,41.828316,5000 -8.875885,41.828195,5000 -8.875245,41.82807,5000 -8.873818,41.827621,5000 -8.87372,41.82755,5000 -8.873557999999999,41.827343,5000 -8.873400999999999,41.827052,5000 -8.873525000000001,41.826894,5000 -8.873545999999999,41.826784,5000 -8.873384,41.826282,5000 -8.873390000000001,41.825873,5000 -8.873445,41.825775,5000 -8.873659999999999,41.825585,5000 -8.873811,41.825387,5000 -8.873996,41.825036,5000 -8.874404999999999,41.824707,5000 -8.874454,41.824604,5000 -8.874464,41.824321,5000 -8.874506999999999,41.824187,5000 -8.874483,41.823856,5000 -8.874719000000001,41.823614,5000 -8.874886999999999,41.823293,5000 -8.874888,41.823231,5000 -8.874514,41.82252,5000 -8.874222,41.822356,5000 -8.873919000000001,41.822329,5000 -8.873794999999999,41.82226,5000 -8.873754,41.822198,5000 -8.873773999999999,41.822108,5000 -8.873949,41.821933,5000 -8.873942,41.821767,5000 -8.873825,41.821438,5000 -8.873961,41.821146,5000 -8.873981000000001,41.820981,5000 -8.874072,41.820822,5000 -8.874095000000001,41.820349,5000 -8.873809,41.819888,5000 -8.873446,41.819658,5000 -8.872963,41.819649,5000 -8.872741,41.819573,5000 -8.872719999999999,41.81949,5000 -8.873004999999999,41.819355,5000 -8.873018999999999,41.819349,5000 -8.873100000000001,41.819279,5000 -8.873101999999999,41.819222,5000 -8.87303,41.819146,5000 -8.872952,41.819121,5000 -8.872621000000001,41.819133,5000 -8.872536999999999,41.819079,5000 -8.872479999999999,41.818724,5000 -8.872503999999999,41.81858,5000 -8.872907,41.818118,5000 -8.872859,41.81797,5000 -8.872737000000001,41.817864,5000 -8.872707999999999,41.817854,5000 -8.872615,41.817819,5000 -8.872486,41.817832,5000 -8.872204,41.818004,5000 -8.871855,41.818218,5000 -8.871706,41.818192,5000 -8.871682,41.818161,5000 -8.871648,41.81812,5000 -8.871665999999999,41.818028,5000 -8.871987000000001,41.817613,5000 -8.872216999999999,41.817153,5000 -8.872216999999999,41.817088,5000 -8.872137,41.816964,5000 -8.872059,41.81694,5000 -8.871912999999999,41.816974,5000 -8.871561,41.817156,5000 -8.871463,41.8171,5000 -8.871461999999999,41.817014,5000 -8.871575,41.816821,5000 -8.871561,41.816354,5000 -8.871423,41.816169,5000 -8.871289000000001,41.816074,5000 -8.871006,41.81597,5000 -8.870590999999999,41.815902,5000 -8.870050000000001,41.815903,5000 -8.870379,41.815479,5000 -8.870441,41.815277,5000 -8.870428,41.815132,5000 -8.870357,41.815142,5000 -8.870203,41.815511,5000 -8.870006999999999,41.815767,5000 -8.869782000000001,41.815974,5000 -8.869645999999999,41.815994,5000 -8.869538,41.815928,5000 -8.869512,41.815706,5000 -8.869166,41.81523,5000 -8.868292,41.814917,5000 -8.86805,41.814849,5000 -8.867578,41.815072,5000 -8.867269,41.81527,5000 -8.867133000000001,41.815252,5000 -8.866934000000001,41.815135,5000 -8.866802,41.814835,5000 -8.866827000000001,41.814589,5000 -8.866875,41.814526,5000 -8.867008,41.814482,5000 -8.867378,41.814476,5000 -8.867637,41.814538,5000 -8.867937,41.814557,5000 -8.86797,41.814486,5000 -8.867406000000001,41.814397,5000 -8.866749,41.814362,5000 -8.866602,41.814323,5000 -8.866474,41.814203,5000 -8.86632,41.813982,5000 -8.866084000000001,41.813868,5000 -8.86566,41.813465,5000 -8.865269,41.813239,5000 -8.864661999999999,41.813029,5000 -8.864490999999999,41.812846,5000 -8.864554999999999,41.812763,5000 -8.864858,41.812609,5000 -8.865043,41.812416,5000 -8.865137000000001,41.812174,5000 -8.865468999999999,41.81071,5000 -8.865477,41.809509,5000 -8.865582,41.809046,5000 -8.865914999999999,41.80835,5000 -8.866054,41.807986,5000 -8.86656,41.806657,5000 -8.866972000000001,41.805718,5000 -8.867328000000001,41.805077,5000 -8.867388999999999,41.804991,5000 -8.868112999999999,41.80398,5000 -8.868358000000001,41.803536,5000 -8.869145,41.802742,5000 -8.869481,41.802341,5000 -8.869903000000001,41.801982,5000 -8.870167,41.801817,5000 -8.870371,41.801736,5000 -8.870768,41.801794,5000 -8.870915999999999,41.801738,5000 -8.87097,41.801637,5000 -8.870989,41.801095,5000 -8.87107,41.800859,5000 -8.871266,41.800529,5000 -8.871506,41.800339,5000 -8.871758,41.80021,5000 -8.872073,41.800111,5000 -8.872325,41.800132,5000 -8.872669999999999,41.800229,5000 -8.872885,41.800195,5000 -8.873196,41.80005,5000 -8.873305999999999,41.799947,5000 -8.873340000000001,41.799861,5000 -8.873250000000001,41.799532,5000 -8.873276000000001,41.79939,5000 -8.873423000000001,41.799175,5000 -8.873789,41.798764,5000 -8.874205999999999,41.798393,5000 -8.874313000000001,41.798236,5000 -8.874402,41.798168,5000 -8.874609,41.798101,5000 -8.874999000000001,41.798102,5000 -8.875213,41.797983,5000 -8.875302,41.797829,5000 -8.875318999999999,41.797714,5000 -8.875238,41.797622,5000 -8.87487,41.797579,5000 -8.874609,41.797435,5000 -8.873694,41.797345,5000 -8.873586,41.797302,5000 -8.87345,41.797136,5000 -8.873488999999999,41.796776,5000 -8.873726,41.796632,5000 -8.873799,41.79635,5000 -8.874219999999999,41.796166,5000 -8.8743,41.796084,5000 -8.871708,41.795208,5000 -8.869837,41.794816,5000 -8.868744,41.794307,5000 -8.862774,41.791298,5000 -8.859560999999999,41.790412,5000 -8.855048999999999,41.789026,5000 -8.854257,41.788644,5000 -8.853869,41.788124,5000 -8.852392,41.786686,5000 -8.851508000000001,41.786085,5000 -8.850816999999999,41.785658,5000 -8.849069999999999,41.784289,5000 -8.843794000000001,41.780785,5000 -8.843152,41.781698,5000 -8.843021999999999,41.781839,5000 -8.843045999999999,41.781833,5000 -8.837396999999999,41.791259,5000 -8.837771,41.795493,5000 -8.837604000000001,41.79743,5000 -8.836335999999999,41.798444,5000 -8.836527,41.799543,5000 -8.836126999999999,41.800427,5000 -8.835317,41.801246,5000 -8.835203999999999,41.801457,5000 -8.834948000000001,41.80142,5000 -8.834858000000001,41.801392,5000 -8.834584,41.801229,5000 -8.834422999999999,41.801519,5000 -8.834130999999999,41.801657,5000 -8.832440999999999,41.802449,5000 -8.831162000000001,41.803048,5000 -8.829711,41.803181,5000 -8.827536,41.803379,5000 -8.823898,41.804036,5000 -8.821014999999999,41.803298,5000 -8.819813,41.80299,5000 -8.811621000000001,41.801894,5000 -8.807206000000001,41.802171,5000 -8.804948,41.802312,5000 -8.803388,41.80452,5000 -8.800784,41.804976,5000 -8.800347,41.805016,5000 -8.795,41.80551,5000 -8.79481,41.805529,5000 -8.792118,41.805797,5000 -8.791615999999999,41.805641,5000 -8.791588000000001,41.805235,5000 -8.791403000000001,41.804777,5000 -8.791193,41.80443,5000 -8.791473999999999,41.804153,5000 -8.791835000000001,41.804133,5000 -8.792119,41.804205,5000 -8.792611000000001,41.804367,5000 -8.792755,41.804289,5000 -8.792918999999999,41.8042,5000 -8.792786,41.803834,5000 -8.793041000000001,41.803612,5000 -8.793269,41.80319,5000 -8.793161,41.802732,5000 -8.793003000000001,41.802384,5000 -8.792844000000001,41.801964,5000 -8.792942999999999,41.801578,5000 -8.792991000000001,41.801211,5000 -8.793143000000001,41.800916,5000 -8.793241,41.800657,5000 -8.792998000000001,41.800658,5000 -8.792627,41.80056,5000 -8.792379,41.800382,5000 -8.791916000000001,41.799943,5000 -8.791484000000001,41.799491,5000 -8.791333,41.799265,5000 -8.791306000000001,41.798887,5000 -8.791311,41.798596,5000 -8.791081999999999,41.798265,5000 -8.790948999999999,41.798167,5000 -8.790801,41.798127,5000 -8.790490999999999,41.79821,5000 -8.790312999999999,41.798316,5000 -8.790175,41.798509,5000 -8.790118,41.798995,5000 -8.790006,41.799474,5000 -8.789808000000001,41.799824,5000 -8.78936,41.800082,5000 -8.788793999999999,41.800272,5000 -8.788747000000001,41.80028,5000 -8.788387999999999,41.800344,5000 -8.787471999999999,41.8005,5000 -8.786891000000001,41.800655,5000 -8.786356,41.80081,5000 -8.78603,41.800911,5000 -8.785231,41.801043,5000 -8.784808,41.801074,5000 -8.784427000000001,41.801059,5000 -8.784200999999999,41.801008,5000 -8.783834000000001,41.800923,5000 -8.783265999999999,41.800816,5000 -8.782939000000001,41.800789,5000 -8.782792000000001,41.800795,5000 -8.782636,41.800837,5000 -8.781848999999999,41.801908,5000 -8.780836000000001,41.803217,5000 -8.780713,41.803323,5000 -8.780543,41.803411,5000 -8.780364000000001,41.8034,5000 -8.780153,41.803343,5000 -8.779921999999999,41.803265,5000 -8.779788999999999,41.803161,5000 -8.779296,41.802838,5000 -8.779145,41.802507,5000 -8.778962999999999,41.802188,5000 -8.778855999999999,41.802116,5000 -8.778721000000001,41.802026,5000 -8.778274,41.80172,5000 -8.777813,41.801449,5000 -8.77754,41.801346,5000 -8.777393,41.801344,5000 -8.777307,41.801342,5000 -8.776966,41.801411,5000 -8.776818,41.801467,5000 -8.776532,41.801585,5000 -8.77599,41.801774,5000 -8.775748999999999,41.801833,5000 -8.775555000000001,41.801852,5000 -8.775321999999999,41.801824,5000 -8.775157,41.801685,5000 -8.775061000000001,41.801424,5000 -8.774995000000001,41.80127,5000 -8.774784,41.801173,5000 -8.774549,41.801253,5000 -8.774105,41.801373,5000 -8.773649000000001,41.801385,5000 -8.773177,41.801309,5000 -8.772360000000001,41.800843,5000 -8.771649999999999,41.800533,5000 -8.771124,41.80034,5000 -8.770833,41.800086,5000 -8.77023,41.799972,5000 -8.769992999999999,41.799836,5000 -8.769937000000001,41.799542,5000 -8.770092,41.799266,5000 -8.770638,41.798911,5000 -8.771603000000001,41.798454,5000 -8.771758,41.798238,5000 -8.771674000000001,41.797669,5000 -8.771431,41.796984,5000 -8.770377,41.796303,5000 -8.770085,41.795991,5000 -8.769978,41.795737,5000 -8.769893,41.79511,5000 -8.769785000000001,41.794757,5000 -8.769470999999999,41.794719,5000 -8.768843,41.794821,5000 -8.768547,41.794838,5000 -8.76845,41.794844,5000 -8.768295,41.795,5000 -8.768167,41.795335,5000 -8.767830999999999,41.795788,5000 -8.76731,41.796124,5000 -8.766921999999999,41.796577,5000 -8.766374000000001,41.796777,5000 -8.765537,41.796899,5000 -8.764725,41.796904,5000 -8.764322999999999,41.796755,5000 -8.764094,41.796671,5000 -8.763672,41.79636,5000 -8.763062,41.795579,5000 -8.7628,41.795541,5000 -8.761962,41.795663,5000 -8.760185999999999,41.796124,5000 -8.759138999999999,41.796228,5000 -8.757910000000001,41.796372,5000 -8.757307000000001,41.796375,5000 -8.756835000000001,41.79626,5000 -8.756126999999999,41.796244,5000 -8.755787,41.796246,5000 -8.755553000000001,41.796424,5000 -8.75545,41.79664,5000 -8.755518,41.796853,5000 -8.757455999999999,41.800405,5000 -8.758677,41.803723,5000 -8.758937,41.805978,5000 -8.758818,41.809957,5000 -8.758735,41.811388,5000 -8.759061000000001,41.812381,5000 -8.759103,41.812613,5000 -8.75925,41.813459,5000 -8.760248000000001,41.814126,5000 -8.760389999999999,41.814392,5000 -8.760451,41.8146,5000 -8.760433000000001,41.814793,5000 -8.760197,41.814913,5000 -8.759641999999999,41.814916,5000 -8.759345,41.815036,5000 -8.759228999999999,41.815349,5000 -8.759331,41.815601,5000 -8.759314,41.815897,5000 -8.758801,41.816138,5000 -8.758710000000001,41.81694,5000 -8.75887,41.817182,5000 -8.759455000000001,41.818248,5000 -8.759461999999999,41.818901,5000 -8.759257,41.818915,5000 -8.75853,41.818965,5000 -8.757955000000001,41.818983,5000 -8.757401,41.81906,5000 -8.755992000000001,41.819301,5000 -8.757101,41.821132,5000 -8.756914999999999,41.821212,5000 -8.755928000000001,41.821692,5000 -8.755139,41.822172,5000 -8.754652,41.82226,5000 -8.753536,41.822463,5000 -8.752176,41.823316,5000 -8.75135,41.824033,5000 -8.750272000000001,41.825331,5000 -8.749034999999999,41.826673,5000 -8.748269000000001,41.82739,5000 -8.747881,41.827794,5000 -8.747085,41.828188,5000 -8.746176,41.828623,5000 -8.744021999999999,41.829749,5000 -8.743783000000001,41.829547,5000 -8.742659,41.828692,5000 -8.741301,41.827828,5000 -8.740722,41.826975,5000 -8.739938,41.826579,5000 -8.738865000000001,41.826253,5000 -8.736674000000001,41.825804,5000 -8.735695,41.825608,5000 -8.735030999999999,41.825479,5000 -8.734866999999999,41.825447,5000 -8.733748,41.825201,5000 -8.733445,41.825098,5000 -8.732229999999999,41.824529,5000 -8.731902,41.824287,5000 -8.731111,41.82351,5000 -8.730325000000001,41.822792,5000 -8.728966,41.821771,5000 -8.728685,41.821529,5000 -8.725516000000001,41.819105,5000 -8.725154,41.819011,5000 -8.724816000000001,41.818926,5000 -8.724266999999999,41.81865,5000 -8.720317,41.820394,5000 -8.718688,41.821096,5000 -8.716548,41.821151,5000 -8.714494,41.82097,5000 -8.713169000000001,41.821168,5000 -8.712419000000001,41.821799,5000 -8.712178,41.824802,5000 -8.711748,41.82483,5000 -8.710908,41.82441,5000 -8.709607,41.823747,5000 -8.708539,41.823116,5000 -8.707042,41.822148,5000 -8.705988,41.821525,5000 -8.705064,41.821095,5000 -8.702902,41.820331,5000 -8.701280000000001,41.819533,5000 -8.700424999999999,41.819134,5000 -8.699386000000001,41.81862,5000 -8.697933000000001,41.817736,5000 -8.697248999999999,41.817304,5000 -8.695599,41.816623,5000 -8.694247000000001,41.815906,5000 -8.691844,41.814984,5000 -8.690296999999999,41.814187,5000 -8.690289999999999,41.814197,5000 -8.689928,41.814714,5000 -8.689287999999999,41.815553,5000 -8.688670999999999,41.816149,5000 -8.687766999999999,41.816948,5000 -8.687271000000001,41.81949,5000 -8.684006,41.822283,5000 -8.682371,41.822575,5000 -8.679645000000001,41.823326,5000 -8.679079,41.823475,5000 -8.679066000000001,41.823486,5000 -8.678955,41.823534,5000 -8.678654999999999,41.824237,5000 -8.678464,41.82479,5000 -8.678464,41.824833,5000 -8.678464,41.824894,5000 -8.678442,41.825618,5000 -8.678432000000001,41.825922,5000 -8.678435,41.826064,5000 -8.678438,41.826293,5000 -8.678438,41.826427,5000 -8.678444000000001,41.826718,5000 -8.678459,41.826863,5000 -8.678414999999999,41.827184,5000 -8.678291,41.827388,5000 -8.678169,41.827526,5000 -8.678086,41.827646,5000 -8.677904,41.827872,5000 -8.677711,41.828115,5000 -8.677625000000001,41.828229,5000 -8.677389,41.82852,5000 -8.677333000000001,41.828681,5000 -8.677337,41.829054,5000 -8.677343,41.829198,5000 -8.677337,41.829492,5000 -8.677346999999999,41.829737,5000 -8.677362,41.8299,5000 -8.677405,41.830109,5000 -8.6775,41.830382,5000 -8.677587000000001,41.830656,5000 -8.677763000000001,41.831272,5000 -8.677806,41.83144,5000 -8.677847,41.831621,5000 -8.677973,41.831955,5000 -8.678053999999999,41.832111,5000 -8.678171000000001,41.83242,5000 -8.67835,41.832983,5000 -8.678474,41.833412,5000 -8.678573999999999,41.833655,5000 -8.678641000000001,41.834014,5000 -8.678737999999999,41.834228,5000 -8.678777999999999,41.834305,5000 -8.678944,41.834857,5000 -8.679087000000001,41.835275,5000 -8.679103,41.83537,5000 -8.679119999999999,41.835496,5000 -8.679171,41.835625,5000 -8.679239000000001,41.835724,5000 -8.679309999999999,41.835856,5000 -8.679318,41.835985,5000 -8.679332,41.83612,5000 -8.679342999999999,41.836271,5000 -8.679337,41.836526,5000 -8.679276,41.836609,5000 -8.679225000000001,41.836678,5000 -8.679213000000001,41.836811,5000 -8.679282000000001,41.836968,5000 -8.679309999999999,41.837064,5000 -8.679318,41.837175,5000 -8.679285999999999,41.837308,5000 -8.679245,41.8375,5000 -8.679211,41.83764,5000 -8.679190999999999,41.837776,5000 -8.679171999999999,41.837919,5000 -8.679145999999999,41.838036,5000 -8.679107,41.838346,5000 -8.679087000000001,41.838558,5000 -8.679065,41.838812,5000 -8.679040000000001,41.838954,5000 -8.678995,41.839128,5000 -8.678984,41.839361,5000 -8.678979999999999,41.83985,5000 -8.678986,41.840118,5000 -8.678986999999999,41.840299,5000 -8.678982,41.840498,5000 -8.678955,41.840736,5000 -8.678925,41.840957,5000 -8.678882,41.841055,5000 -8.678708,41.841229,5000 -8.678616999999999,41.841308,5000 -8.678502999999999,41.841383,5000 -8.678380000000001,41.841457,5000 -8.678250999999999,41.841532,5000 -8.678088000000001,41.841618,5000 -8.677941000000001,41.841712,5000 -8.677828999999999,41.841807,5000 -8.677657999999999,41.841952,5000 -8.677515,41.842053,5000 -8.677242,41.842208,5000 -8.677012,41.842317,5000 -8.676703,41.842478,5000 -8.676458,41.842605,5000 -8.675941999999999,41.84285,5000 -8.675349000000001,41.8432,5000 -8.674746000000001,41.843516,5000 -8.67422,41.843709,5000 -8.673347,41.84403,5000 -8.672612000000001,41.844383,5000 -8.671955000000001,41.844988,5000 -8.671279999999999,41.845569,5000 -8.670666000000001,41.846241,5000 -8.670135,41.846787,5000 -8.671256,41.847124,5000 -8.672357,41.847448,5000 -8.673207,41.847789,5000 -8.674256,41.847986,5000 -8.675209000000001,41.848223,5000 -8.676072,41.848442,5000 -8.676799000000001,41.848749,5000 -8.677725000000001,41.849027,5000 -8.678680999999999,41.849256,5000 -8.679439,41.849458,5000 -8.68042,41.849606,5000 -8.681466,41.849747,5000 -8.682195,41.849937,5000 -8.682814,41.850111,5000 -8.683263999999999,41.850256,5000 -8.683494,41.850397,5000 -8.684032,41.850748,5000 -8.68446,41.851046,5000 -8.685084,41.851462,5000 -8.685734999999999,41.851929,5000 -8.686203000000001,41.852184,5000 -8.686403,41.852293,5000 -8.686817,41.852479,5000 -8.687544000000001,41.852721,5000 -8.687912000000001,41.852855,5000 -8.688466999999999,41.853015,5000 -8.689154,41.85311,5000 -8.689501999999999,41.85311,5000 -8.690004,41.85314,5000 -8.690288000000001,41.853239,5000 -8.690537000000001,41.85333,5000 -8.690759999999999,41.85341,5000 -8.691198,41.85355,5000 -8.691777,41.853731,5000 -8.692240999999999,41.85387,5000 -8.692641,41.853993,5000 -8.692888999999999,41.854072,5000 -8.693303999999999,41.854226,5000 -8.693773,41.854413,5000 -8.694062000000001,41.854516,5000 -8.694470000000001,41.854673,5000 -8.694704,41.854756,5000 -8.695095,41.854897,5000 -8.695361,41.854989,5000 -8.695855999999999,41.855149,5000 -8.696228,41.855274,5000 -8.696407000000001,41.85533,5000 -8.696730000000001,41.855441,5000 -8.697179,41.855573,5000 -8.697763999999999,41.855743,5000 -8.698001,41.855806,5000 -8.698218000000001,41.855855,5000 -8.698543000000001,41.855934,5000 -8.699032000000001,41.856057,5000 -8.699811,41.856285,5000 -8.700336,41.856499,5000 -8.700829000000001,41.85669,5000 -8.701387,41.857017,5000 -8.701933,41.857347,5000 -8.702330999999999,41.857637,5000 -8.702722,41.858009,5000 -8.702963,41.858227,5000 -8.704466,41.859846,5000 -8.705458999999999,41.862078,5000 -8.705477999999999,41.8621,5000 -8.705514000000001,41.862288,5000 -8.705572999999999,41.86237,5000 -8.705651,41.862452,5000 -8.705717999999999,41.862514,5000 -8.705938,41.862678,5000 -8.706039000000001,41.862745,5000 -8.706367,41.863025,5000 -8.708083,41.864521,5000 -8.708133999999999,41.864594,5000 -8.708327000000001,41.864721,5000 -8.709116,41.865658,5000 -8.709784000000001,41.866785,5000 -8.710292000000001,41.867572,5000 -8.710535999999999,41.867719,5000 -8.710869000000001,41.867739,5000 -8.711294000000001,41.867558,5000 -8.71444,41.866237,5000 -8.71564,41.866175,5000 -8.716402,41.866208,5000 -8.716756,41.866199,5000 -8.717245,41.866203,5000 -8.71758,41.866214,5000 -8.717936,41.86621,5000 -8.718244,41.866178,5000 -8.718659000000001,41.866108,5000 -8.718681,41.8661,5000 -8.718768000000001,41.86607,5000 -8.719054,41.865921,5000 -8.719155000000001,41.865869,5000 -8.719424999999999,41.865711,5000 -8.719669,41.865558,5000 -8.719716,41.865529,5000 -8.719776,41.865495,5000 -8.719856,41.865454,5000 -8.719912000000001,41.86543,5000 -8.720034,41.865386,5000 -8.720321,41.865304,5000 -8.720447999999999,41.865278,5000 -8.720485,41.865273,5000 -8.72054,41.865256,5000 -8.720596,41.865246,5000 -8.720852000000001,41.865239,5000 -8.720950999999999,41.865231,5000 -8.721005,41.865217,5000 -8.721079,41.865193,5000 -8.721154,41.865158,5000 -8.721227000000001,41.865111,5000 -8.721361999999999,41.865,5000 -8.721403,41.864979,5000 -8.721439,41.864968,5000 -8.721454,41.864958,5000 -8.721579,41.864908,5000 -8.721814999999999,41.864833,5000 -8.721897,41.864823,5000 -8.72221,41.8648,5000 -8.722396,41.864785,5000 -8.722754,41.864706,5000 -8.723065,41.864614,5000 -8.723359,41.864515,5000 -8.723696,41.864389,5000 -8.724024999999999,41.864173,5000 -8.724363,41.864064,5000 -8.724462000000001,41.864011,5000 -8.724625,41.864066,5000 -8.724741,41.864101,5000 -8.724933999999999,41.864201,5000 -8.724951000000001,41.864214,5000 -8.725213999999999,41.864396,5000 -8.725742,41.864739,5000 -8.726138000000001,41.865001,5000 -8.726380000000001,41.865186,5000 -8.726402999999999,41.865303,5000 -8.726381999999999,41.865387,5000 -8.726317999999999,41.865447,5000 -8.725953000000001,41.865687,5000 -8.725481,41.865927,5000 -8.724990999999999,41.86618,5000 -8.724643,41.866403,5000 -8.724201000000001,41.866714,5000 -8.723957,41.86692,5000 -8.723677,41.867229,5000 -8.723546000000001,41.867429,5000 -8.723495,41.867645,5000 -8.723494000000001,41.867847,5000 -8.72357,41.868066,5000 -8.723746999999999,41.868416,5000 -8.723799,41.868561,5000 -8.723837,41.8687,5000 -8.723856,41.868921,5000 -8.72376,41.869156,5000 -8.723618,41.869341,5000 -8.723438,41.869559,5000 -8.7233,41.869779,5000 -8.723255999999999,41.869933,5000 -8.723341,41.870113,5000 -8.723461,41.870255,5000 -8.723609,41.870368,5000 -8.723848,41.870524,5000 -8.723986,41.870649,5000 -8.724057999999999,41.87077,5000 -8.724099000000001,41.870974,5000 -8.724054000000001,41.87115,5000 -8.723932,41.871342,5000 -8.723718,41.871541,5000 -8.723646,41.87168,5000 -8.723737,41.871801,5000 -8.723884,41.871836,5000 -8.724204,41.871885,5000 -8.724633000000001,41.871936,5000 -8.724952,41.871997,5000 -8.725432,41.872101,5000 -8.725830999999999,41.872289,5000 -8.726084,41.87247,5000 -8.726273000000001,41.872673,5000 -8.726286,41.87288,5000 -8.726222999999999,41.87307,5000 -8.726177,41.873272,5000 -8.726241,41.873402,5000 -8.726516999999999,41.873527,5000 -8.726812000000001,41.873638,5000 -8.727071,41.873728,5000 -8.727582,41.873843,5000 -8.727969999999999,41.873929,5000 -8.728462,41.873971,5000 -8.728756000000001,41.87401,5000 -8.72911,41.874077,5000 -8.729386999999999,41.874165,5000 -8.729815,41.874322,5000 -8.730271,41.874611,5000 -8.730511,41.874904,5000 -8.730682,41.875283,5000 -8.730866000000001,41.875545,5000 -8.731070000000001,41.875741,5000 -8.731274000000001,41.875856,5000 -8.731472999999999,41.87588,5000 -8.731672,41.875786,5000 -8.731861,41.875714,5000 -8.732054,41.875661,5000 -8.732246,41.875655,5000 -8.732495999999999,41.875662,5000 -8.732829000000001,41.875767,5000 -8.733116000000001,41.87588,5000 -8.73335,41.876042,5000 -8.733451000000001,41.876198,5000 -8.733478,41.876358,5000 -8.733484000000001,41.876531,5000 -8.73349,41.876795,5000 -8.733491000000001,41.876819,5000 -8.73353,41.876891,5000 -8.734354,41.877197,5000 -8.734565999999999,41.877255,5000 -8.734854,41.877334,5000 -8.735151,41.877414,5000 -8.735683999999999,41.877489,5000 -8.735994,41.877439,5000 -8.736309,41.877286,5000 -8.736568999999999,41.876962,5000 -8.736800000000001,41.876569,5000 -8.736964,41.876157,5000 -8.737163000000001,41.875716,5000 -8.737341000000001,41.875281,5000 -8.737446,41.874979,5000 -8.73757,41.874621,5000 -8.737738,41.873956,5000 -8.737957,41.873648,5000 -8.738312000000001,41.873377,5000 -8.738628,41.873257,5000 -8.73889,41.873222,5000 -8.739160999999999,41.873274,5000 -8.739411,41.873415,5000 -8.73973,41.873653,5000 -8.739941,41.873862,5000 -8.740285999999999,41.874178,5000 -8.740498000000001,41.874494,5000 -8.740506999999999,41.87473,5000 -8.740527999999999,41.874837,5000 -8.740596,41.874924,5000 -8.740942,41.875138,5000 -8.741666,41.875549,5000 -8.742307,41.876013,5000 -8.742926000000001,41.876582,5000 -8.743307,41.876883,5000 -8.743556999999999,41.877018,5000 -8.74391,41.877164,5000 -8.744128,41.877217,5000 -8.744445000000001,41.877236,5000 -8.744609000000001,41.877202,5000 -8.744733,41.877136,5000 -8.744816,41.877059,5000 -8.74488,41.876829,5000 -8.744840999999999,41.876449,5000 -8.744751000000001,41.875884,5000 -8.744776999999999,41.87563,5000 -8.744975,41.875314,5000 -8.745221000000001,41.875185,5000 -8.745671,41.875171,5000 -8.745971000000001,41.875285,5000 -8.746392,41.875604,5000 -8.746840000000001,41.875976,5000 -8.747235999999999,41.876262,5000 -8.747484999999999,41.876401,5000 -8.747626,41.876479,5000 -8.747927000000001,41.876614,5000 -8.748224,41.876639,5000 -8.748559999999999,41.876629,5000 -8.748996999999999,41.87652,5000 -8.749127,41.876483,5000 -8.749715,41.876316,5000 -8.750162,41.876245,5000 -8.750432999999999,41.876262,5000 -8.750505,41.87631,5000 -8.750567,41.876406,5000 -8.750615,41.876672,5000 -8.750628000000001,41.877368,5000 -8.750627,41.877801,5000 -8.750647000000001,41.878317,5000 -8.750724,41.878857,5000 -8.750875000000001,41.879201,5000 -8.751123,41.879579,5000 -8.751433,41.879992,5000 -8.751614,41.880246,5000 -8.751754999999999,41.880525,5000 -8.751859,41.88078,5000 -8.752034999999999,41.880986,5000 -8.752259,41.881104,5000 -8.752530999999999,41.881213,5000 -8.752776000000001,41.881227,5000 -8.753292,41.881202,5000 -8.753769999999999,41.881118,5000 -8.754599000000001,41.880876,5000 -8.755067,41.880774,5000 -8.755554999999999,41.880597,5000 -8.756138,41.880298,5000 -8.756581000000001,41.880133,5000 -8.757248000000001,41.880033,5000 -8.757752999999999,41.879993,5000 -8.758202000000001,41.879976,5000 -8.758426999999999,41.88003,5000 -8.758722000000001,41.880129,5000 -8.75906,41.880245,5000 -8.759439,41.88038,5000 -8.7599,41.880592,5000 -8.760265,41.880835,5000 -8.760508,41.881115,5000 -8.7607,41.881402,5000 -8.760778999999999,41.881663,5000 -8.760838,41.881944,5000 -8.760903000000001,41.882053,5000 -8.761832999999999,41.882677,5000 -8.762415000000001,41.883189,5000 -8.762805999999999,41.883486,5000 -8.763156,41.883721,5000 -8.763605999999999,41.883935,5000 -8.763923,41.884011,5000 -8.764445,41.884123,5000 -8.764669,41.884209,5000 -8.764884,41.884386,5000 -8.764934,41.884598,5000 -8.764949,41.884909,5000 -8.764998,41.885104,5000 -8.765215,41.885395,5000 -8.765428999999999,41.885736,5000 -8.765791999999999,41.886435,5000 -8.766,41.887046,5000 -8.766029,41.887649,5000 -8.766022,41.888137,5000 -8.766026,41.888527,5000 -8.766196000000001,41.888899,5000 -8.766543,41.889173,5000 -8.767291,41.889597,5000 -8.768352999999999,41.89016,5000 -8.768497999999999,41.89038,5000 -8.768523999999999,41.890656,5000 -8.768420000000001,41.890922,5000 -8.768174,41.891234,5000 -8.767822000000001,41.891618,5000 -8.767599000000001,41.891921,5000 -8.767483,41.892187,5000 -8.767497000000001,41.8924,5000 -8.767571,41.892657,5000 -8.767702999999999,41.892852,5000 -8.767965999999999,41.893037,5000 -8.768335,41.893159,5000 -8.768704,41.893201,5000 -8.769072,41.893199,5000 -8.769392,41.893215,5000 -8.769868000000001,41.893301,5000 -8.770146,41.893525,5000 -8.770268,41.893675,5000 -8.770569999999999,41.894126,5000 -8.770896,41.894381,5000 -8.771442,41.894752,5000 -8.77181,41.894909,5000 -8.772142000000001,41.894951,5000 -8.772342,41.894969,5000 -8.773306,41.895034,5000 -8.774032999999999,41.895152,5000 -8.77411,41.895161,5000 -8.774528999999999,41.895211,5000 -8.774755000000001,41.895184,5000 -8.774933000000001,41.895102,5000 -8.774991,41.895076,5000 -8.775119999999999,41.894915,5000 -8.775377000000001,41.894937,5000 -8.77632,41.895095,5000 -8.776617999999999,41.895173,5000 -8.776953000000001,41.895436,5000 -8.777001,41.895473,5000 -8.777191999999999,41.895667,5000 -8.777229999999999,41.895862,5000 -8.777412,41.896251,5000 -8.777438,41.8965,5000 -8.777429,41.896793,5000 -8.777253,41.896962,5000 -8.777018,41.897194,5000 -8.776676,41.897427,5000 -8.776405,41.897624,5000 -8.775990999999999,41.897794,5000 -8.775471,41.897984,5000 -8.775057,41.898173,5000 -8.774538,41.898433,5000 -8.774127,41.898682,5000 -8.774352,41.906992,5000 -8.774981,41.907093,5000 -8.775422000000001,41.907321,5000 -8.775674,41.907595,5000 -8.776094000000001,41.907991,5000 -8.776477,41.90838,5000 -8.776706000000001,41.908707,5000 -8.776899,41.908999,5000 -8.777150000000001,41.90922,5000 -8.777343999999999,41.909564,5000 -8.777488,41.909958,5000 -8.777507999999999,41.910026,5000 -8.777635,41.910454,5000 -8.777806999999999,41.91095,5000 -8.77788,41.911215,5000 -8.778025,41.911392,5000 -8.778264,41.911542,5000 -8.778506,41.911719,5000 -8.778765999999999,41.911911,5000 -8.779184000000001,41.912225,5000 -8.779627,41.912631,5000 -8.779856000000001,41.912923,5000 -8.779965000000001,41.913179,5000 -8.78003,41.913773,5000 -8.780131000000001,41.914358,5000 -8.78023,41.914713,5000 -8.780424999999999,41.915217,5000 -8.780486,41.915421,5000 -8.780548,41.915652,5000 -8.781715999999999,41.916464,5000 -8.783431999999999,41.917038,5000 -8.784585,41.917266,5000 -8.785736,41.917407,5000 -8.785914999999999,41.917333,5000 -8.788247,41.916512,5000 -8.791869,41.915465,5000 -8.79377,41.915024,5000 -8.79594,41.914978,5000 -8.799488,41.915256,5000 -8.803454,41.915159,5000 -8.805021999999999,41.914859,5000 -8.806921000000001,41.914286,5000 -8.808020000000001,41.913926,5000 -8.808465999999999,41.91378,5000 
						</coordinates>
					</LinearRing>
				</outerBoundaryIs>
			</Polygon>
		</MultiGeometry>
		<atom:link rel="app" href="https://www.google.com/earth/about/versions/#earth-pro" title="Google Earth Pro 7.3.7.1155"></atom:link>
	</Placemark>
</Document>
</kml>
