{
  "type": "FeatureCollection",
  "features": [
    {
      "type": "Feature",
      "properties": { "DI": "16", "CO": "01", "NAME_2": "Arcos de Valdevez" },
      "geometry": { "type": "Polygon", "coordinates": [[[-8.35, 41.85], [-8.42, 41.88], [-8.40, 41.95], [-8.30, 42.02], [-8.20, 42.00], [-8.15, 41.90], [-8.18, 41.80], [-8.28, 41.82], [-8.35, 41.85]]] }
    },
    {
      "type": "Feature",
      "properties": { "DI": "16", "CO": "02", "NAME_2": "Caminha" },
      "geometry": { "type": "Polygon", "coordinates": [[[-8.85, 41.85], [-8.82, 41.90], [-8.78, 41.92], [-8.70, 41.90], [-8.72, 41.82], [-8.80, 41.80], [-8.85, 41.85]]] }
    },
    {
      "type": "Feature",
      "properties": { "DI": "16", "CO": "03", "NAME_2": "Melgaço" },
      "geometry": { "type": "Polygon", "coordinates": [[[-8.25, 42.05], [-8.28, 42.12], [-8.20, 42.18], [-8.10, 42.15], [-8.12, 42.05], [-8.20, 42.02], [-8.25, 42.05]]] }
    },
    {
      "type": "Feature",
      "properties": { "DI": "16", "CO": "04", "NAME_2": "Monção" },
      "geometry": { "type": "Polygon", "coordinates": [[[-8.50, 42.02], [-8.48, 42.10], [-8.40, 42.12], [-8.30, 42.08], [-8.35, 42.00], [-8.45, 41.98], [-8.50, 42.02]]] }
    },
    {
      "type": "Feature",
      "properties": { "DI": "16", "CO": "05", "NAME_2": "Paredes de Coura" },
      "geometry": { "type": "Polygon", "coordinates": [[[-8.60, 41.88], [-8.58, 41.95], [-8.50, 41.94], [-8.45, 41.90], [-8.48, 41.82], [-8.55, 41.84], [-8.60, 41.88]]] }
    },
    {
      "type": "Feature",
      "properties": { "DI": "16", "CO": "06", "NAME_2": "Ponte da Barca" },
      "geometry": { "type": "Polygon", "coordinates": [[[-8.45, 41.78], [-8.42, 41.85], [-8.35, 41.82], [-8.28, 41.80], [-8.25, 41.72], [-8.35, 41.70], [-8.45, 41.78]]] }
    },
    {
      "type": "Feature",
      "properties": { "DI": "16", "CO": "07", "NAME_2": "Ponte de Lima" },
      "geometry": { "type": "Polygon", "coordinates": [[[-8.65, 41.72], [-8.62, 41.82], [-8.55, 41.84], [-8.48, 41.82], [-8.45, 41.75], [-8.50, 41.68], [-8.60, 41.65], [-8.65, 41.72]]] }
    },
    {
      "type": "Feature",
      "properties": { "DI": "16", "CO": "08", "NAME_2": "Valença" },
      "geometry": { "type": "Polygon", "coordinates": [[[-8.65, 41.98], [-8.62, 42.05], [-8.55, 42.05], [-8.50, 42.02], [-8.52, 41.92], [-8.60, 41.95], [-8.65, 41.98]]] }
    },
    {
      "type": "Feature",
      "properties": { "DI": "16", "CO": "09", "NAME_2": "Viana do Castelo" },
      "geometry": { "type": "Polygon", "coordinates": [[[-8.85, 41.68], [-8.82, 41.78], [-8.72, 41.80], [-8.68, 41.75], [-8.65, 41.65], [-8.75, 41.60], [-8.82, 41.62], [-8.85, 41.68]]] }
    },
    {
      "type": "Feature",
      "properties": { "DI": "16", "CO": "10", "NAME_2": "Vila Nova de Cerveira" },
      "geometry": { "type": "Polygon", "coordinates": [[[-8.80, 41.90], [-8.78, 41.98], [-8.70, 42.00], [-8.62, 41.98], [-8.65, 41.90], [-8.75, 41.88], [-8.80, 41.90]]] }
    }
  ]
}
