<?xml version="1.0" encoding="UTF-8"?>
<kml xmlns="http://www.opengis.net/kml/2.2" xmlns:gx="http://www.google.com/kml/ext/2.2" xmlns:kml="http://www.opengis.net/kml/2.2" xmlns:atom="http://www.w3.org/2005/Atom">
<Document>
	<name>Melgaço.kml</name>
	<Style id="PolyStyle000001">
		<LabelStyle>
			<color>ff000000</color>
			<scale>1.2</scale>
		</LabelStyle>
		<LineStyle>
			<color>ff0000ff</color>
			<width>2</width>
		</LineStyle>
		<PolyStyle>
			<color>4dffffff</color>
		</PolyStyle>
	</Style>
	<Style id="PolyStyle00005">
		<LabelStyle>
			<color>ff000000</color>
			<scale>1.2</scale>
		</LabelStyle>
		<LineStyle>
			<color>ff0000ff</color>
			<width>2</width>
		</LineStyle>
		<PolyStyle>
			<color>4dffffff</color>
		</PolyStyle>
	</Style>
	<StyleMap id="PolyStyle00183">
		<Pair>
			<key>normal</key>
			<styleUrl>#PolyStyle00005</styleUrl>
		</Pair>
		<Pair>
			<key>highlight</key>
			<styleUrl>#PolyStyle000001</styleUrl>
		</Pair>
	</StyleMap>
	<Placemark>
		<name>Melgaço</name>
		<visibility>0</visibility>
		<Snippet maxLines="0"></Snippet>
		<styleUrl>#PolyStyle00183</styleUrl>
		<MultiGeometry>
			<extrude>1</extrude>
			<Polygon>
				<extrude>1</extrude>
				<tessellate>1</tessellate>
				<outerBoundaryIs>
					<LinearRing>
						<coordinates>
							-8.324847999999999,42.095184,5000 -8.324807,42.094551,5000 -8.324598999999999,42.093772,5000 -8.324387,42.09343,5000 -8.324261999999999,42.092959,5000 -8.324306,42.092679,5000 -8.324306,42.092239,5000 -8.324223,42.091957,5000 -8.324241000000001,42.09173,5000 -8.324304,42.091572,5000 -8.32442,42.091445,5000 -8.324495000000001,42.091291,5000 -8.325282,42.08954,5000 -8.325499000000001,42.089381,5000 -8.326219,42.088986,5000 -8.326883,42.088565,5000 -8.328166,42.087528,5000 -8.328455999999999,42.087245,5000 -8.328749,42.087035,5000 -8.329076000000001,42.086681,5000 -8.329335,42.086284,5000 -8.329611999999999,42.086013,5000 -8.330064999999999,42.085749,5000 -8.330242,42.0856,5000 -8.330525,42.085297,5000 -8.330691,42.085046,5000 -8.331579,42.084196,5000 -8.331687000000001,42.084007,5000 -8.331804,42.083897,5000 -8.331912000000001,42.083856,5000 -8.332233,42.083848,5000 -8.332402,42.083957,5000 -8.332767,42.08405,5000 -8.333178,42.084086,5000 -8.333470999999999,42.084051,5000 -8.334289999999999,42.083868,5000 -8.335022,42.083771,5000 -8.335338999999999,42.083764,5000 -8.336983999999999,42.083974,5000 -8.337802999999999,42.084146,5000 -8.338514,42.084092,5000 -8.338946,42.08408,5000 -8.339200999999999,42.084102,5000 -8.339464,42.084176,5000 -8.339536000000001,42.083947,5000 -8.339561,42.083931,5000 -8.339790000000001,42.083771,5000 -8.340009999999999,42.083595,5000 -8.340138,42.083505,5000 -8.340351,42.083334,5000 -8.340579,42.083157,5000 -8.340781,42.08299,5000 -8.340989,42.082797,5000 -8.341203,42.082618,5000 -8.341396,42.082421,5000 -8.3416,42.08226,5000 -8.341825999999999,42.082096,5000 -8.342053,42.081867,5000 -8.342219,42.081645,5000 -8.342320000000001,42.08142,5000 -8.342337000000001,42.081351,5000 -8.34235,42.081096,5000 -8.342342,42.080858,5000 -8.342317,42.080626,5000 -8.342305,42.080393,5000 -8.342305,42.080161,5000 -8.342309999999999,42.079928,5000 -8.342328,42.079854,5000 -8.342332000000001,42.07982,5000 -8.342337000000001,42.079761,5000 -8.342336,42.079735,5000 -8.342254000000001,42.079606,5000 -8.342138,42.079571,5000 -8.342105,42.079573,5000 -8.341894999999999,42.079635,5000 -8.341627000000001,42.079744,5000 -8.341443999999999,42.079863,5000 -8.341336,42.079962,5000 -8.34127,42.080032,5000 -8.341167,42.080138,5000 -8.341063,42.080217,5000 -8.340843,42.080318,5000 -8.340452000000001,42.080385,5000 -8.340113000000001,42.080419,5000 -8.339808,42.080426,5000 -8.339524000000001,42.08039,5000 -8.338969000000001,42.080248,5000 -8.338725,42.080179,5000 -8.338568,42.080127,5000 -8.338387000000001,42.080037,5000 -8.338193,42.079893,5000 -8.338074000000001,42.079737,5000 -8.337961,42.079561,5000 -8.337872000000001,42.079366,5000 -8.337745999999999,42.079161,5000 -8.337679,42.079048,5000 -8.337628,42.078975,5000 -8.337463,42.078778,5000 -8.337377,42.078694,5000 -8.337221,42.07861,5000 -8.33713,42.078592,5000 -8.336961000000001,42.078615,5000 -8.336843,42.078657,5000 -8.336753,42.078702,5000 -8.336676000000001,42.078748,5000 -8.336541,42.078592,5000 -8.336328999999999,42.078405,5000 -8.336152,42.078203,5000 -8.335969,42.078015,5000 -8.335801999999999,42.077811,5000 -8.335729000000001,42.077668,5000 -8.335622000000001,42.077425,5000 -8.335559999999999,42.077179,5000 -8.335468000000001,42.076933,5000 -8.335311000000001,42.076734,5000 -8.335129999999999,42.076523,5000 -8.334965,42.076301,5000 -8.334809,42.076067,5000 -8.334695999999999,42.075828,5000 -8.334595999999999,42.075573,5000 -8.3345,42.075327,5000 -8.334439,42.075078,5000 -8.334434,42.074842,5000 -8.334493,42.074611,5000 -8.33459,42.074372,5000 -8.334697,42.074149,5000 -8.33478,42.073914,5000 -8.334814,42.073696,5000 -8.334789000000001,42.073454,5000 -8.33479,42.073229,5000 -8.334827000000001,42.072997,5000 -8.334833,42.072758,5000 -8.334835999999999,42.072718,5000 -8.334932,42.072478,5000 -8.334936000000001,42.072457,5000 -8.33493,42.072292,5000 -8.335004,42.071986,5000 -8.335003,42.07175,5000 -8.334997,42.071511,5000 -8.334968,42.071447,5000 -8.334944,42.071417,5000 -8.334502000000001,42.071061,5000 -8.334284,42.070874,5000 -8.334078,42.070685,5000 -8.333919,42.070497,5000 -8.333907,42.07047,5000 -8.333898,42.070424,5000 -8.333897,42.070403,5000 -8.333905,42.070365,5000 -8.333923,42.070332,5000 -8.333952999999999,42.070303,5000 -8.334054,42.070224,5000 -8.334206999999999,42.070049,5000 -8.334346999999999,42.069846,5000 -8.334377,42.069762,5000 -8.334427,42.069539,5000 -8.334429999999999,42.069315,5000 -8.334415999999999,42.069096,5000 -8.334379999999999,42.068863,5000 -8.334284999999999,42.06864,5000 -8.334118999999999,42.068443,5000 -8.333970000000001,42.068247,5000 -8.333823000000001,42.068036,5000 -8.333690000000001,42.067819,5000 -8.333615999999999,42.067584,5000 -8.333556,42.067369,5000 -8.333545000000001,42.067144,5000 -8.333551,42.06712,5000 -8.333622,42.066918,5000 -8.333659000000001,42.066695,5000 -8.333612,42.066567,5000 -8.333596,42.066544,5000 -8.333421,42.066374,5000 -8.333263000000001,42.066157,5000 -8.333164999999999,42.065918,5000 -8.333133,42.065679,5000 -8.333095,42.065463,5000 -8.333087000000001,42.06523,5000 -8.333023000000001,42.065014,5000 -8.332897000000001,42.064807,5000 -8.332757000000001,42.064623,5000 -8.332587,42.06444,5000 -8.332409999999999,42.064269,5000 -8.332195,42.064106,5000 -8.331989999999999,42.063956,5000 -8.331784000000001,42.063793,5000 -8.331749,42.063769,5000 -8.331718,42.063751,5000 -8.331690999999999,42.063734,5000 -8.331671,42.063719,5000 -8.331637000000001,42.063704,5000 -8.331499000000001,42.063667,5000 -8.331265999999999,42.063605,5000 -8.330698999999999,42.063415,5000 -8.330196000000001,42.063354,5000 -8.329539,42.063273,5000 -8.328906999999999,42.063258,5000 -8.328595,42.063249,5000 -8.321289999999999,42.062792,5000 -8.318815000000001,42.062498,5000 -8.317273,42.062268,5000 -8.317023000000001,42.062187,5000 -8.317491,42.061947,5000 -8.317593,42.061895,5000 -8.318244999999999,42.061474,5000 -8.319585999999999,42.060558,5000 -8.324059999999999,42.057497,5000 -8.325155000000001,42.056697,5000 -8.325837999999999,42.056112,5000 -8.326271,42.055795,5000 -8.32878,42.053754,5000 -8.32854,42.053523,5000 -8.328469,42.053473,5000 -8.328341999999999,42.053399,5000 -8.328256,42.053369,5000 -8.328222,42.05336,5000 -8.328122,42.05331,5000 -8.32809,42.053265,5000 -8.328032,42.053142,5000 -8.328011,42.053097,5000 -8.327812,42.052834,5000 -8.327776999999999,42.052812,5000 -8.327683,42.052765,5000 -8.327582,42.052728,5000 -8.327443000000001,42.052702,5000 -8.327298000000001,42.052673,5000 -8.326911000000001,42.052647,5000 -8.326755,42.052638,5000 -8.326658999999999,42.052637,5000 -8.326556999999999,42.052641,5000 -8.326438,42.052645,5000 -8.326345,42.052637,5000 -8.326288,42.052613,5000 -8.326142000000001,42.052525,5000 -8.326119,42.052508,5000 -8.325894,42.052272,5000 -8.325672000000001,42.052114,5000 -8.32564,42.052098,5000 -8.325608000000001,42.052082,5000 -8.325559999999999,42.052046,5000 -8.325538999999999,42.052024,5000 -8.325445999999999,42.051942,5000 -8.325341,42.051878,5000 -8.325217,42.051866,5000 -8.325105000000001,42.051873,5000 -8.324754,42.051892,5000 -8.324714999999999,42.051875,5000 -8.324676,42.051857,5000 -8.3245,42.051769,5000 -8.324237999999999,42.051603,5000 -8.324211999999999,42.051585,5000 -8.324077000000001,42.051501,5000 -8.323871,42.051334,5000 -8.323833,42.051268,5000 -8.323753,42.051017,5000 -8.323703999999999,42.050941,5000 -8.323663,42.050891,5000 -8.323418999999999,42.050738,5000 -8.323365000000001,42.050727,5000 -8.323138,42.05071,5000 -8.323079999999999,42.050708,5000 -8.323074,42.050432,5000 -8.323017999999999,42.050214,5000 -8.322853,42.05012,5000 -8.322734000000001,42.050051,5000 -8.322689,42.050031,5000 -8.322646000000001,42.05001,5000 -8.322611999999999,42.050005,5000 -8.322601000000001,42.049995,5000 -8.322447,42.049949,5000 -8.322419999999999,42.049912,5000 -8.322419999999999,42.049849,5000 -8.322431999999999,42.049798,5000 -8.322457,42.049699,5000 -8.322521,42.049507,5000 -8.322512,42.049436,5000 -8.322359000000001,42.049256,5000 -8.322289,42.049179,5000 -8.322054,42.048946,5000 -8.321999,42.048858,5000 -8.321973,42.048788,5000 -8.321911,42.048716,5000 -8.321498,42.048374,5000 -8.320888,42.047908,5000 -8.320429000000001,42.047448,5000 -8.3201,42.047145,5000 -8.319720999999999,42.046882,5000 -8.319350999999999,42.046651,5000 -8.318728,42.046252,5000 -8.318139,42.045925,5000 -8.317494,42.045477,5000 -8.317356999999999,42.045731,5000 -8.317231,42.045879,5000 -8.317112,42.045971,5000 -8.317038,42.046017,5000 -8.317019,42.046003,5000 -8.316812000000001,42.045844,5000 -8.316662000000001,42.045711,5000 -8.316419,42.045441,5000 -8.31622,42.045098,5000 -8.316005000000001,42.044714,5000 -8.315772000000001,42.044444,5000 -8.315569999999999,42.044267,5000 -8.315303999999999,42.044135,5000 -8.314997999999999,42.044058,5000 -8.314581,42.044053,5000 -8.313959000000001,42.044119,5000 -8.313521,42.044237,5000 -8.313140000000001,42.044428,5000 -8.312782,42.044706,5000 -8.312438999999999,42.04504,5000 -8.312132999999999,42.045304,5000 -8.3117,42.045682,5000 -8.311493,42.045872,5000 -8.309749999999999,42.044682,5000 -8.309721,42.044639,5000 -8.309723999999999,42.044605,5000 -8.309710000000001,42.044565,5000 -8.309692,42.04453,5000 -8.309613000000001,42.044398,5000 -8.30958,42.044354,5000 -8.309558000000001,42.044322,5000 -8.309547,42.044298,5000 -8.309537000000001,42.044269,5000 -8.309525000000001,42.044241,5000 -8.30951,42.044203,5000 -8.3093,42.044041,5000 -8.309182,42.043966,5000 -8.308899,42.043799,5000 -8.308559000000001,42.043649,5000 -8.308275,42.043538,5000 -8.307952,42.043411,5000 -8.307861000000001,42.043374,5000 -8.307803,42.043345,5000 -8.307508,42.043181,5000 -8.307267,42.043036,5000 -8.307204,42.043006,5000 -8.306901,42.042915,5000 -8.306850000000001,42.042894,5000 -8.306797,42.042871,5000 -8.306734000000001,42.042836,5000 -8.306468000000001,42.042663,5000 -8.306386,42.042603,5000 -8.306331999999999,42.042571,5000 -8.30627,42.042527,5000 -8.306219,42.042487,5000 -8.30616,42.042453,5000 -8.306018,42.042401,5000 -8.305951,42.04237,5000 -8.305904999999999,42.042354,5000 -8.305851000000001,42.042314,5000 -8.305713000000001,42.042231,5000 -8.305631999999999,42.042177,5000 -8.305510999999999,42.042088,5000 -8.305472,42.042064,5000 -8.305224000000001,42.041921,5000 -8.305159,42.041869,5000 -8.305129000000001,42.041838,5000 -8.305087,42.041779,5000 -8.305037,42.041671,5000 -8.305002999999999,42.041561,5000 -8.304976999999999,42.041517,5000 -8.304919,42.041451,5000 -8.304900999999999,42.041436,5000 -8.304881999999999,42.04142,5000 -8.304529,42.041205,5000 -8.304500000000001,42.041185,5000 -8.304425999999999,42.041136,5000 -8.304372000000001,42.0411,5000 -8.304342999999999,42.041081,5000 -8.304221,42.040962,5000 -8.304232000000001,42.040898,5000 -8.304344,42.040861,5000 -8.304565,42.040806,5000 -8.304791,42.040706,5000 -8.304936,42.040562,5000 -8.304976,42.040397,5000 -8.305066,42.040271,5000 -8.305313999999999,42.040285,5000 -8.305763000000001,42.04033,5000 -8.306761,42.04032,5000 -8.307402,42.04031,5000 -8.30799,42.040326,5000 -8.308617,42.040316,5000 -8.309271000000001,42.040294,5000 -8.309593,42.040248,5000 -8.309911,42.040189,5000 -8.309943000000001,42.040163,5000 -8.309934999999999,42.040147,5000 -8.309853,42.040066,5000 -8.309747,42.03998,5000 -8.309639000000001,42.039884,5000 -8.309582000000001,42.039808,5000 -8.309538999999999,42.039697,5000 -8.309469999999999,42.039481,5000 -8.309293,42.039082,5000 -8.309138000000001,42.03872,5000 -8.309054,42.038475,5000 -8.309030999999999,42.03837,5000 -8.30903,42.038289,5000 -8.309061,42.038249,5000 -8.309172,42.038194,5000 -8.309203999999999,42.038189,5000 -8.309106999999999,42.038036,5000 -8.309016,42.037937,5000 -8.308813000000001,42.037765,5000 -8.308545000000001,42.037534,5000 -8.308515999999999,42.037504,5000 -8.308344999999999,42.037299,5000 -8.308315,42.037247,5000 -8.308309,42.037207,5000 -8.30833,42.037081,5000 -8.308350000000001,42.037027,5000 -8.308381000000001,42.036954,5000 -8.308386,42.036901,5000 -8.308386,42.03687,5000 -8.308365999999999,42.036784,5000 -8.30833,42.036704,5000 -8.308235,42.036442,5000 -8.308225,42.036396,5000 -8.308206999999999,42.036347,5000 -8.308194,42.036321,5000 -8.308130999999999,42.036225,5000 -8.308052999999999,42.036126,5000 -8.308033999999999,42.036095,5000 -8.307796,42.035692,5000 -8.307757000000001,42.035645,5000 -8.307740000000001,42.035618,5000 -8.307599,42.035421,5000 -8.307570999999999,42.035349,5000 -8.307554,42.035307,5000 -8.307537999999999,42.035252,5000 -8.307461,42.035149,5000 -8.307408000000001,42.035091,5000 -8.307378,42.035066,5000 -8.307326,42.035031,5000 -8.307271999999999,42.035002,5000 -8.307187000000001,42.034949,5000 -8.307162,42.034925,5000 -8.307076,42.034856,5000 -8.307003999999999,42.034785,5000 -8.306964000000001,42.034756,5000 -8.306922,42.03472,5000 -8.306829,42.034626,5000 -8.306694999999999,42.034569,5000 -8.306622000000001,42.034541,5000 -8.306573999999999,42.034523,5000 -8.30654,42.034507,5000 -8.306469999999999,42.034463,5000 -8.306414999999999,42.034421,5000 -8.306330000000001,42.034344,5000 -8.306222999999999,42.034251,5000 -8.306198,42.034227,5000 -8.305985,42.03404,5000 -8.305897,42.03392,5000 -8.305875,42.033895,5000 -8.305842999999999,42.033845,5000 -8.305820000000001,42.033814,5000 -8.305809999999999,42.033803,5000 -8.305799,42.033789,5000 -8.305771999999999,42.033764,5000 -8.305730000000001,42.033723,5000 -8.305695,42.033685,5000 -8.305638999999999,42.033618,5000 -8.305583,42.033541,5000 -8.305527,42.03348,5000 -8.305393,42.033293,5000 -8.305342,42.033244,5000 -8.305291,42.03321,5000 -8.305199,42.033136,5000 -8.305175999999999,42.033095,5000 -8.305149,42.033065,5000 -8.305115000000001,42.03302,5000 -8.305084000000001,42.032978,5000 -8.305057,42.032946,5000 -8.305027000000001,42.032898,5000 -8.30498,42.032797,5000 -8.304956000000001,42.03275,5000 -8.304937000000001,42.032707,5000 -8.304933999999999,42.032645,5000 -8.304845,42.032456,5000 -8.304866000000001,42.032412,5000 -8.304919,42.032379,5000 -8.305024,42.032323,5000 -8.305073,42.032294,5000 -8.305137999999999,42.032243,5000 -8.305154999999999,42.032208,5000 -8.305161,42.032166,5000 -8.305116,42.032124,5000 -8.305073,42.032091,5000 -8.305009999999999,42.032049,5000 -8.304945,42.032033,5000 -8.304804000000001,42.032003,5000 -8.304709000000001,42.031981,5000 -8.304675,42.031972,5000 -8.304641,42.031964,5000 -8.304619000000001,42.031847,5000 -8.304587,42.031702,5000 -8.304565,42.031669,5000 -8.304456,42.031589,5000 -8.304423,42.031549,5000 -8.304385999999999,42.03149,5000 -8.304342999999999,42.031406,5000 -8.304327000000001,42.031366,5000 -8.304314,42.031279,5000 -8.304308000000001,42.031231,5000 -8.304319,42.031201,5000 -8.304366,42.031125,5000 -8.304418999999999,42.03103,5000 -8.304449,42.030952,5000 -8.304453000000001,42.030919,5000 -8.304449,42.030889,5000 -8.304434000000001,42.030828,5000 -8.304406999999999,42.030758,5000 -8.304357,42.030678,5000 -8.304304999999999,42.030614,5000 -8.304256000000001,42.030518,5000 -8.304202,42.030416,5000 -8.304185,42.030377,5000 -8.304173,42.030332,5000 -8.304166,42.03029,5000 -8.304154,42.030234,5000 -8.304131999999999,42.030195,5000 -8.304069,42.030121,5000 -8.304036999999999,42.030089,5000 -8.303952000000001,42.029989,5000 -8.303919,42.029944,5000 -8.303884999999999,42.029899,5000 -8.303832,42.029672,5000 -8.303769000000001,42.029413,5000 -8.303751,42.029363,5000 -8.303735,42.02932,5000 -8.303741,42.029277,5000 -8.303762000000001,42.029234,5000 -8.303775999999999,42.029191,5000 -8.303796999999999,42.029153,5000 -8.303813,42.029112,5000 -8.303846999999999,42.029049,5000 -8.303884,42.028992,5000 -8.30391,42.028963,5000 -8.303936999999999,42.028921,5000 -8.303941999999999,42.028887,5000 -8.303936,42.028853,5000 -8.303927,42.028824,5000 -8.303915999999999,42.028779,5000 -8.303924,42.028704,5000 -8.303948,42.028583,5000 -8.303948999999999,42.028532,5000 -8.303941999999999,42.028491,5000 -8.303922999999999,42.028454,5000 -8.303914000000001,42.028432,5000 -8.303891,42.028318,5000 -8.303743000000001,42.028008,5000 -8.303591000000001,42.027663,5000 -8.303547,42.027615,5000 -8.303528999999999,42.027573,5000 -8.303507,42.027531,5000 -8.303485999999999,42.027473,5000 -8.303492,42.027401,5000 -8.303483,42.027348,5000 -8.303478999999999,42.027314,5000 -8.303459,42.027267,5000 -8.303455,42.027241,5000 -8.303461,42.027173,5000 -8.303477000000001,42.027144,5000 -8.303699,42.026984,5000 -8.303823,42.026919,5000 -8.303947000000001,42.026853,5000 -8.304240999999999,42.026785,5000 -8.304332,42.026781,5000 -8.304423,42.026795,5000 -8.304480999999999,42.026809,5000 -8.304843,42.02687,5000 -8.30491,42.026864,5000 -8.304976,42.026843,5000 -8.305012,42.026828,5000 -8.305040999999999,42.026815,5000 -8.305078999999999,42.026797,5000 -8.305178,42.02675,5000 -8.30524,42.02672,5000 -8.305389,42.026636,5000 -8.305451,42.026561,5000 -8.30559,42.026381,5000 -8.305642000000001,42.026335,5000 -8.305699000000001,42.02626,5000 -8.305755,42.026206,5000 -8.305769,42.026163,5000 -8.305776,42.026106,5000 -8.305762,42.026062,5000 -8.305725000000001,42.026006,5000 -8.305662,42.025941,5000 -8.305634,42.025917,5000 -8.305413,42.025725,5000 -8.305327,42.025665,5000 -8.305199999999999,42.025601,5000 -8.304929,42.025483,5000 -8.304891,42.025462,5000 -8.304795,42.025387,5000 -8.304705999999999,42.025312,5000 -8.304634,42.025246,5000 -8.304582999999999,42.025211,5000 -8.304539999999999,42.025182,5000 -8.304456,42.025133,5000 -8.304423,42.025115,5000 -8.304353000000001,42.025083,5000 -8.304081999999999,42.024963,5000 -8.304017,42.024938,5000 -8.303944,42.02492,5000 -8.303901,42.024896,5000 -8.303856,42.024877,5000 -8.303808,42.024845,5000 -8.303742,42.024815,5000 -8.303731000000001,42.024761,5000 -8.303731000000001,42.024674,5000 -8.303661999999999,42.024505,5000 -8.303549,42.024404,5000 -8.303452999999999,42.024323,5000 -8.303392000000001,42.02419,5000 -8.303381999999999,42.024156,5000 -8.303388999999999,42.023928,5000 -8.303394000000001,42.023865,5000 -8.303381999999999,42.023798,5000 -8.303362999999999,42.023678,5000 -8.303286,42.023548,5000 -8.303281999999999,42.023526,5000 -8.303246,42.02346,5000 -8.303222,42.023337,5000 -8.303209000000001,42.0233,5000 -8.303153,42.023166,5000 -8.303127,42.023131,5000 -8.303077999999999,42.023068,5000 -8.303042,42.023018,5000 -8.30302,42.02299,5000 -8.302963999999999,42.022933,5000 -8.30289,42.022863,5000 -8.302740999999999,42.022749,5000 -8.302712,42.022716,5000 -8.302678,42.022677,5000 -8.302516000000001,42.022481,5000 -8.302281000000001,42.022242,5000 -8.302225,42.022187,5000 -8.302082,42.02204,5000 -8.302020000000001,42.02187,5000 -8.302006,42.021855,5000 -8.301992,42.021838,5000 -8.301792000000001,42.021664,5000 -8.301755999999999,42.021638,5000 -8.301613,42.021537,5000 -8.301548,42.021496,5000 -8.301487,42.02146,5000 -8.301373999999999,42.021363,5000 -8.301354,42.021333,5000 -8.301341000000001,42.021309,5000 -8.301316,42.021275,5000 -8.301273,42.021233,5000 -8.301251000000001,42.021215,5000 -8.301183999999999,42.021136,5000 -8.301113000000001,42.021015,5000 -8.301083,42.020961,5000 -8.301066,42.020921,5000 -8.301048,42.020869,5000 -8.301038999999999,42.020724,5000 -8.301031999999999,42.020633,5000 -8.301029,42.020576,5000 -8.301030000000001,42.020542,5000 -8.301067,42.020366,5000 -8.301069999999999,42.020331,5000 -8.301072,42.020283,5000 -8.301073000000001,42.020231,5000 -8.301102999999999,42.020014,5000 -8.301238,42.019872,5000 -8.301247,42.019852,5000 -8.301254999999999,42.01983,5000 -8.301268,42.019794,5000 -8.301272000000001,42.01977,5000 -8.301278,42.019725,5000 -8.301269,42.019643,5000 -8.301268,42.019621,5000 -8.301239000000001,42.019477,5000 -8.301225000000001,42.019446,5000 -8.301213000000001,42.019426,5000 -8.301190999999999,42.019383,5000 -8.301175000000001,42.019343,5000 -8.301161,42.019316,5000 -8.301135,42.019261,5000 -8.301109,42.019227,5000 -8.301088999999999,42.019203,5000 -8.301057999999999,42.019156,5000 -8.301035000000001,42.019099,5000 -8.301024999999999,42.019033,5000 -8.301021,42.019016,5000 -8.301019,42.018996,5000 -8.301005,42.018957,5000 -8.300993,42.01894,5000 -8.300946,42.018842,5000 -8.300978000000001,42.018741,5000 -8.300996,42.018693,5000 -8.301043,42.01858,5000 -8.301105,42.018426,5000 -8.301157,42.018174,5000 -8.30115,42.018138,5000 -8.301116,42.018088,5000 -8.301045999999999,42.018045,5000 -8.300989,42.018008,5000 -8.300943999999999,42.017974,5000 -8.300845000000001,42.017888,5000 -8.300641000000001,42.017719,5000 -8.300577000000001,42.017641,5000 -8.300544,42.017606,5000 -8.300435,42.017505,5000 -8.30039,42.017454,5000 -8.300356000000001,42.017414,5000 -8.300295,42.017311,5000 -8.300147000000001,42.017081,5000 -8.300132,42.017056,5000 -8.300117,42.017007,5000 -8.300108,42.016912,5000 -8.300102000000001,42.016847,5000 -8.300089,42.016778,5000 -8.300022,42.016551,5000 -8.300013999999999,42.016519,5000 -8.299993000000001,42.016464,5000 -8.299946,42.016388,5000 -8.299909,42.016285,5000 -8.29988,42.016214,5000 -8.29987,42.016198,5000 -8.299799999999999,42.016133,5000 -8.299787,42.016112,5000 -8.299773999999999,42.016077,5000 -8.299742,42.01595,5000 -8.299704999999999,42.01589,5000 -8.299635,42.01582,5000 -8.299618000000001,42.015797,5000 -8.299576999999999,42.015742,5000 -8.299555,42.015705,5000 -8.299453,42.015552,5000 -8.299416000000001,42.015496,5000 -8.299382,42.015462,5000 -8.299352000000001,42.015424,5000 -8.299341999999999,42.015378,5000 -8.299336,42.01534,5000 -8.299322999999999,42.015306,5000 -8.299306,42.015252,5000 -8.299296,42.015227,5000 -8.299283000000001,42.015201,5000 -8.29927,42.015176,5000 -8.299243000000001,42.01513,5000 -8.29918,42.015014,5000 -8.299161,42.014966,5000 -8.299117000000001,42.014843,5000 -8.299102,42.014789,5000 -8.299094,42.014766,5000 -8.299061,42.014634,5000 -8.299054,42.014604,5000 -8.299041000000001,42.014516,5000 -8.299035,42.014438,5000 -8.29903,42.014404,5000 -8.299018999999999,42.014358,5000 -8.299003000000001,42.014313,5000 -8.298987,42.014272,5000 -8.298971999999999,42.01401,5000 -8.298970000000001,42.013908,5000 -8.298918,42.013674,5000 -8.298909,42.013644,5000 -8.298899,42.013586,5000 -8.298893,42.013534,5000 -8.298890999999999,42.013498,5000 -8.298893,42.01347,5000 -8.298888,42.013419,5000 -8.298883999999999,42.013369,5000 -8.298889000000001,42.013344,5000 -8.298861,42.013256,5000 -8.298851000000001,42.013224,5000 -8.298843,42.013196,5000 -8.298829,42.013157,5000 -8.298806000000001,42.013112,5000 -8.298795,42.013081,5000 -8.298788,42.013048,5000 -8.298785000000001,42.013012,5000 -8.298738,42.012873,5000 -8.298698,42.012799,5000 -8.298679,42.012771,5000 -8.298634,42.0127,5000 -8.298622999999999,42.012673,5000 -8.298610999999999,42.012637,5000 -8.298598,42.012579,5000 -8.298596,42.012534,5000 -8.298603999999999,42.012452,5000 -8.298579,42.012316,5000 -8.298565,42.01223,5000 -8.298476000000001,42.012,5000 -8.298456,42.01196,5000 -8.298435,42.011903,5000 -8.298412000000001,42.011852,5000 -8.298387,42.011692,5000 -8.298337999999999,42.01149,5000 -8.298330999999999,42.011425,5000 -8.298317000000001,42.011369,5000 -8.298280999999999,42.011312,5000 -8.298266,42.011287,5000 -8.298239000000001,42.011234,5000 -8.298227000000001,42.011198,5000 -8.298216999999999,42.011165,5000 -8.298211,42.011138,5000 -8.298194000000001,42.01107,5000 -8.298185,42.011036,5000 -8.298182000000001,42.010992,5000 -8.298162,42.010935,5000 -8.298155,42.010905,5000 -8.298156000000001,42.010848,5000 -8.298137000000001,42.01076,5000 -8.298112,42.010665,5000 -8.298105,42.010631,5000 -8.298097,42.010609,5000 -8.298064,42.010496,5000 -8.298049000000001,42.010463,5000 -8.298043,42.010447,5000 -8.297971,42.010269,5000 -8.297941,42.010199,5000 -8.297933,42.010178,5000 -8.297927,42.010166,5000 -8.297909000000001,42.010116,5000 -8.297895,42.010068,5000 -8.297867,42.009997,5000 -8.297853,42.009959,5000 -8.297836999999999,42.00991,5000 -8.297822999999999,42.009869,5000 -8.29782,42.009854,5000 -8.297803999999999,42.00976,5000 -8.297795000000001,42.009692,5000 -8.297779999999999,42.009609,5000 -8.297777,42.009589,5000 -8.29777,42.009519,5000 -8.297768,42.009498,5000 -8.297762000000001,42.009473,5000 -8.297751999999999,42.009424,5000 -8.297742,42.009387,5000 -8.29687,42.008006,5000 -8.296863999999999,42.00799,5000 -8.296673,42.00781,5000 -8.296422,42.007702,5000 -8.296093000000001,42.00764,5000 -8.295773000000001,42.007601,5000 -8.295432999999999,42.007564,5000 -8.295064,42.00756,5000 -8.294772999999999,42.007591,5000 -8.294501,42.007623,5000 -8.294231,42.007629,5000 -8.294083000000001,42.00764,5000 -8.293658000000001,42.007635,5000 -8.293331999999999,42.007604,5000 -8.293011,42.007534,5000 -8.292873,42.007471,5000 -8.292752999999999,42.007352,5000 -8.292560999999999,42.007159,5000 -8.292367,42.006985,5000 -8.292149999999999,42.006798,5000 -8.291919,42.006618,5000 -8.291707000000001,42.006424,5000 -8.291541,42.006215,5000 -8.291359999999999,42.006026,5000 -8.291133,42.005862,5000 -8.290902000000001,42.005689,5000 -8.290699,42.005488,5000 -8.290537,42.005271,5000 -8.290421,42.005043,5000 -8.290297000000001,42.004807,5000 -8.290193,42.004592,5000 -8.290107000000001,42.004367,5000 -8.290058,42.00412,5000 -8.290054,42.003894,5000 -8.290054,42.003658,5000 -8.290082,42.003538,5000 -8.290189,42.003299,5000 -8.290190000000001,42.003216,5000 -8.290094,42.002722,5000 -8.290075,42.002474,5000 -8.290031000000001,42.002225,5000 -8.290018999999999,42.002056,5000 -8.289985,42.001778,5000 -8.289910000000001,42.001547,5000 -8.289891000000001,42.001508,5000 -8.289714999999999,42.001291,5000 -8.289535000000001,42.001095,5000 -8.289515,42.001059,5000 -8.2895,42.001022,5000 -8.289486,42.000941,5000 -8.289489,42.000771,5000 -8.28955,42.00052,5000 -8.289578000000001,42.000444,5000 -8.289709999999999,42.000232,5000 -8.289895,42.000013,5000 -8.289934000000001,41.999937,5000 -8.289947,41.999898,5000 -8.289980999999999,41.999649,5000 -8.290005000000001,41.999571,5000 -8.290082999999999,41.999427,5000 -8.290139,41.999366,5000 -8.290172,41.99934,5000 -8.290207000000001,41.999317,5000 -8.290391,41.999241,5000 -8.290431,41.999229,5000 -8.290475000000001,41.999219,5000 -8.290518,41.999213,5000 -8.290692,41.99919,5000 -8.29078,41.999172,5000 -8.290824000000001,41.999159,5000 -8.290862000000001,41.999143,5000 -8.290895000000001,41.999122,5000 -8.290924,41.999098,5000 -8.290946,41.999071,5000 -8.290960999999999,41.999039,5000 -8.29097,41.999006,5000 -8.290978000000001,41.998868,5000 -8.291005999999999,41.998716,5000 -8.291002000000001,41.998593,5000 -8.290998,41.998552,5000 -8.290998,41.998473,5000 -8.291005999999999,41.998438,5000 -8.291022999999999,41.998402,5000 -8.291038,41.998366,5000 -8.291039,41.998332,5000 -8.291024,41.998299,5000 -8.290839999999999,41.998111,5000 -8.290708,41.99788,5000 -8.290589000000001,41.99765,5000 -8.290486,41.99742,5000 -8.290483999999999,41.997177,5000 -8.290412,41.996937,5000 -8.290373000000001,41.996809,5000 -8.290373000000001,41.996782,5000 -8.290376999999999,41.996756,5000 -8.290461000000001,41.996527,5000 -8.29054,41.996303,5000 -8.290559,41.99615,5000 -8.290562,41.996102,5000 -8.290571999999999,41.99606,5000 -8.290592,41.996021,5000 -8.29077,41.995796,5000 -8.290801,41.995761,5000 -8.290877999999999,41.995645,5000 -8.290902000000001,41.99553,5000 -8.290912000000001,41.99549,5000 -8.290929,41.995448,5000 -8.290953999999999,41.995412,5000 -8.290986999999999,41.995383,5000 -8.291024999999999,41.99536,5000 -8.291152,41.995305,5000 -8.291197,41.995289,5000 -8.291242,41.995278,5000 -8.291572,41.995212,5000 -8.291612000000001,41.995192,5000 -8.291651999999999,41.995167,5000 -8.291688000000001,41.995137,5000 -8.291721000000001,41.995102,5000 -8.291782,41.994996,5000 -8.291786999999999,41.994974,5000 -8.291892000000001,41.994626,5000 -8.292058000000001,41.994404,5000 -8.292141000000001,41.994188,5000 -8.292156,41.99396,5000 -8.292234000000001,41.993728,5000 -8.292299,41.993483,5000 -8.292311,41.993233,5000 -8.292322,41.993106,5000 -8.292338000000001,41.993058,5000 -8.292349,41.993035,5000 -8.292439999999999,41.992932,5000 -8.292536,41.992844,5000 -8.292812,41.992686,5000 -8.292844000000001,41.992663,5000 -8.292871999999999,41.99264,5000 -8.292897,41.992615,5000 -8.292915000000001,41.992587,5000 -8.293023,41.992372,5000 -8.293119000000001,41.992186,5000 -8.293089999999999,41.992175,5000 -8.293039,41.992144,5000 -8.292852,41.992034,5000 -8.292824,41.991999,5000 -8.292776,41.991931,5000 -8.292657999999999,41.991723,5000 -8.292631,41.991597,5000 -8.292555999999999,41.991377,5000 -8.292444,41.991151,5000 -8.292327,41.99093,5000 -8.292247,41.990699,5000 -8.292132000000001,41.990469,5000 -8.291998,41.990235,5000 -8.291848,41.990014,5000 -8.29167,41.989816,5000 -8.291468,41.98961,5000 -8.291293,41.989414,5000 -8.291174,41.989197,5000 -8.291093,41.988953,5000 -8.291052000000001,41.98872,5000 -8.291017999999999,41.988481,5000 -8.290993,41.988241,5000 -8.290997000000001,41.988002,5000 -8.291009000000001,41.987772,5000 -8.291059000000001,41.987533,5000 -8.291081,41.987304,5000 -8.291073000000001,41.987072,5000 -8.291072,41.986818,5000 -8.291073000000001,41.986592,5000 -8.291038,41.986358,5000 -8.290998999999999,41.986116,5000 -8.290953,41.985864,5000 -8.290925,41.985612,5000 -8.290891,41.985369,5000 -8.290850000000001,41.985137,5000 -8.290841,41.985099,5000 -8.290717000000001,41.984888,5000 -8.290705000000001,41.984857,5000 -8.290697,41.984825,5000 -8.290691000000001,41.98474,5000 -8.290683,41.984714,5000 -8.290683,41.984689,5000 -8.290692,41.984457,5000 -8.290705000000001,41.984227,5000 -8.290709,41.983996,5000 -8.290705000000001,41.983971,5000 -8.290621,41.983824,5000 -8.290480000000001,41.983595,5000 -8.290387000000001,41.983355,5000 -8.290297000000001,41.983113,5000 -8.290177,41.982875,5000 -8.290051,41.982775,5000 -8.289840999999999,41.982604,5000 -8.289758000000001,41.982473,5000 -8.289659,41.982258,5000 -8.289557,41.982038,5000 -8.289446999999999,41.981818,5000 -8.289353999999999,41.981587,5000 -8.289337,41.981521,5000 -8.289269000000001,41.981292,5000 -8.28927,41.981268,5000 -8.289300000000001,41.981154,5000 -8.289358999999999,41.98091,5000 -8.289361,41.980678,5000 -8.289260000000001,41.980444,5000 -8.289007,41.979857,5000 -8.288982000000001,41.979613,5000 -8.288988,41.979376,5000 -8.288989000000001,41.979352,5000 -8.289122000000001,41.978857,5000 -8.289144,41.978609,5000 -8.288994000000001,41.978388,5000 -8.288778000000001,41.978054,5000 -8.288702000000001,41.977936,5000 -8.288541,41.977702,5000 -8.288382,41.977505,5000 -8.288192,41.977326,5000 -8.288004000000001,41.977126,5000 -8.287850000000001,41.976935,5000 -8.287675999999999,41.976762,5000 -8.287511,41.976561,5000 -8.287364999999999,41.976353,5000 -8.287221000000001,41.976147,5000 -8.287190000000001,41.976112,5000 -8.287157000000001,41.976085,5000 -8.287096,41.976031,5000 -8.286994999999999,41.975899,5000 -8.286972,41.97587,5000 -8.286867000000001,41.975796,5000 -8.286837,41.975768,5000 -8.286809,41.975741,5000 -8.286747,41.975693,5000 -8.286721999999999,41.975667,5000 -8.286701000000001,41.97564,5000 -8.286681,41.975613,5000 -8.286626999999999,41.97556,5000 -8.286593,41.975534,5000 -8.286466000000001,41.975451,5000 -8.286158,41.975335,5000 -8.286108,41.975326,5000 -8.286061,41.975321,5000 -8.285923,41.975307,5000 -8.285842000000001,41.975306,5000 -8.285795999999999,41.975305,5000 -8.285686,41.975303,5000 -8.285375,41.975298,5000 -8.285342,41.975294,5000 -8.285313,41.975285,5000 -8.285285999999999,41.975273,5000 -8.285170000000001,41.97519,5000 -8.285144000000001,41.975159,5000 -8.285128,41.975134,5000 -8.285102,41.975118,5000 -8.284623,41.974999,5000 -8.284378,41.974823,5000 -8.284136,41.974674,5000 -8.283763,41.97449,5000 -8.283733,41.974485,5000 -8.283674,41.97448,5000 -8.283574,41.974444,5000 -8.283287,41.974323,5000 -8.283251,41.97431,5000 -8.283175999999999,41.974292,5000 -8.283137,41.974286,5000 -8.282809,41.974281,5000 -8.282767,41.974287,5000 -8.282436000000001,41.974333,5000 -8.282396,41.974333,5000 -8.282317000000001,41.974313,5000 -8.282241000000001,41.97428,5000 -8.282000999999999,41.974135,5000 -8.28185,41.973918,5000 -8.281732999999999,41.97369,5000 -8.281527000000001,41.973495,5000 -8.281485,41.973474,5000 -8.281399,41.973439,5000 -8.281352,41.973424,5000 -8.281304,41.973413,5000 -8.280968,41.973395,5000 -8.280927,41.973399,5000 -8.280611,41.973425,5000 -8.280471,41.973423,5000 -8.280436,41.973418,5000 -8.280163,41.973319,5000 -8.279856000000001,41.973172,5000 -8.279541999999999,41.973071,5000 -8.279348000000001,41.972965,5000 -8.279094000000001,41.972807,5000 -8.279074,41.972794,5000 -8.274658000000001,41.975258,5000 -8.274490999999999,41.975344,5000 -8.274248999999999,41.975486,5000 -8.273991000000001,41.975626,5000 -8.273683999999999,41.975789,5000 -8.273426000000001,41.975957,5000 -8.273066,41.976268,5000 -8.272663,41.976686,5000 -8.271915999999999,41.977216,5000 -8.271737999999999,41.977335,5000 -8.271430000000001,41.977542,5000 -8.271209000000001,41.977765,5000 -8.271061,41.977951,5000 -8.270958,41.978042,5000 -8.270763000000001,41.978176,5000 -8.270447000000001,41.978353,5000 -8.270288000000001,41.97836,5000 -8.270057,41.978436,5000 -8.269821,41.978514,5000 -8.269562000000001,41.978586,5000 -8.269345,41.978579,5000 -8.269183,41.978648,5000 -8.268663999999999,41.979249,5000 -8.267061,41.980002,5000 -8.266389999999999,41.980487,5000 -8.266022,41.9809,5000 -8.265855,41.981044,5000 -8.265884,41.981148,5000 -8.265902000000001,41.981224,5000 -8.266069,41.981998,5000 -8.26628,41.982855,5000 -8.266382999999999,41.983467,5000 -8.266387999999999,41.983556,5000 -8.266386000000001,41.983643,5000 -8.266368999999999,41.983789,5000 -8.266353000000001,41.983854,5000 -8.266327,41.983932,5000 -8.266289,41.984034,5000 -8.266218,41.984213,5000 -8.266124,41.984395,5000 -8.265993999999999,41.98466,5000 -8.265969,41.984723,5000 -8.265930000000001,41.984832,5000 -8.265917999999999,41.984905,5000 -8.265912,41.984975,5000 -8.265915,41.985064,5000 -8.265924999999999,41.985131,5000 -8.265980000000001,41.985336,5000 -8.265919999999999,41.98555,5000 -8.26507,41.988306,5000 -8.265107,41.98954,5000 -8.263534,41.992873,5000 -8.263965000000001,41.993764,5000 -8.264429,41.995098,5000 -8.264469999999999,41.995537,5000 -8.264485000000001,41.996129,5000 -8.2644,41.996933,5000 -8.264176000000001,41.997379,5000 -8.263401999999999,41.997975,5000 -8.263057999999999,41.998664,5000 -8.262437,41.999688,5000 -8.26206,42.000176,5000 -8.261920999999999,42.000356,5000 -8.260154,42.00204,5000 -8.258709,42.00409,5000 -8.257770000000001,42.005507,5000 -8.257231000000001,42.006724,5000 -8.257028999999999,42.006926,5000 -8.256824,42.007087,5000 -8.256705,42.007188,5000 -8.256603,42.007276,5000 -8.256462000000001,42.007423,5000 -8.256266,42.007686,5000 -8.256104000000001,42.007899,5000 -8.255853999999999,42.008213,5000 -8.255689,42.008418,5000 -8.255514,42.008624,5000 -8.255323000000001,42.008869,5000 -8.255167,42.009093,5000 -8.255013,42.009296,5000 -8.254827000000001,42.009495,5000 -8.254607999999999,42.009764,5000 -8.254289,42.010073,5000 -8.253981,42.010376,5000 -8.253644,42.010754,5000 -8.253223,42.011159,5000 -8.252463000000001,42.011567,5000 -8.251893000000001,42.011897,5000 -8.25104,42.012216,5000 -8.249128000000001,42.01244,5000 -8.247104999999999,42.012677,5000 -8.236605000000001,42.014331,5000 -8.230812,42.011177,5000 -8.222958999999999,42.006899,5000 -8.212541,42.014375,5000 -8.209637000000001,42.016048,5000 -8.206785999999999,42.017582,5000 -8.20401,42.018728,5000 -8.199882000000001,42.015917,5000 -8.194036000000001,42.017393,5000 -8.194019000000001,42.017398,5000 -8.193709,42.015483,5000 -8.192880000000001,42.011001,5000 -8.192525,42.010144,5000 -8.192572999999999,42.008756,5000 -8.191792,42.007644,5000 -8.19422,41.999222,5000 -8.194622000000001,41.996932,5000 -8.194687,41.996877,5000 -8.194705000000001,41.996855,5000 -8.194731000000001,41.996806,5000 -8.194739,41.99678,5000 -8.194743000000001,41.996753,5000 -8.194727,41.996596,5000 -8.194613,41.996371,5000 -8.19454,41.996141,5000 -8.194538,41.996084,5000 -8.194547999999999,41.996027,5000 -8.194646000000001,41.995842,5000 -8.194466,41.995722,5000 -8.194196,41.995598,5000 -8.194127,41.995565,5000 -8.193905000000001,41.995397,5000 -8.193702,41.995185,5000 -8.193522,41.994979,5000 -8.193362,41.994767,5000 -8.193244999999999,41.994536,5000 -8.193182,41.994429,5000 -8.193128,41.994367,5000 -8.192890999999999,41.99419,5000 -8.192861000000001,41.994158,5000 -8.192837000000001,41.994126,5000 -8.192819999999999,41.994093,5000 -8.19281,41.994059,5000 -8.192803,41.993916,5000 -8.192780000000001,41.99384,5000 -8.192648999999999,41.993632,5000 -8.192482999999999,41.993427,5000 -8.192437,41.993358,5000 -8.192421,41.993322,5000 -8.192373,41.993095,5000 -8.192379000000001,41.99307,5000 -8.192403000000001,41.993016,5000 -8.192485,41.992846,5000 -8.192501,41.992724,5000 -8.192574,41.99255,5000 -8.192593,41.992527,5000 -8.192614000000001,41.992506,5000 -8.192638000000001,41.992489,5000 -8.192878,41.992324,5000 -8.192887000000001,41.992312,5000 -8.192895,41.9923,5000 -8.192921999999999,41.992249,5000 -8.192928999999999,41.992223,5000 -8.192928999999999,41.992197,5000 -8.19285,41.99198,5000 -8.192701,41.99177,5000 -8.192591999999999,41.99155,5000 -8.192591,41.991525,5000 -8.192596999999999,41.9915,5000 -8.192724,41.991273,5000 -8.192836,41.991034,5000 -8.192821,41.990783,5000 -8.192814,41.990752,5000 -8.192733,41.990532,5000 -8.192652000000001,41.990375,5000 -8.192629999999999,41.99035,5000 -8.192603,41.990326,5000 -8.192572,41.990307,5000 -8.192536,41.990289,5000 -8.192254,41.990194,5000 -8.192144000000001,41.990167,5000 -8.192107999999999,41.990155,5000 -8.191864000000001,41.989995,5000 -8.191727999999999,41.989832,5000 -8.192413,41.98932,5000 -8.192550000000001,41.989198,5000 -8.192876999999999,41.988863,5000 -8.193047,41.988657,5000 -8.19323,41.988466,5000 -8.193415999999999,41.988278,5000 -8.193612999999999,41.988073,5000 -8.193803000000001,41.987859,5000 -8.193954,41.98766,5000 -8.194103999999999,41.987459,5000 -8.194267999999999,41.987242,5000 -8.194411000000001,41.987024,5000 -8.194552,41.986823,5000 -8.194739999999999,41.986633,5000 -8.194928000000001,41.986434,5000 -8.195145999999999,41.986235,5000 -8.195404,41.98607,5000 -8.195486000000001,41.985988,5000 -8.195669000000001,41.985795,5000 -8.19584,41.985606,5000 -8.196035,41.985408,5000 -8.196203000000001,41.985209,5000 -8.196372999999999,41.984988,5000 -8.196567,41.984785,5000 -8.196706000000001,41.984569,5000 -8.196887,41.984366,5000 -8.197089,41.984158,5000 -8.19725,41.983955,5000 -8.197350999999999,41.983726,5000 -8.197362,41.983495,5000 -8.197359000000001,41.983243,5000 -8.197317,41.98301,5000 -8.197307,41.982755,5000 -8.197336999999999,41.982504,5000 -8.197414,41.982262,5000 -8.197505,41.982021,5000 -8.197509999999999,41.981987,5000 -8.197511,41.981955,5000 -8.19755,41.981742,5000 -8.197656,41.981514,5000 -8.197666999999999,41.981485,5000 -8.197694,41.981209,5000 -8.197723999999999,41.980973,5000 -8.197747,41.980747,5000 -8.197798000000001,41.980519,5000 -8.197867,41.98029,5000 -8.197932,41.980066,5000 -8.198001,41.979834,5000 -8.198064,41.978849,5000 -8.198126999999999,41.978618,5000 -8.198211000000001,41.978377,5000 -8.198306000000001,41.978149,5000 -8.198445,41.977916,5000 -8.198598,41.977721,5000 -8.198624000000001,41.977697,5000 -8.198741999999999,41.977475,5000 -8.198847000000001,41.977262,5000 -8.198999000000001,41.977046,5000 -8.199210000000001,41.976869,5000 -8.199412000000001,41.976693,5000 -8.199584,41.976495,5000 -8.19989,41.976073,5000 -8.200058,41.975848,5000 -8.20016,41.975599,5000 -8.200222999999999,41.975349,5000 -8.200267,41.97509,5000 -8.200332,41.974867,5000 -8.200377,41.974618,5000 -8.200415,41.974385,5000 -8.200436,41.974296,5000 -8.200497,41.974046,5000 -8.200573,41.973792,5000 -8.200645,41.973563,5000 -8.200711,41.973332,5000 -8.200818999999999,41.973109,5000 -8.200958,41.972894,5000 -8.201115,41.972685,5000 -8.201313000000001,41.972475,5000 -8.201503000000001,41.972265,5000 -8.201677999999999,41.972055,5000 -8.201791,41.971822,5000 -8.201877,41.971582,5000 -8.201976999999999,41.971357,5000 -8.202102,41.971118,5000 -8.202252,41.970874,5000 -8.202394999999999,41.970636,5000 -8.20255,41.970412,5000 -8.202709,41.970201,5000 -8.202776999999999,41.970064,5000 -8.203251,41.969504,5000 -8.203678999999999,41.968838,5000 -8.203918,41.968356,5000 -8.204043,41.968142,5000 -8.204439000000001,41.967543,5000 -8.204808999999999,41.967129,5000 -8.205021,41.96697,5000 -8.205247,41.966817,5000 -8.205484,41.966652,5000 -8.205714,41.966484,5000 -8.205952999999999,41.966331,5000 -8.206206999999999,41.966162,5000 -8.206424,41.965976,5000 -8.206668000000001,41.965804,5000 -8.206897,41.965653,5000 -8.207124,41.965498,5000 -8.207373,41.965329,5000 -8.207651,41.965165,5000 -8.20791,41.965015,5000 -8.208157,41.964838,5000 -8.208379000000001,41.96466,5000 -8.210279999999999,41.963253,5000 -8.210302,41.963227,5000 -8.210334,41.963204,5000 -8.210369,41.963181,5000 -8.210400999999999,41.963161,5000 -8.210424,41.963151,5000 -8.210455,41.963141,5000 -8.210482000000001,41.963129,5000 -8.210532000000001,41.963098,5000 -8.210571,41.963077,5000 -8.21069,41.962997,5000 -8.210887,41.962835,5000 -8.210978000000001,41.96275,5000 -8.211112999999999,41.962535,5000 -8.211194000000001,41.962316,5000 -8.211323999999999,41.962102,5000 -8.211549,41.961932,5000 -8.211796,41.961789,5000 -8.212011,41.961629,5000 -8.212239,41.961465,5000 -8.212452000000001,41.961259,5000 -8.212603,41.961063,5000 -8.212794000000001,41.960834,5000 -8.212963,41.960629,5000 -8.21312,41.960407,5000 -8.213274,41.960177,5000 -8.213425000000001,41.959957,5000 -8.21359,41.959737,5000 -8.213737,41.95954,5000 -8.214102,41.959115,5000 -8.214411999999999,41.958742,5000 -8.214699,41.958427,5000 -8.214990999999999,41.958106,5000 -8.215332,41.95764,5000 -8.215553,41.957224,5000 -8.215726,41.956817,5000 -8.215858000000001,41.95636,5000 -8.2159,41.955821,5000 -8.215963,41.955525,5000 -8.216206,41.954891,5000 -8.216480000000001,41.954321,5000 -8.216614999999999,41.954023,5000 -8.216727000000001,41.953794,5000 -8.216822000000001,41.953572,5000 -8.216912000000001,41.95334,5000 -8.216995000000001,41.953107,5000 -8.217055999999999,41.952859,5000 -8.217103,41.952583,5000 -8.217134,41.952358,5000 -8.217139,41.95209,5000 -8.217141,41.951813,5000 -8.217167999999999,41.951506,5000 -8.21721,41.95125,5000 -8.217229,41.951014,5000 -8.217274,41.950775,5000 -8.217344000000001,41.950523,5000 -8.217409,41.950283,5000 -8.217437,41.950048,5000 -8.217421999999999,41.94981,5000 -8.217415000000001,41.949565,5000 -8.217402,41.949317,5000 -8.217382000000001,41.949079,5000 -8.217370000000001,41.948838,5000 -8.217357,41.948605,5000 -8.217331,41.948376,5000 -8.217288,41.948132,5000 -8.217282000000001,41.947972,5000 -8.217204000000001,41.947727,5000 -8.217196,41.946944,5000 -8.217245999999999,41.946822,5000 -8.217317,41.946726,5000 -8.217454,41.946626,5000 -8.217653,41.946427,5000 -8.217749,41.946203,5000 -8.217777,41.946106,5000 -8.217767,41.946074,5000 -8.217753999999999,41.946042,5000 -8.217746,41.946,5000 -8.217736,41.945754,5000 -8.217715999999999,41.945527,5000 -8.217722,41.945298,5000 -8.217661,41.944462,5000 -8.217586000000001,41.944229,5000 -8.217532,41.944067,5000 -8.217406,41.943854,5000 -8.217274,41.94364,5000 -8.217171,41.94341,5000 -8.217090000000001,41.94318,5000 -8.217007000000001,41.942937,5000 -8.216887,41.942686,5000 -8.21674,41.942449,5000 -8.216623,41.942204,5000 -8.216507999999999,41.941988,5000 -8.216340000000001,41.941745,5000 -8.216203,41.94154,5000 -8.216039,41.941335,5000 -8.215868,41.941119,5000 -8.215849,41.941097,5000 -8.215638999999999,41.940929,5000 -8.215429,41.940767,5000 -8.215365,41.940717,5000 -8.215218999999999,41.940493,5000 -8.215137,41.940239,5000 -8.215082000000001,41.939996,5000 -8.215088,41.939752,5000 -8.215119,41.939571,5000 -8.215233,41.939354,5000 -8.215268,41.9393,5000 -8.215289,41.939274,5000 -8.215479999999999,41.939073,5000 -8.215509000000001,41.939017,5000 -8.215522,41.938959,5000 -8.215506,41.938896,5000 -8.215387,41.938711,5000 -8.215366,41.938678,5000 -8.215164,41.938435,5000 -8.215104,41.93818,5000 -8.215020000000001,41.937933,5000 -8.214931999999999,41.937688,5000 -8.214836,41.937448,5000 -8.214722,41.937239,5000 -8.214592,41.937019,5000 -8.214475999999999,41.936803,5000 -8.214340999999999,41.936577,5000 -8.214247,41.936356,5000 -8.214207,41.936115,5000 -8.214221999999999,41.935883,5000 -8.21419,41.934759,5000 -8.214197,41.934705,5000 -8.214204000000001,41.934677,5000 -8.214214999999999,41.93465,5000 -8.214283,41.934432,5000 -8.21433,41.934241,5000 -8.214335999999999,41.934217,5000 -8.214349,41.933997,5000 -8.214340999999999,41.933826,5000 -8.214232000000001,41.933589,5000 -8.214111000000001,41.933378,5000 -8.214003999999999,41.93317,5000 -8.213927999999999,41.932992,5000 -8.213789999999999,41.932777,5000 -8.213671,41.932562,5000 -8.213536,41.932385,5000 -8.213511,41.932337,5000 -8.213504,41.932313,5000 -8.213501000000001,41.932292,5000 -8.213502999999999,41.93227,5000 -8.213509,41.932251,5000 -8.213521999999999,41.932231,5000 -8.213533999999999,41.932216,5000 -8.213519,41.932183,5000 -8.213067000000001,41.930641,5000 -8.211814,41.928185,5000 -8.211619000000001,41.927626,5000 -8.211539,41.927507,5000 -8.211378,41.927326,5000 -8.211238,41.927124,5000 -8.211119999999999,41.926908,5000 -8.211074,41.926673,5000 -8.211053,41.926503,5000 -8.210983000000001,41.926302,5000 -8.210903,41.926112,5000 -8.210792,41.925895,5000 -8.210673,41.925704,5000 -8.210554999999999,41.925518,5000 -8.210523999999999,41.92543,5000 -8.210519,41.925397,5000 -8.210526,41.925171,5000 -8.210535,41.925142,5000 -8.210547,41.925112,5000 -8.210616,41.924973,5000 -8.210621,41.924946,5000 -8.21062,41.924929,5000 -8.210599999999999,41.924717,5000 -8.210523999999999,41.924483,5000 -8.210445,41.924256,5000 -8.21031,41.924025,5000 -8.210305999999999,41.923993,5000 -8.210252000000001,41.923744,5000 -8.210169,41.923796,5000 -8.208724999999999,41.923873,5000 -8.208333,41.923934,5000 -8.207763999999999,41.924118,5000 -8.206852,41.924778,5000 -8.206625000000001,41.924911,5000 -8.206395000000001,41.925109,5000 -8.206144,41.92546,5000 -8.205639,41.925814,5000 -8.205019,41.926154,5000 -8.204382000000001,41.926996,5000 -8.203571999999999,41.928387,5000 -8.203455999999999,41.929101,5000 -8.203402000000001,41.929188,5000 -8.203065,41.929521,5000 -8.202555,41.92969,5000 -8.202406999999999,41.929856,5000 -8.202303000000001,41.930057,5000 -8.202297,41.930972,5000 -8.202583000000001,41.931608,5000 -8.20266,41.93189,5000 -8.202680000000001,41.932266,5000 -8.202584,41.932423,5000 -8.202351999999999,41.932596,5000 -8.202045999999999,41.932754,5000 -8.201843999999999,41.932922,5000 -8.20158,41.933385,5000 -8.201157,41.933986,5000 -8.199973,41.935252,5000 -8.199303,41.936171,5000 -8.198758,41.936825,5000 -8.197796,41.937564,5000 -8.197756999999999,41.937828,5000 -8.198048,41.938836,5000 -8.198095,41.939158,5000 -8.198090000000001,41.939299,5000 -8.197906,41.939554,5000 -8.197595,41.939708,5000 -8.196866,41.939916,5000 -8.196300000000001,41.940234,5000 -8.194299000000001,41.942378,5000 -8.19389,41.942682,5000 -8.193766999999999,41.942732,5000 -8.192983,41.942891,5000 -8.192373999999999,41.943138,5000 -8.19163,41.943594,5000 -8.191337000000001,41.943932,5000 -8.191039999999999,41.944445,5000 -8.190858,41.945208,5000 -8.190678999999999,41.945536,5000 -8.190469999999999,41.945749,5000 -8.189876,41.946207,5000 -8.189589,41.946476,5000 -8.189375,41.946821,5000 -8.189366,41.947206,5000 -8.189111,41.947562,5000 -8.188558,41.9478,5000 -8.187493,41.947934,5000 -8.187127,41.948018,5000 -8.186714,41.948167,5000 -8.186114999999999,41.948506,5000 -8.185816000000001,41.948714,5000 -8.185186,41.949451,5000 -8.18483,41.949807,5000 -8.184106999999999,41.95043,5000 -8.183149,41.950775,5000 -8.182302999999999,41.95115,5000 -8.181687,41.951647,5000 -8.180897,41.952017,5000 -8.180700999999999,41.952171,5000 -8.180524999999999,41.952369,5000 -8.180469,41.952612,5000 -8.180464000000001,41.953074,5000 -8.180356,41.953453,5000 -8.180152,41.953702,5000 -8.179786999999999,41.953896,5000 -8.179474000000001,41.953938,5000 -8.178421,41.953908,5000 -8.17792,41.95396,5000 -8.177652,41.95403,5000 -8.177155000000001,41.95425,5000 -8.176658,41.954403,5000 -8.176354999999999,41.954479,5000 -8.175915,41.954525,5000 -8.175547999999999,41.954618,5000 -8.175153999999999,41.954837,5000 -8.174988000000001,41.954972,5000 -8.174882,41.95516,5000 -8.174916,41.955475,5000 -8.175015,41.955706,5000 -8.1755,41.956549,5000 -8.175533,41.956802,5000 -8.17544,41.957091,5000 -8.175506,41.957237,5000 -8.175644999999999,41.957385,5000 -8.175898999999999,41.95753,5000 -8.176119999999999,41.957761,5000 -8.176287,41.958032,5000 -8.176387,41.958311,5000 -8.176392999999999,41.958653,5000 -8.176266,41.958902,5000 -8.176083999999999,41.959124,5000 -8.175497,41.95963,5000 -8.175233,41.959781,5000 -8.174799999999999,41.959945,5000 -8.174688,41.960053,5000 -8.174477,41.960474,5000 -8.174412,41.960727,5000 -8.174346999999999,41.961456,5000 -8.174282,41.961808,5000 -8.174182,41.962063,5000 -8.173666000000001,41.962442,5000 -8.173380999999999,41.962527,5000 -8.172582,41.962576,5000 -8.172190000000001,41.962681,5000 -8.171478,41.962783,5000 -8.170953000000001,41.962777,5000 -8.170351999999999,41.962727,5000 -8.170083999999999,41.962775,5000 -8.169933,41.962834,5000 -8.169528,41.963059,5000 -8.169442,41.963191,5000 -8.169339000000001,41.963612,5000 -8.169283999999999,41.964143,5000 -8.169570999999999,41.965097,5000 -8.169585,41.965374,5000 -8.169416,41.965671,5000 -8.169275000000001,41.966221,5000 -8.169167,41.96635,5000 -8.169010999999999,41.966455,5000 -8.168037999999999,41.966938,5000 -8.167909,41.967448,5000 -8.167766,41.967662,5000 -8.167598,41.967784,5000 -8.167087,41.967916,5000 -8.166905,41.968067,5000 -8.166753,41.968473,5000 -8.166663,41.968848,5000 -8.166517000000001,41.969104,5000 -8.166205,41.969584,5000 -8.165278000000001,41.970594,5000 -8.165016,41.97109,5000 -8.164790999999999,41.971792,5000 -8.164370999999999,41.972425,5000 -8.163631000000001,41.974015,5000 -8.163157,41.975186,5000 -8.162853,41.975658,5000 -8.16282,41.975768,5000 -8.162853999999999,41.975973,5000 -8.163169,41.976789,5000 -8.163175000000001,41.977159,5000 -8.163048,41.97738,5000 -8.163041,41.977574,5000 -8.163159,41.97787,5000 -8.163468,41.978268,5000 -8.163555000000001,41.978495,5000 -8.163558999999999,41.978746,5000 -8.163425,41.979515,5000 -8.163415000000001,41.979764,5000 -8.163228,41.980432,5000 -8.163178,41.980774,5000 -8.163194000000001,41.981927,5000 -8.163186,41.982138,5000 -8.163088999999999,41.982344,5000 -8.163036,41.982552,5000 -8.163038999999999,41.982712,5000 -8.162611,41.98285,5000 -8.161173,41.983311,5000 -8.160018000000001,41.983639,5000 -8.158495,41.984063,5000 -8.157856000000001,41.98424,5000 -8.157272000000001,41.984371,5000 -8.156458000000001,41.984549,5000 -8.155011999999999,41.984857,5000 -8.153587999999999,41.985187,5000 -8.143413000000001,41.98752,5000 -8.142659999999999,41.987848,5000 -8.140779999999999,41.988698,5000 -8.138863000000001,41.991408,5000 -8.13804,41.992623,5000 -8.137206000000001,41.993745,5000 -8.136274999999999,41.995054,5000 -8.133426,41.999219,5000 -8.132896000000001,41.999875,5000 -8.132051000000001,42.001088,5000 -8.131841,42.001557,5000 -8.130777999999999,42.002902,5000 -8.130369999999999,42.003591,5000 -8.127896,42.00558,5000 -8.127727999999999,42.005618,5000 -8.125080000000001,42.00646,5000 -8.124739,42.006644,5000 -8.121263000000001,42.005861,5000 -8.11505,42.004884,5000 -8.110371000000001,42.007321,5000 -8.107422,42.007958,5000 -8.099696,42.009359,5000 -8.093158000000001,42.011784,5000 -8.089181999999999,42.014154,5000 -8.086748999999999,42.015879,5000 -8.086054000000001,42.016513,5000 -8.084619999999999,42.022287,5000 -8.08447,42.022924,5000 -8.082784,42.028266,5000 -8.083513999999999,42.033099,5000 -8.083538000000001,42.033416,5000 -8.083657000000001,42.035276,5000 -8.083774,42.03704,5000 -8.083879,42.038643,5000 -8.084114,42.041086,5000 -8.084242,42.042189,5000 -8.084289999999999,42.042951,5000 -8.084491,42.045082,5000 -8.084474,42.047354,5000 -8.087218999999999,42.053562,5000 -8.088196999999999,42.057609,5000 -8.089883,42.060546,5000 -8.091258,42.062062,5000 -8.093220000000001,42.064652,5000 -8.095382000000001,42.069366,5000 -8.095470000000001,42.069842,5000 -8.096109,42.071077,5000 -8.09662,42.072279,5000 -8.098611999999999,42.073118,5000 -8.103763000000001,42.075158,5000 -8.105907,42.075943,5000 -8.113599000000001,42.079775,5000 -8.118093,42.082014,5000 -8.11872,42.082328,5000 -8.121492999999999,42.082806,5000 -8.122294,42.082167,5000 -8.123281,42.081373,5000 -8.123513000000001,42.081186,5000 -8.13799,42.075813,5000 -8.143761,42.077585,5000 -8.145687000000001,42.078204,5000 -8.147636,42.078899,5000 -8.149665000000001,42.079338,5000 -8.152433,42.078415,5000 -8.153288999999999,42.07809,5000 -8.159644999999999,42.075793,5000 -8.164762,42.072364,5000 -8.165564,42.071616,5000 -8.170400000000001,42.067329,5000 -8.171881000000001,42.066702,5000 -8.172864000000001,42.066253,5000 -8.175265,42.065465,5000 -8.175433999999999,42.065382,5000 -8.175478,42.065342,5000 -8.175561999999999,42.065327,5000 -8.175782999999999,42.065336,5000 -8.176123,42.065363,5000 -8.176486000000001,42.065531,5000 -8.176645000000001,42.065532,5000 -8.177177,42.065451,5000 -8.177401,42.065455,5000 -8.177759999999999,42.065557,5000 -8.177958,42.065558,5000 -8.178356000000001,42.065441,5000 -8.17883,42.065384,5000 -8.179207999999999,42.065498,5000 -8.180068,42.065557,5000 -8.18089,42.065427,5000 -8.181072,42.065305,5000 -8.181276,42.065226,5000 -8.181448,42.065173,5000 -8.181488,42.065161,5000 -8.181756,42.065093,5000 -8.182067,42.065044,5000 -8.182191,42.06513,5000 -8.182432,42.065453,5000 -8.182437,42.06562,5000 -8.182509,42.065819,5000 -8.182784,42.066075,5000 -8.182948,42.066706,5000 -8.18305,42.066813,5000 -8.183408,42.066973,5000 -8.183723000000001,42.067348,5000 -8.183831,42.067585,5000 -8.18379,42.067809,5000 -8.183819,42.067888,5000 -8.184319,42.068166,5000 -8.184384,42.068283,5000 -8.184398,42.068397,5000 -8.184293,42.068648,5000 -8.183989,42.068953,5000 -8.18399,42.069105,5000 -8.184082999999999,42.069259,5000 -8.184355,42.069497,5000 -8.184532000000001,42.069584,5000 -8.184639000000001,42.06963,5000 -8.184854,42.069647,5000 -8.184977,42.069732,5000 -8.184990000000001,42.06982,5000 -8.184820999999999,42.070002,5000 -8.184837,42.070258,5000 -8.185119,42.070645,5000 -8.185257999999999,42.071136,5000 -8.18543,42.071491,5000 -8.185634,42.071724,5000 -8.186170000000001,42.072606,5000 -8.186453,42.072866,5000 -8.187294,42.073134,5000 -8.187666999999999,42.073383,5000 -8.188000000000001,42.073723,5000 -8.188108,42.073885,5000 -8.188131,42.074019,5000 -8.188101,42.07422,5000 -8.187981000000001,42.074431,5000 -8.187837,42.074552,5000 -8.187059,42.075032,5000 -8.186218999999999,42.075784,5000 -8.185883,42.075932,5000 -8.185625999999999,42.076109,5000 -8.185459,42.076247,5000 -8.185426,42.07641,5000 -8.185475,42.077511,5000 -8.185612000000001,42.077753,5000 -8.185765,42.077905,5000 -8.185961000000001,42.07822,5000 -8.186289,42.079225,5000 -8.186451999999999,42.079931,5000 -8.186427,42.080614,5000 -8.186351999999999,42.081102,5000 -8.186404,42.081194,5000 -8.186546999999999,42.08132,5000 -8.186541999999999,42.081433,5000 -8.186191000000001,42.081838,5000 -8.185485,42.082326,5000 -8.18525,42.082598,5000 -8.18502,42.083077,5000 -8.184941999999999,42.083355,5000 -8.184962000000001,42.083773,5000 -8.18515,42.084135,5000 -8.185301000000001,42.084629,5000 -8.185839,42.08512,5000 -8.185852000000001,42.085564,5000 -8.185938,42.085786,5000 -8.186183,42.086062,5000 -8.186241000000001,42.086637,5000 -8.186344,42.086963,5000 -8.186757999999999,42.087309,5000 -8.186813000000001,42.087469,5000 -8.186726,42.08774,5000 -8.186484,42.088203,5000 -8.186431000000001,42.088372,5000 -8.186450000000001,42.088566,5000 -8.186553999999999,42.088829,5000 -8.18655,42.089173,5000 -8.186468,42.089534,5000 -8.186361,42.08971,5000 -8.186286000000001,42.089983,5000 -8.186349999999999,42.090171,5000 -8.186674999999999,42.090711,5000 -8.186738,42.090865,5000 -8.186852,42.091146,5000 -8.18746,42.091478,5000 -8.187872,42.092162,5000 -8.187938000000001,42.092407,5000 -8.187842,42.092593,5000 -8.187772000000001,42.092685,5000 -8.187749999999999,42.092793,5000 -8.187684000000001,42.093367,5000 -8.187602999999999,42.093668,5000 -8.187454000000001,42.093885,5000 -8.187174000000001,42.094181,5000 -8.187109,42.094458,5000 -8.187193000000001,42.095004,5000 -8.187143000000001,42.095166,5000 -8.186959999999999,42.095421,5000 -8.186902,42.095675,5000 -8.186923999999999,42.095982,5000 -8.186893,42.096293,5000 -8.186667,42.096632,5000 -8.186197,42.096942,5000 -8.186057,42.097106,5000 -8.186017,42.097207,5000 -8.186116999999999,42.097681,5000 -8.186068000000001,42.097861,5000 -8.185892000000001,42.098097,5000 -8.185905999999999,42.098239,5000 -8.186273,42.098642,5000 -8.186745999999999,42.099365,5000 -8.186738,42.099803,5000 -8.186877000000001,42.100066,5000 -8.186852999999999,42.10029,5000 -8.186717,42.100541,5000 -8.186698,42.100675,5000 -8.186724999999999,42.100902,5000 -8.187015000000001,42.101872,5000 -8.186968999999999,42.102332,5000 -8.187123,42.102709,5000 -8.187825,42.103292,5000 -8.187984,42.103568,5000 -8.188027,42.103835,5000 -8.187995000000001,42.104074,5000 -8.18778,42.104473,5000 -8.187735999999999,42.104628,5000 -8.187747,42.104753,5000 -8.187972,42.105155,5000 -8.18797,42.105879,5000 -8.18821,42.106164,5000 -8.188268000000001,42.106309,5000 -8.188181999999999,42.106608,5000 -8.188034,42.106901,5000 -8.188036,42.107053,5000 -8.188617000000001,42.107792,5000 -8.188669000000001,42.107964,5000 -8.188656999999999,42.108548,5000 -8.188537999999999,42.109057,5000 -8.188585,42.109352,5000 -8.188756,42.109782,5000 -8.18866,42.110165,5000 -8.188803999999999,42.111232,5000 -8.188897000000001,42.111415,5000 -8.189114999999999,42.111605,5000 -8.189945,42.112198,5000 -8.19017,42.112418,5000 -8.190446,42.113026,5000 -8.190417999999999,42.113361,5000 -8.190447000000001,42.11343,5000 -8.190735999999999,42.113647,5000 -8.191269999999999,42.113926,5000 -8.191819000000001,42.114351,5000 -8.191891999999999,42.114525,5000 -8.191837,42.114788,5000 -8.191523999999999,42.11528,5000 -8.191572000000001,42.115357,5000 -8.191965,42.11552,5000 -8.192052,42.115591,5000 -8.192099000000001,42.115686,5000 -8.192083,42.116187,5000 -8.192016000000001,42.116393,5000 -8.191575,42.116828,5000 -8.191413000000001,42.117744,5000 -8.191431,42.117946,5000 -8.191388,42.118006,5000 -8.191179,42.118133,5000 -8.191141999999999,42.118204,5000 -8.191167,42.118276,5000 -8.191501000000001,42.118694,5000 -8.192135,42.119797,5000 -8.192481000000001,42.120141,5000 -8.192542,42.121205,5000 -8.192672999999999,42.121546,5000 -8.192686999999999,42.121683,5000 -8.192678000000001,42.12211,5000 -8.192762,42.122464,5000 -8.192750999999999,42.123002,5000 -8.192852999999999,42.123721,5000 -8.192871,42.124217,5000 -8.192945,42.124434,5000 -8.19299,42.124927,5000 -8.193158,42.125408,5000 -8.193166,42.125913,5000 -8.193314000000001,42.126196,5000 -8.193298,42.127208,5000 -8.193232999999999,42.127712,5000 -8.193251,42.128184,5000 -8.193368,42.128685,5000 -8.193528000000001,42.129154,5000 -8.193462999999999,42.129459,5000 -8.193139,42.130156,5000 -8.192971,42.130344,5000 -8.192676000000001,42.13059,5000 -8.191929999999999,42.130869,5000 -8.191666,42.131034,5000 -8.191426,42.131235,5000 -8.191141,42.13169,5000 -8.190913,42.131878,5000 -8.190422,42.13216,5000 -8.190064,42.132601,5000 -8.189579,42.132992,5000 -8.18881,42.133539,5000 -8.188617000000001,42.133718,5000 -8.188563,42.133895,5000 -8.18872,42.134373,5000 -8.188866000000001,42.13459,5000 -8.189121999999999,42.134742,5000 -8.189432,42.134869,5000 -8.18961,42.135095,5000 -8.189629,42.135208,5000 -8.189558,42.135377,5000 -8.189473,42.135446,5000 -8.189047,42.13565,5000 -8.187950000000001,42.136651,5000 -8.187613000000001,42.137112,5000 -8.187688,42.137486,5000 -8.188059000000001,42.137937,5000 -8.188248,42.138103,5000 -8.188554999999999,42.138282,5000 -8.188889,42.13832,5000 -8.189156000000001,42.138431,5000 -8.189512000000001,42.138657,5000 -8.189904,42.138708,5000 -8.190343,42.138838,5000 -8.190412999999999,42.138892,5000 -8.190433000000001,42.139006,5000 -8.190212000000001,42.139518,5000 -8.190206999999999,42.139626,5000 -8.190295000000001,42.139761,5000 -8.190834000000001,42.140126,5000 -8.190868,42.140185,5000 -8.190046000000001,42.140911,5000 -8.189612,42.141526,5000 -8.189159999999999,42.141938,5000 -8.188828000000001,42.142368,5000 -8.188559,42.142806,5000 -8.188034,42.143439,5000 -8.188025,42.143572,5000 -8.188122999999999,42.143678,5000 -8.188522000000001,42.143835,5000 -8.188814000000001,42.143858,5000 -8.18932,42.14382,5000 -8.189596,42.143716,5000 -8.190205000000001,42.142965,5000 -8.190587000000001,42.142739,5000 -8.190825,42.142652,5000 -8.191011,42.142628,5000 -8.191247000000001,42.142648,5000 -8.191485,42.142729,5000 -8.191541000000001,42.142777,5000 -8.191535999999999,42.142888,5000 -8.191352,42.143105,5000 -8.191222,42.143331,5000 -8.191265,42.143598,5000 -8.192384000000001,42.145167,5000 -8.192624,42.145371,5000 -8.192959,42.145564,5000 -8.193163999999999,42.145823,5000 -8.193235,42.146159,5000 -8.193242,42.146709,5000 -8.193381,42.14693,5000 -8.193624,42.147086,5000 -8.193965,42.147198,5000 -8.194564,42.147342,5000 -8.194689,42.147404,5000 -8.195123000000001,42.147752,5000 -8.195408,42.148222,5000 -8.195594,42.149274,5000 -8.195544,42.149541,5000 -8.195351,42.150029,5000 -8.195418,42.150932,5000 -8.195614000000001,42.151211,5000 -8.195811000000001,42.151398,5000 -8.196306,42.15176,5000 -8.196361,42.15184,5000 -8.196399,42.15198,5000 -8.196324000000001,42.152257,5000 -8.196306999999999,42.152508,5000 -8.196401,42.152746,5000 -8.19702,42.153184,5000 -8.197442000000001,42.153711,5000 -8.197777,42.153902,5000 -8.198288,42.154113,5000 -8.198774,42.154333,5000 -8.199695,42.154126,5000 -8.200587000000001,42.153704,5000 -8.201141,42.153239,5000 -8.201423999999999,42.152947,5000 -8.201471,42.152338,5000 -8.200761999999999,42.150969,5000 -8.200601000000001,42.15015,5000 -8.200308,42.149164,5000 -8.200360999999999,42.14885,5000 -8.201624000000001,42.147044,5000 -8.202012,42.146642,5000 -8.202445000000001,42.1463,5000 -8.203665000000001,42.144782,5000 -8.203799,42.144624,5000 -8.204827999999999,42.143405,5000 -8.204891,42.14333,5000 -8.205536,42.142738,5000 -8.205787000000001,42.142103,5000 -8.206635,42.141039,5000 -8.207653000000001,42.140515,5000 -8.208643,42.140163,5000 -8.209555,42.139917,5000 -8.210278000000001,42.139823,5000 -8.211634,42.139963,5000 -8.212448,42.139845,5000 -8.213630999999999,42.139705,5000 -8.216663,42.138999,5000 -8.217909000000001,42.138662,5000 -8.218686999999999,42.138095,5000 -8.220019000000001,42.136318,5000 -8.220603000000001,42.135724,5000 -8.221944000000001,42.134094,5000 -8.223889,42.133344,5000 -8.224985,42.133036,5000 -8.225739000000001,42.132889,5000 -8.228759,42.132859,5000 -8.229606,42.132826,5000 -8.230034,42.132809,5000 -8.230828000000001,42.132928,5000 -8.233428999999999,42.133811,5000 -8.234223,42.134417,5000 -8.235389,42.135466,5000 -8.236404,42.136128,5000 -8.237663,42.136747,5000 -8.238135,42.137401,5000 -8.238382,42.138128,5000 -8.239091999999999,42.138571,5000 -8.24015,42.139117,5000 -8.240568,42.139232,5000 -8.241016,42.139276,5000 -8.243461,42.139712,5000 -8.243911000000001,42.139792,5000 -8.244998000000001,42.139906,5000 -8.245540999999999,42.139796,5000 -8.246275000000001,42.139446,5000 -8.247947,42.138509,5000 -8.249046,42.138251,5000 -8.250781,42.137785,5000 -8.251397000000001,42.137549,5000 -8.252248,42.137051,5000 -8.252967,42.136788,5000 -8.253655999999999,42.136706,5000 -8.254829000000001,42.135261,5000 -8.255534000000001,42.135063,5000 -8.256121,42.134663,5000 -8.256361999999999,42.134018,5000 -8.256785000000001,42.132509,5000 -8.256696,42.13187,5000 -8.256487999999999,42.131122,5000 -8.256223,42.130799,5000 -8.255834999999999,42.129802,5000 -8.255729000000001,42.129532,5000 -8.255758,42.128151,5000 -8.255615000000001,42.127273,5000 -8.255731000000001,42.126749,5000 -8.255910999999999,42.126044,5000 -8.256356,42.125191,5000 -8.25675,42.124207,5000 -8.257412,42.123124,5000 -8.257539,42.122964,5000 -8.257859,42.122561,5000 -8.258308,42.121946,5000 -8.258654,42.121665,5000 -8.25914,42.121348,5000 -8.260035999999999,42.121031,5000 -8.261592,42.120924,5000 -8.263085,42.120899,5000 -8.264453,42.121248,5000 -8.265718,42.121632,5000 -8.265986,42.121901,5000 -8.266868000000001,42.1226,5000 -8.267556000000001,42.123068,5000 -8.267987,42.1233,5000 -8.268461,42.123411,5000 -8.268999000000001,42.123477,5000 -8.269689,42.123356,5000 -8.271559,42.123926,5000 -8.272091,42.124194,5000 -8.272466,42.124232,5000 -8.272929,42.124237,5000 -8.273676999999999,42.124094,5000 -8.274248999999999,42.123733,5000 -8.27463,42.123268,5000 -8.275408000000001,42.122776,5000 -8.277683,42.12174,5000 -8.279128999999999,42.120833,5000 -8.2807,42.119352,5000 -8.280951,42.119209,5000 -8.282636999999999,42.118254,5000 -8.284076000000001,42.117505,5000 -8.285546,42.116739,5000 -8.286477,42.116114,5000 -8.287231999999999,42.115687,5000 -8.288062999999999,42.11512,5000 -8.289147,42.11449,5000 -8.289555,42.114022,5000 -8.289783,42.113092,5000 -8.290338999999999,42.112281,5000 -8.290345,42.112273,5000 -8.290739,42.111894,5000 -8.291359999999999,42.111545,5000 -8.292540000000001,42.110968,5000 -8.293338,42.110919,5000 -8.293926000000001,42.111253,5000 -8.294567000000001,42.111289,5000 -8.294914,42.111143,5000 -8.295059999999999,42.110895,5000 -8.295026999999999,42.110482,5000 -8.295045999999999,42.109937,5000 -8.295325,42.10912,5000 -8.29555,42.108628,5000 -8.295731,42.108429,5000 -8.295938,42.108229,5000 -8.296308,42.107847,5000 -8.296974000000001,42.107405,5000 -8.297568,42.10724,5000 -8.299647,42.105914,5000 -8.30062,42.105596,5000 -8.301226,42.105183,5000 -8.301247,42.105173,5000 -8.301831999999999,42.104896,5000 -8.302860000000001,42.104503,5000 -8.303386,42.10417,5000 -8.303922999999999,42.1039,5000 -8.304608,42.103746,5000 -8.305007,42.103732,5000 -8.305664999999999,42.103901,5000 -8.306305999999999,42.103856,5000 -8.307699,42.103588,5000 -8.309208,42.103497,5000 -8.311007,42.103166,5000 -8.311728,42.103093,5000 -8.312778,42.103078,5000 -8.313071000000001,42.102986,5000 -8.313447999999999,42.102982,5000 -8.313817999999999,42.103044,5000 -8.314505,42.103283,5000 -8.315009999999999,42.103551,5000 -8.315658000000001,42.104257,5000 -8.316094,42.104523,5000 -8.316535,42.104704,5000 -8.316795000000001,42.104682,5000 -8.317137000000001,42.104526,5000 -8.317441000000001,42.104278,5000 -8.317841,42.103846,5000 -8.318156,42.103441,5000 -8.31861,42.103071,5000 -8.319186999999999,42.102335,5000 -8.319402999999999,42.102149,5000 -8.319698000000001,42.102049,5000 -8.320598,42.102102,5000 -8.321111999999999,42.101927,5000 -8.32141,42.101871,5000 -8.321991000000001,42.101842,5000 -8.32239,42.101741,5000 -8.322900000000001,42.101431,5000 -8.323466,42.100733,5000 -8.323708,42.1003,5000 -8.323791,42.099982,5000 -8.323817999999999,42.099526,5000 -8.324044000000001,42.098556,5000 -8.324249,42.098216,5000 -8.324507000000001,42.09791,5000 -8.324833,42.096999,5000 -8.324892,42.096654,5000 -8.324811,42.095886,5000 -8.324826,42.09561,5000 -8.324847999999999,42.095184,5000 
						</coordinates>
					</LinearRing>
				</outerBoundaryIs>
			</Polygon>
		</MultiGeometry>
		<atom:link rel="app" href="https://www.google.com/earth/about/versions/#earth-pro" title="Google Earth Pro 7.3.7.1155"></atom:link>
	</Placemark>
</Document>
</kml>
