<?xml version="1.0" encoding="UTF-8"?>
<kml xmlns="http://www.opengis.net/kml/2.2" xmlns:gx="http://www.google.com/kml/ext/2.2" xmlns:kml="http://www.opengis.net/kml/2.2" xmlns:atom="http://www.w3.org/2005/Atom">
<Document>
	<name>Monção.kml</name>
	<Style id="PolyStyle000001">
		<LabelStyle>
			<color>ff000000</color>
			<scale>1.2</scale>
		</LabelStyle>
		<LineStyle>
			<color>ff0000ff</color>
			<width>2</width>
		</LineStyle>
		<PolyStyle>
			<color>4dffffff</color>
		</PolyStyle>
	</Style>
	<Style id="PolyStyle00005">
		<LabelStyle>
			<color>ff000000</color>
			<scale>1.2</scale>
		</LabelStyle>
		<LineStyle>
			<color>ff0000ff</color>
			<width>2</width>
		</LineStyle>
		<PolyStyle>
			<color>4dffffff</color>
		</PolyStyle>
	</Style>
	<StyleMap id="PolyStyle00183">
		<Pair>
			<key>normal</key>
			<styleUrl>#PolyStyle00005</styleUrl>
		</Pair>
		<Pair>
			<key>highlight</key>
			<styleUrl>#PolyStyle000001</styleUrl>
		</Pair>
	</StyleMap>
	<Placemark>
		<name>Monção</name>
		<visibility>0</visibility>
		<Snippet maxLines="0"></Snippet>
		<styleUrl>#PolyStyle00183</styleUrl>
		<MultiGeometry>
			<extrude>1</extrude>
			<Polygon>
				<extrude>1</extrude>
				<tessellate>1</tessellate>
				<outerBoundaryIs>
					<LinearRing>
						<coordinates>
							-8.381027,42.076996,5000 -8.381537,42.076493,5000 -8.381665,42.076367,5000 -8.381959,42.076343,5000 -8.382483000000001,42.076651,5000 -8.383711999999999,42.077055,5000 -8.384207999999999,42.077035,5000 -8.385057,42.076745,5000 -8.385889000000001,42.076368,5000 -8.3872,42.076028,5000 -8.387988999999999,42.075767,5000 -8.388529999999999,42.075588,5000 -8.390169,42.075106,5000 -8.390687,42.075185,5000 -8.390883000000001,42.075402,5000 -8.391052999999999,42.076082,5000 -8.391311,42.076639,5000 -8.391707,42.077294,5000 -8.391994,42.077634,5000 -8.392206,42.078058,5000 -8.392352000000001,42.078351,5000 -8.392454000000001,42.078638,5000 -8.392595,42.079265,5000 -8.392742999999999,42.079642,5000 -8.393007000000001,42.080007,5000 -8.393632,42.080198,5000 -8.396167,42.080281,5000 -8.396609,42.080357,5000 -8.398894,42.080499,5000 -8.399943,42.080422,5000 -8.401572,42.080401,5000 -8.402376,42.080496,5000 -8.402665000000001,42.080419,5000 -8.403148,42.080495,5000 -8.403771000000001,42.080401,5000 -8.404862,42.080456,5000 -8.405132,42.080416,5000 -8.405690999999999,42.080202,5000 -8.406496000000001,42.079681,5000 -8.406757000000001,42.079461,5000 -8.4069,42.079308,5000 -8.407484,42.078682,5000 -8.408026,42.07834,5000 -8.408480000000001,42.078124,5000 -8.409101,42.07794,5000 -8.409763999999999,42.077825,5000 -8.410447,42.077494,5000 -8.410735000000001,42.077292,5000 -8.411325,42.077283,5000 -8.412585,42.077014,5000 -8.413226,42.076817,5000 -8.414823999999999,42.07607,5000 -8.415354000000001,42.075724,5000 -8.416021000000001,42.075161,5000 -8.41624,42.075018,5000 -8.417094000000001,42.074597,5000 -8.417958,42.074243,5000 -8.418252000000001,42.074089,5000 -8.418592,42.07385,5000 -8.419039,42.073422,5000 -8.419489,42.073135,5000 -8.420266,42.073099,5000 -8.420635000000001,42.073108,5000 -8.42155,42.072859,5000 -8.421899,42.072763,5000 -8.422546000000001,42.072643,5000 -8.423847,42.072556,5000 -8.424594000000001,42.072645,5000 -8.425312,42.072474,5000 -8.426019,42.072547,5000 -8.426769,42.072671,5000 -8.427289999999999,42.072826,5000 -8.427716999999999,42.072825,5000 -8.428283,42.07246,5000 -8.428965,42.072308,5000 -8.429717999999999,42.07238,5000 -8.431196,42.072874,5000 -8.431684000000001,42.073209,5000 -8.432122,42.073684,5000 -8.432432,42.07416,5000 -8.432487999999999,42.074337,5000 -8.432857,42.075498,5000 -8.433377999999999,42.076506,5000 -8.433769,42.076986,5000 -8.434219000000001,42.077438,5000 -8.434799999999999,42.077833,5000 -8.435703,42.078026,5000 -8.436310000000001,42.078278,5000 -8.437047,42.078733,5000 -8.437531999999999,42.079147,5000 -8.438162999999999,42.07998,5000 -8.439802999999999,42.081431,5000 -8.440637000000001,42.081785,5000 -8.440735,42.081827,5000 -8.441753,42.082138,5000 -8.442434,42.082297,5000 -8.443038,42.082403,5000 -8.444508000000001,42.082418,5000 -8.445486000000001,42.082363,5000 -8.446396,42.082357,5000 -8.449560999999999,42.08268,5000 -8.44989,42.082686,5000 -8.451205,42.082708,5000 -8.451836,42.082657,5000 -8.452622,42.082505,5000 -8.453423000000001,42.082215,5000 -8.454024,42.08205,5000 -8.456028999999999,42.081859,5000 -8.457525,42.08181,5000 -8.458335,42.08165,5000 -8.458723000000001,42.081574,5000 -8.460324,42.081356,5000 -8.461093,42.081335,5000 -8.462721999999999,42.081218,5000 -8.463303,42.081216,5000 -8.464961000000001,42.081254,5000 -8.467103,42.081331,5000 -8.468612,42.081421,5000 -8.469554,42.081324,5000 -8.470853,42.081344,5000 -8.470860999999999,42.081344,5000 -8.472272999999999,42.081406,5000 -8.472864,42.081364,5000 -8.473107000000001,42.081312,5000 -8.473625,42.081095,5000 -8.474030000000001,42.081026,5000 -8.475458,42.080902,5000 -8.476663,42.080704,5000 -8.478284,42.080665,5000 -8.478871,42.080679,5000 -8.479784,42.080699,5000 -8.480644,42.080794,5000 -8.481604000000001,42.080983,5000 -8.482691000000001,42.081387,5000 -8.483468,42.081571,5000 -8.484356999999999,42.081825,5000 -8.485486999999999,42.081922,5000 -8.48611,42.081928,5000 -8.486810999999999,42.081843,5000 -8.488148000000001,42.081465,5000 -8.489822999999999,42.081196,5000 -8.491612999999999,42.08081,5000 -8.494795999999999,42.079766,5000 -8.496248,42.079201,5000 -8.496874,42.078898,5000 -8.497771,42.078607,5000 -8.499446000000001,42.078228,5000 -8.501529,42.077859,5000 -8.502865999999999,42.077725,5000 -8.503698999999999,42.077685,5000 -8.505331,42.077791,5000 -8.507718000000001,42.077827,5000 -8.508107000000001,42.077833,5000 -8.510502000000001,42.077984,5000 -8.511137,42.07806,5000 -8.512402,42.078388,5000 -8.514250000000001,42.078943,5000 -8.516009,42.079325,5000 -8.516629999999999,42.07942,5000 -8.518077,42.079577,5000 -8.519838,42.07957,5000 -8.521160999999999,42.079356,5000 -8.521976,42.079017,5000 -8.522678000000001,42.078637,5000 -8.523802999999999,42.078192,5000 -8.52487,42.077727,5000 -8.525714000000001,42.077388,5000 -8.526444,42.077071,5000 -8.526977,42.076607,5000 -8.527367999999999,42.076123,5000 -8.528195,42.074707,5000 -8.528347999999999,42.074262,5000 -8.528422000000001,42.073582,5000 -8.528312,42.07267,5000 -8.527918,42.072186,5000 -8.52755,42.071643,5000 -8.527025,42.071044,5000 -8.526683,42.070482,5000 -8.526268,42.069398,5000 -8.526172000000001,42.06794,5000 -8.526282,42.06735,5000 -8.525898,42.066221,5000 -8.525468999999999,42.065215,5000 -8.52538,42.064438,5000 -8.525432,42.063745,5000 -8.525565,42.063525,5000 -8.52585,42.063051,5000 -8.52641,42.062483,5000 -8.527222,42.061724,5000 -8.5291,42.060632,5000 -8.530195000000001,42.060192,5000 -8.534330000000001,42.058866,5000 -8.537056,42.057744,5000 -8.539486,42.056958,5000 -8.541639,42.056054,5000 -8.542871,42.055414,5000 -8.544444,42.054758,5000 -8.546074000000001,42.054206,5000 -8.546861,42.054015,5000 -8.546465,42.052285,5000 -8.545432999999999,42.05032,5000 -8.544824,42.048456,5000 -8.544408000000001,42.046677,5000 -8.544245999999999,42.045463,5000 -8.544033000000001,42.043874,5000 -8.544297,42.043289,5000 -8.544886,42.041983,5000 -8.543499000000001,42.039829,5000 -8.542026,42.037167,5000 -8.541653999999999,42.036527,5000 -8.540896,42.035682,5000 -8.53984,42.034913,5000 -8.538622,42.034212,5000 -8.537197000000001,42.033382,5000 -8.534230000000001,42.030356,5000 -8.532830000000001,42.030422,5000 -8.532708,42.030328,5000 -8.531750000000001,42.02934,5000 -8.53051,42.027003,5000 -8.530056999999999,42.025545,5000 -8.529646,42.023909,5000 -8.52933,42.022651,5000 -8.529247,42.021375,5000 -8.529947999999999,42.019988,5000 -8.530103,42.019724,5000 -8.530271000000001,42.01905,5000 -8.530428000000001,42.018236,5000 -8.530306,42.017286,5000 -8.530071,42.016681,5000 -8.529855,42.01604,5000 -8.529667,42.01554,5000 -8.529456,42.015195,5000 -8.529385,42.014996,5000 -8.529311,42.014244,5000 -8.529309,42.013855,5000 -8.529424000000001,42.013204,5000 -8.529513,42.012668,5000 -8.529718000000001,42.012045,5000 -8.531064000000001,42.008699,5000 -8.531753,42.007753,5000 -8.532354,42.005721,5000 -8.532665,42.00389,5000 -8.533234,42.002648,5000 -8.53375,42.001698,5000 -8.533782,42.000499,5000 -8.534043,41.99833,5000 -8.534300999999999,41.997145,5000 -8.534312,41.994381,5000 -8.534324,41.994331,5000 -8.534553000000001,41.992602,5000 -8.535106000000001,41.9905,5000 -8.53528,41.989216,5000 -8.535285999999999,41.98917,5000 -8.535498,41.987603,5000 -8.535857,41.98509,5000 -8.535615999999999,41.981685,5000 -8.535643,41.981538,5000 -8.535868000000001,41.976904,5000 -8.536142999999999,41.974171,5000 -8.534772999999999,41.974325,5000 -8.52957,41.972651,5000 -8.519228999999999,41.969318,5000 -8.517117000000001,41.97001,5000 -8.51638,41.971132,5000 -8.511514,41.970912,5000 -8.509976999999999,41.970446,5000 -8.503318999999999,41.968678,5000 -8.502497999999999,41.968387,5000 -8.498664,41.966266,5000 -8.494476000000001,41.966077,5000 -8.492149,41.966137,5000 -8.491132,41.966104,5000 -8.490425999999999,41.966126,5000 -8.490237,41.966132,5000 -8.489305999999999,41.966107,5000 -8.488441999999999,41.965982,5000 -8.487558,41.965884,5000 -8.486741,41.965797,5000 -8.486003,41.965783,5000 -8.485315999999999,41.965787,5000 -8.484617999999999,41.965889,5000 -8.483919,41.966149,5000 -8.483281,41.966391,5000 -8.482563000000001,41.966808,5000 -8.481878,41.967158,5000 -8.481348000000001,41.96745,5000 -8.480827,41.967755,5000 -8.480297999999999,41.968125,5000 -8.479827999999999,41.968453,5000 -8.479290000000001,41.968819,5000 -8.478773,41.969163,5000 -8.478471000000001,41.969351,5000 -8.478452000000001,41.96937,5000 -8.478415,41.9694,5000 -8.478156999999999,41.969557,5000 -8.478002999999999,41.969664,5000 -8.477907,41.969765,5000 -8.477772,41.970001,5000 -8.477676000000001,41.970218,5000 -8.477544,41.970463,5000 -8.47738,41.970659,5000 -8.477164999999999,41.970823,5000 -8.476913,41.970994,5000 -8.476672000000001,41.97114,5000 -8.476402999999999,41.971276,5000 -8.476127,41.971438,5000 -8.475885999999999,41.971593,5000 -8.475604000000001,41.971744,5000 -8.475326000000001,41.971889,5000 -8.475078,41.972055,5000 -8.474629999999999,41.972399,5000 -8.473983,41.972788,5000 -8.473383999999999,41.973037,5000 -8.472652999999999,41.973279,5000 -8.472147,41.973411,5000 -8.471147,41.973184,5000 -8.469706,41.972736,5000 -8.468144000000001,41.972297,5000 -8.466946,41.972023,5000 -8.465686,41.971749,5000 -8.464798999999999,41.971587,5000 -8.463831000000001,41.971351,5000 -8.463168,41.971216,5000 -8.462888,41.971159,5000 -8.461893999999999,41.971057,5000 -8.454280000000001,41.973598,5000 -8.451784,41.973114,5000 -8.449127000000001,41.972597,5000 -8.440303999999999,41.97366,5000 -8.438670999999999,41.973737,5000 -8.438139,41.975299,5000 -8.437754,41.976139,5000 -8.437578999999999,41.976415,5000 -8.437279999999999,41.976591,5000 -8.436983,41.976659,5000 -8.436572999999999,41.976676,5000 -8.436199999999999,41.976667,5000 -8.43576,41.976607,5000 -8.435321999999999,41.976537,5000 -8.434943000000001,41.976418,5000 -8.434627000000001,41.976296,5000 -8.434195000000001,41.976155,5000 -8.434011,41.976124,5000 -8.433961999999999,41.976101,5000 -8.433890999999999,41.976082,5000 -8.433819,41.976069,5000 -8.433669,41.976059,5000 -8.433598,41.976062,5000 -8.433532,41.976074,5000 -8.433469000000001,41.976091,5000 -8.433344999999999,41.97614,5000 -8.433064,41.976307,5000 -8.432848,41.976485,5000 -8.432682,41.976674,5000 -8.432499,41.976875,5000 -8.432274,41.977045,5000 -8.432003,41.97717,5000 -8.431953,41.977187,5000 -8.431679000000001,41.97731,5000 -8.431441,41.97746,5000 -8.431381999999999,41.977488,5000 -8.431253999999999,41.977535,5000 -8.430937,41.977628,5000 -8.430612999999999,41.977652,5000 -8.430289999999999,41.97764,5000 -8.429989000000001,41.977619,5000 -8.429656,41.97764,5000 -8.429349,41.977643,5000 -8.429292,41.977635,5000 -8.429176,41.97761,5000 -8.428877999999999,41.977515,5000 -8.428604999999999,41.977393,5000 -8.428454,41.977341,5000 -8.428110999999999,41.977268,5000 -8.427790999999999,41.977199,5000 -8.427491,41.977108,5000 -8.427292,41.977099,5000 -8.426978999999999,41.977065,5000 -8.426645000000001,41.977081,5000 -8.426310000000001,41.97708,5000 -8.425928000000001,41.977068,5000 -8.425613,41.977017,5000 -8.425319,41.976936,5000 -8.425185000000001,41.976894,5000 -8.424276000000001,41.977055,5000 -8.424177,41.977073,5000 -8.423844000000001,41.977078,5000 -8.423515999999999,41.977076,5000 -8.42319,41.977071,5000 -8.422857,41.977044,5000 -8.422541000000001,41.977002,5000 -8.422385999999999,41.976989,5000 -8.422226,41.97695,5000 -8.421906,41.976917,5000 -8.421567,41.976877,5000 -8.421243,41.97682,5000 -8.42098,41.976705,5000 -8.420767,41.976589,5000 -8.420436,41.976498,5000 -8.420139000000001,41.976507,5000 -8.41982,41.976529,5000 -8.419682999999999,41.976527,5000 -8.419649,41.976525,5000 -8.419615,41.97652,5000 -8.419404999999999,41.976454,5000 -8.419376,41.976439,5000 -8.41935,41.976421,5000 -8.419328,41.976399,5000 -8.419311,41.976376,5000 -8.419292,41.976331,5000 -8.419276,41.976409,5000 -8.419222,41.976458,5000 -8.419131999999999,41.976482,5000 -8.418960999999999,41.976498,5000 -8.418792,41.97653,5000 -8.418642,41.976558,5000 -8.418068,41.976617,5000 -8.417835999999999,41.976602,5000 -8.417524999999999,41.976571,5000 -8.417095,41.976561,5000 -8.416679,41.976578,5000 -8.416247,41.976617,5000 -8.415998,41.976616,5000 -8.415997000000001,41.976636,5000 -8.414406,41.976604,5000 -8.413232000000001,41.976506,5000 -8.412148,41.976457,5000 -8.411265999999999,41.976437,5000 -8.410482999999999,41.976436,5000 -8.41039,41.976436,5000 -8.408795,41.976426,5000 -8.406095000000001,41.976424,5000 -8.405339,41.976408,5000 -8.404574999999999,41.976344,5000 -8.403464,41.976202,5000 -8.403332000000001,41.97618,5000 -8.403129,41.976098,5000 -8.402779000000001,41.976043,5000 -8.402481999999999,41.975998,5000 -8.402149,41.975926,5000 -8.401842,41.975828,5000 -8.401536999999999,41.975711,5000 -8.401498,41.975694,5000 -8.401479999999999,41.975702,5000 -8.394496,41.978438,5000 -8.387912,41.97772,5000 -8.387622,41.977761,5000 -8.383485,41.978352,5000 -8.379205000000001,41.980792,5000 -8.377193999999999,41.98115,5000 -8.376234,41.981538,5000 -8.376150000000001,41.981533,5000 -8.374909000000001,41.981473,5000 -8.374076000000001,41.981428,5000 -8.373802,41.981403,5000 -8.373419,41.9813,5000 -8.373111,41.981168,5000 -8.372706000000001,41.981059,5000 -8.372282999999999,41.980955,5000 -8.371981,41.980808,5000 -8.371387,41.980676,5000 -8.370943,41.980687,5000 -8.370473,41.980706,5000 -8.369384,41.980805,5000 -8.368684,41.980913,5000 -8.368247,41.981026,5000 -8.367789999999999,41.981232,5000 -8.367744,41.981238,5000 -8.367433999999999,41.981323,5000 -8.367158999999999,41.981414,5000 -8.366885,41.981524,5000 -8.366776,41.981546,5000 -8.366548,41.981592,5000 -8.366247,41.981611,5000 -8.365900999999999,41.981619,5000 -8.365296000000001,41.981633,5000 -8.36496,41.981655,5000 -8.364796999999999,41.981659,5000 -8.364742,41.981656,5000 -8.364692,41.981647,5000 -8.364388999999999,41.981524,5000 -8.364138000000001,41.98135,5000 -8.363943000000001,41.981171,5000 -8.36379,41.980987,5000 -8.363676,41.980803,5000 -8.363524999999999,41.980628,5000 -8.363343,41.980469,5000 -8.363182,41.980308,5000 -8.363016,41.980156,5000 -8.362837000000001,41.980011,5000 -8.362733,41.979983,5000 -8.362527,41.980154,5000 -8.362276,41.980393,5000 -8.361776000000001,41.980552,5000 -8.361488,41.980602,5000 -8.361219999999999,41.980542,5000 -8.36102,41.980395,5000 -8.360799,41.980186,5000 -8.360658000000001,41.980179,5000 -8.36054,41.980217,5000 -8.360369,41.980279,5000 -8.360326000000001,41.980886,5000 -8.360476,41.981295,5000 -8.360854,41.981767,5000 -8.361063,41.98202,5000 -8.361086,41.982242,5000 -8.361051,41.982403,5000 -8.360796000000001,41.982762,5000 -8.360676,41.982971,5000 -8.360682000000001,41.983078,5000 -8.360677000000001,41.983455,5000 -8.360576,41.983674,5000 -8.360405999999999,41.983757,5000 -8.360258999999999,41.983738,5000 -8.360168,41.983675,5000 -8.360025,41.983333,5000 -8.359843,41.982962,5000 -8.359632,41.982708,5000 -8.359453999999999,41.982522,5000 -8.359301,41.982378,5000 -8.358917999999999,41.982231,5000 -8.358461,41.982092,5000 -8.358193999999999,41.982065,5000 -8.358158,41.982061,5000 -8.357771,41.982142,5000 -8.357483999999999,41.982279,5000 -8.357248,41.982424,5000 -8.35707,41.982572,5000 -8.356693,41.983073,5000 -8.3565,41.983605,5000 -8.356337,41.983919,5000 -8.356076,41.984148,5000 -8.355966,41.98419,5000 -8.355850999999999,41.984202,5000 -8.355651999999999,41.984203,5000 -8.355494,41.984176,5000 -8.355274,41.984097,5000 -8.355153,41.984002,5000 -8.354808999999999,41.983642,5000 -8.354538,41.983336,5000 -8.354417,41.983104,5000 -8.354132999999999,41.982873,5000 -8.353785999999999,41.982718,5000 -8.353465999999999,41.98262,5000 -8.353085,41.982663,5000 -8.352791,41.982766,5000 -8.352148,41.983094,5000 -8.351621,41.983295,5000 -8.351295,41.983422,5000 -8.350835,41.983433,5000 -8.350607999999999,41.98339,5000 -8.350047999999999,41.98329,5000 -8.349843999999999,41.983294,5000 -8.349684999999999,41.983332,5000 -8.349427,41.983489,5000 -8.349084,41.983634,5000 -8.348352,41.98383,5000 -8.347944,41.984086,5000 -8.347935,41.984092,5000 -8.347638,41.98427,5000 -8.347332,41.984408,5000 -8.347002,41.984511,5000 -8.346784,41.984598,5000 -8.346659000000001,41.984663,5000 -8.346221,41.984912,5000 -8.345978000000001,41.985035,5000 -8.345876000000001,41.985096,5000 -8.345841999999999,41.985117,5000 -8.345767,41.985161,5000 -8.34573,41.985182,5000 -8.345698000000001,41.985201,5000 -8.345687,41.985208,5000 -8.345666,41.985221,5000 -8.345654,41.985227,5000 -8.345544,41.985296,5000 -8.345250999999999,41.98541,5000 -8.345157,41.985461,5000 -8.345094,41.985488,5000 -8.345053,41.985497,5000 -8.345015,41.9855,5000 -8.344915,41.985517,5000 -8.344877,41.985519,5000 -8.344842,41.985513,5000 -8.344733,41.985466,5000 -8.344696000000001,41.985454,5000 -8.344654999999999,41.985448,5000 -8.344614,41.985448,5000 -8.344576,41.985456,5000 -8.344543,41.985473,5000 -8.344512999999999,41.985494,5000 -8.344488999999999,41.985518,5000 -8.344468000000001,41.985546,5000 -8.344450999999999,41.985576,5000 -8.344409000000001,41.985718,5000 -8.344372999999999,41.985953,5000 -8.344295000000001,41.986188,5000 -8.344245000000001,41.986425,5000 -8.344207000000001,41.986659,5000 -8.344167000000001,41.986893,5000 -8.344101999999999,41.987152,5000 -8.344025,41.987389,5000 -8.343959,41.987619,5000 -8.343914,41.987852,5000 -8.343949,41.988083,5000 -8.343947999999999,41.988115,5000 -8.343938,41.988148,5000 -8.343919,41.98818,5000 -8.343896000000001,41.988208,5000 -8.343868000000001,41.988231,5000 -8.343831,41.98825,5000 -8.343722,41.988295,5000 -8.343605,41.988333,5000 -8.343565999999999,41.988352,5000 -8.343525,41.988375,5000 -8.343488000000001,41.9884,5000 -8.343330999999999,41.988589,5000 -8.343305000000001,41.988625,5000 -8.343196000000001,41.988752,5000 -8.343166999999999,41.988777,5000 -8.342928000000001,41.988895,5000 -8.342897000000001,41.988916,5000 -8.342713,41.989022,5000 -8.342465000000001,41.989172,5000 -8.342428,41.989201,5000 -8.342395,41.989231,5000 -8.342364999999999,41.989264,5000 -8.342244000000001,41.989497,5000 -8.342198,41.989651,5000 -8.342174,41.989896,5000 -8.342162999999999,41.989929,5000 -8.342139,41.989973,5000 -8.342115,41.989994,5000 -8.342086999999999,41.990008,5000 -8.342052000000001,41.990011,5000 -8.342015,41.990005,5000 -8.341983000000001,41.989992,5000 -8.341832999999999,41.989892,5000 -8.341806999999999,41.989868,5000 -8.341761999999999,41.989812,5000 -8.341609999999999,41.989588,5000 -8.341582000000001,41.989561,5000 -8.34155,41.989537,5000 -8.341517,41.989517,5000 -8.341481999999999,41.989502,5000 -8.341165,41.989441,5000 -8.341132999999999,41.98943,5000 -8.340980999999999,41.989347,5000 -8.340945,41.989331,5000 -8.340771,41.989243,5000 -8.340498999999999,41.989118,5000 -8.340463,41.9891,5000 -8.340206999999999,41.98894,5000 -8.339976999999999,41.988788,5000 -8.339861000000001,41.988725,5000 -8.339812,41.988695,5000 -8.339740000000001,41.988659,5000 -8.339708,41.988651,5000 -8.339694,41.988629,5000 -8.339672999999999,41.988605,5000 -8.339593000000001,41.988546,5000 -8.339537,41.988498,5000 -8.339435,41.988404,5000 -8.339247,41.988206,5000 -8.339032,41.988013,5000 -8.338868,41.987871,5000 -8.338787,41.987827,5000 -8.338747,41.987811,5000 -8.338438,41.987778,5000 -8.338383,41.987813,5000 -8.338298,41.987844,5000 -8.338165999999999,41.987919,5000 -8.338126000000001,41.987949,5000 -8.337967000000001,41.988071,5000 -8.337700999999999,41.988222,5000 -8.337629,41.988248,5000 -8.337577,41.988262,5000 -8.337481,41.98828,5000 -8.337436,41.988286,5000 -8.337349,41.988287,5000 -8.337303,41.988286,5000 -8.337209,41.988283,5000 -8.337146000000001,41.988268,5000 -8.337031,41.988207,5000 -8.336995,41.988182,5000 -8.336964,41.988153,5000 -8.336881,41.988037,5000 -8.336849000000001,41.987995,5000 -8.336753,41.987888,5000 -8.336729999999999,41.987861,5000 -8.336705,41.987836,5000 -8.336679,41.987817,5000 -8.336651,41.9878,5000 -8.336613,41.987783,5000 -8.336573,41.987772,5000 -8.336531000000001,41.987768,5000 -8.336487999999999,41.987767,5000 -8.336448000000001,41.987773,5000 -8.336410000000001,41.987789,5000 -8.336377000000001,41.987809,5000 -8.336349999999999,41.987835,5000 -8.336335,41.987858,5000 -8.336323,41.987881,5000 -8.336304999999999,41.987939,5000 -8.336295,41.988026,5000 -8.336287,41.988053,5000 -8.336275000000001,41.988185,5000 -8.336274,41.988213,5000 -8.336263000000001,41.988271,5000 -8.336252,41.988302,5000 -8.336150999999999,41.988471,5000 -8.335946,41.988679,5000 -8.335815999999999,41.988738,5000 -8.335516999999999,41.989076,5000 -8.335312999999999,41.989248,5000 -8.335091,41.989424,5000 -8.334883,41.989587,5000 -8.334637000000001,41.989725,5000 -8.334588999999999,41.989743,5000 -8.334479999999999,41.989772,5000 -8.334431,41.989783,5000 -8.334228,41.989806,5000 -8.334179000000001,41.989817,5000 -8.334132,41.989831,5000 -8.334087,41.98985,5000 -8.333779,41.989968,5000 -8.33357,41.990011,5000 -8.333527999999999,41.990012,5000 -8.333492,41.990003,5000 -8.333458,41.989988,5000 -8.333387999999999,41.98995,5000 -8.333345,41.989933,5000 -8.333297999999999,41.98992,5000 -8.333254,41.989913,5000 -8.333211,41.989913,5000 -8.333173,41.989924,5000 -8.333119999999999,41.989951,5000 -8.333093,41.989974,5000 -8.332882,41.990173,5000 -8.332678,41.990361,5000 -8.332495,41.990551,5000 -8.332300999999999,41.990738,5000 -8.332096,41.990908,5000 -8.331893000000001,41.990994,5000 -8.331583999999999,41.991084,5000 -8.331436,41.991103,5000 -8.331129000000001,41.991148,5000 -8.330806000000001,41.991228,5000 -8.330498,41.99132,5000 -8.330384,41.99137,5000 -8.330313,41.991412,5000 -8.330276,41.991435,5000 -8.330106000000001,41.991529,5000 -8.330061000000001,41.991546,5000 -8.329959000000001,41.991598,5000 -8.329708999999999,41.991744,5000 -8.329459999999999,41.991911,5000 -8.329426,41.991947,5000 -8.329402999999999,41.991983,5000 -8.329359999999999,41.992092,5000 -8.329351000000001,41.992197,5000 -8.329355,41.992232,5000 -8.329368000000001,41.992265,5000 -8.329522000000001,41.992346,5000 -8.329554999999999,41.992415,5000 -8.329597,41.992432,5000 -8.329644,41.992445,5000 -8.329952,41.992541,5000 -8.330005999999999,41.992559,5000 -8.330057,41.99258,5000 -8.330107,41.992604,5000 -8.330226,41.992693,5000 -8.330257,41.992726,5000 -8.330285,41.992762,5000 -8.330306,41.992798,5000 -8.330323999999999,41.992835,5000 -8.330354,41.99295,5000 -8.33037,41.993063,5000 -8.330425999999999,41.993215,5000 -8.330493000000001,41.993435,5000 -8.3306,41.993672,5000 -8.330776,41.993815,5000 -8.331021,41.993957,5000 -8.331056999999999,41.993989,5000 -8.33123,41.994215,5000 -8.331353999999999,41.99449,5000 -8.33155,41.994625,5000 -8.331621,41.99486,5000 -8.331624,41.994902,5000 -8.331602999999999,41.995012,5000 -8.331594000000001,41.995034,5000 -8.331583,41.995055,5000 -8.331554000000001,41.995094,5000 -8.331432,41.99521,5000 -8.331251999999999,41.995434,5000 -8.331208999999999,41.995506,5000 -8.331044,41.995752,5000 -8.331035999999999,41.995846,5000 -8.330842000000001,41.996218,5000 -8.330824,41.996253,5000 -8.330802,41.996284,5000 -8.330774999999999,41.996312,5000 -8.330738999999999,41.996338,5000 -8.33065,41.996384,5000 -8.330605,41.996401,5000 -8.33056,41.996413,5000 -8.330517,41.996413,5000 -8.330474000000001,41.996397,5000 -8.330218,41.996227,5000 -8.330037000000001,41.99604,5000 -8.32987,41.995829,5000 -8.329656,41.995652,5000 -8.329611,41.995629,5000 -8.329559,41.995619,5000 -8.329528,41.995618,5000 -8.329472000000001,41.995622,5000 -8.329421,41.995636,5000 -8.329376999999999,41.995652,5000 -8.329338,41.995672,5000 -8.329102000000001,41.995836,5000 -8.328992,41.995948,5000 -8.328925999999999,41.996001,5000 -8.328775,41.99609,5000 -8.328516,41.996206,5000 -8.328462999999999,41.996223,5000 -8.328127,41.996284,5000 -8.327821999999999,41.996329,5000 -8.32751,41.996368,5000 -8.327190999999999,41.996376,5000 -8.326891,41.996355,5000 -8.326584,41.996303,5000 -8.326290999999999,41.996248,5000 -8.325983000000001,41.996198,5000 -8.325682,41.996115,5000 -8.325399000000001,41.996016,5000 -8.325115,41.995874,5000 -8.325075999999999,41.995843,5000 -8.324861,41.995667,5000 -8.324648,41.995463,5000 -8.324619,41.995426,5000 -8.324607,41.995405,5000 -8.324565,41.995308,5000 -8.324545000000001,41.995278,5000 -8.32452,41.995252,5000 -8.324486,41.99523,5000 -8.324439,41.995213,5000 -8.324386000000001,41.995205,5000 -8.324336000000001,41.995203,5000 -8.324289,41.995205,5000 -8.324242999999999,41.995212,5000 -8.324197,41.995225,5000 -8.324066999999999,41.995276,5000 -8.32399,41.995319,5000 -8.323765,41.995496,5000 -8.323598,41.995719,5000 -8.323395,41.995903,5000 -8.323299,41.995955,5000 -8.323248,41.995973,5000 -8.323007,41.996062,5000 -8.322702,41.996123,5000 -8.322609999999999,41.996122,5000 -8.322531,41.996121,5000 -8.322464,41.996121,5000 -8.322411000000001,41.996112,5000 -8.322106,41.996011,5000 -8.321814,41.995908,5000 -8.321616000000001,41.995826,5000 -8.321524999999999,41.995785,5000 -8.321273,41.995656,5000 -8.321232,41.995634,5000 -8.321147,41.99559,5000 -8.320885000000001,41.995467,5000 -8.320767,41.995426,5000 -8.320463999999999,41.995354,5000 -8.320349,41.995354,5000 -8.320198,41.995376,5000 -8.319883000000001,41.995424,5000 -8.319564,41.99544,5000 -8.319507,41.995431,5000 -8.319452,41.995418,5000 -8.319146999999999,41.995323,5000 -8.318847,41.995199,5000 -8.318498,41.995023,5000 -8.318235,41.994905,5000 -8.317954,41.994801,5000 -8.317902999999999,41.99478,5000 -8.317717999999999,41.994727,5000 -8.317408,41.994699,5000 -8.317186,41.994737,5000 -8.317138999999999,41.994756,5000 -8.317097,41.994778,5000 -8.316872,41.994946,5000 -8.316716,41.995156,5000 -8.316560000000001,41.995351,5000 -8.316354,41.995539,5000 -8.316174,41.995737,5000 -8.316011,41.995935,5000 -8.315785999999999,41.996091,5000 -8.315670000000001,41.996138,5000 -8.315621999999999,41.99615,5000 -8.315471000000001,41.996171,5000 -8.315421000000001,41.996172,5000 -8.315367999999999,41.996167,5000 -8.315224000000001,41.996138,5000 -8.31494,41.99605,5000 -8.314909999999999,41.996033,5000 -8.314882000000001,41.996013,5000 -8.314859999999999,41.995988,5000 -8.314838999999999,41.995958,5000 -8.314807999999999,41.995885,5000 -8.31479,41.995854,5000 -8.314768000000001,41.995825,5000 -8.314655999999999,41.995724,5000 -8.314558999999999,41.995632,5000 -8.314527,41.995625,5000 -8.314477,41.995621,5000 -8.314425999999999,41.995617,5000 -8.314120000000001,41.995568,5000 -8.314080000000001,41.99556,5000 -8.314045999999999,41.995551,5000 -8.314019,41.995541,5000 -8.313997000000001,41.995522,5000 -8.313473999999999,41.995351,5000 -8.313186999999999,41.995228,5000 -8.313154000000001,41.995219,5000 -8.313121000000001,41.995214,5000 -8.312996999999999,41.995213,5000 -8.312967,41.99522,5000 -8.312802,41.995296,5000 -8.312139,41.995621,5000 -8.311887,41.995748,5000 -8.311768000000001,41.995775,5000 -8.311437,41.995778,5000 -8.311140999999999,41.995723,5000 -8.310807,41.995679,5000 -8.310466999999999,41.995658,5000 -8.310211000000001,41.995615,5000 -8.310138999999999,41.995603,5000 -8.309828,41.995559,5000 -8.309502,41.995525,5000 -8.309200000000001,41.995521,5000 -8.308878999999999,41.995517,5000 -8.308573000000001,41.995513,5000 -8.308268999999999,41.995494,5000 -8.307971,41.995466,5000 -8.307656,41.9954,5000 -8.307344000000001,41.995252,5000 -8.307081,41.995109,5000 -8.307035000000001,41.995096,5000 -8.306991,41.995088,5000 -8.306668999999999,41.995073,5000 -8.306341,41.995127,5000 -8.30603,41.995227,5000 -8.305744000000001,41.995327,5000 -8.305413,41.995391,5000 -8.305103000000001,41.995419,5000 -8.304779,41.995415,5000 -8.304553,41.99538,5000 -8.304169,41.995304,5000 -8.303838000000001,41.995246,5000 -8.303528999999999,41.995166,5000 -8.303234,41.995065,5000 -8.302943000000001,41.994955,5000 -8.302670000000001,41.994823,5000 -8.302389,41.994694,5000 -8.302117000000001,41.994557,5000 -8.301829,41.994455,5000 -8.301615999999999,41.994425,5000 -8.301289000000001,41.994384,5000 -8.300960999999999,41.994355,5000 -8.300639,41.994323,5000 -8.300342000000001,41.994266,5000 -8.300013,41.994184,5000 -8.299716,41.994102,5000 -8.299417999999999,41.993989,5000 -8.299243000000001,41.993908,5000 -8.298976,41.993788,5000 -8.298731999999999,41.99364,5000 -8.298503,41.993472,5000 -8.298287,41.993309,5000 -8.298069,41.993139,5000 -8.297995,41.993057,5000 -8.297958,41.992998,5000 -8.297938,41.992958,5000 -8.297916000000001,41.992914,5000 -8.297822,41.992688,5000 -8.29773,41.992448,5000 -8.297713,41.992426,5000 -8.297677999999999,41.99239,5000 -8.297608,41.992338,5000 -8.297582999999999,41.992324,5000 -8.297532,41.992311,5000 -8.297302,41.992309,5000 -8.297257999999999,41.992316,5000 -8.297214,41.992328,5000 -8.296939,41.99244,5000 -8.296913,41.992454,5000 -8.296887,41.99247,5000 -8.296663000000001,41.992626,5000 -8.296419,41.992776,5000 -8.296196,41.992931,5000 -8.29612,41.992966,5000 -8.295794000000001,41.99301,5000 -8.295477999999999,41.992899,5000 -8.295206,41.992761,5000 -8.294934,41.992624,5000 -8.294625,41.992495,5000 -8.294304,41.99238,5000 -8.294236,41.992364,5000 -8.294199000000001,41.99236,5000 -8.294044,41.992353,5000 -8.293716,41.992338,5000 -8.293685999999999,41.992334,5000 -8.293657,41.992327,5000 -8.293628,41.992317,5000 -8.293483999999999,41.992234,5000 -8.293447,41.992221,5000 -8.293411000000001,41.992216,5000 -8.293206,41.992206,5000 -8.293119000000001,41.992186,5000 -8.293023,41.992372,5000 -8.292915000000001,41.992587,5000 -8.292897,41.992615,5000 -8.292871999999999,41.99264,5000 -8.292844000000001,41.992663,5000 -8.292812,41.992686,5000 -8.292536,41.992844,5000 -8.292439999999999,41.992932,5000 -8.292349,41.993035,5000 -8.292338000000001,41.993058,5000 -8.292322,41.993106,5000 -8.292311,41.993233,5000 -8.292299,41.993483,5000 -8.292234000000001,41.993728,5000 -8.292156,41.99396,5000 -8.292141000000001,41.994188,5000 -8.292058000000001,41.994404,5000 -8.291892000000001,41.994626,5000 -8.291786999999999,41.994974,5000 -8.291782,41.994996,5000 -8.291721000000001,41.995102,5000 -8.291688000000001,41.995137,5000 -8.291651999999999,41.995167,5000 -8.291612000000001,41.995192,5000 -8.291572,41.995212,5000 -8.291242,41.995278,5000 -8.291197,41.995289,5000 -8.291152,41.995305,5000 -8.291024999999999,41.99536,5000 -8.290986999999999,41.995383,5000 -8.290953999999999,41.995412,5000 -8.290929,41.995448,5000 -8.290912000000001,41.99549,5000 -8.290902000000001,41.99553,5000 -8.290877999999999,41.995645,5000 -8.290801,41.995761,5000 -8.29077,41.995796,5000 -8.290592,41.996021,5000 -8.290571999999999,41.99606,5000 -8.290562,41.996102,5000 -8.290559,41.99615,5000 -8.29054,41.996303,5000 -8.290461000000001,41.996527,5000 -8.290376999999999,41.996756,5000 -8.290373000000001,41.996782,5000 -8.290373000000001,41.996809,5000 -8.290412,41.996937,5000 -8.290483999999999,41.997177,5000 -8.290486,41.99742,5000 -8.290589000000001,41.99765,5000 -8.290708,41.99788,5000 -8.290839999999999,41.998111,5000 -8.291024,41.998299,5000 -8.291039,41.998332,5000 -8.291038,41.998366,5000 -8.291022999999999,41.998402,5000 -8.291005999999999,41.998438,5000 -8.290998,41.998473,5000 -8.290998,41.998552,5000 -8.291002000000001,41.998593,5000 -8.291005999999999,41.998716,5000 -8.290978000000001,41.998868,5000 -8.29097,41.999006,5000 -8.290960999999999,41.999039,5000 -8.290946,41.999071,5000 -8.290924,41.999098,5000 -8.290895000000001,41.999122,5000 -8.290862000000001,41.999143,5000 -8.290824000000001,41.999159,5000 -8.29078,41.999172,5000 -8.290692,41.99919,5000 -8.290518,41.999213,5000 -8.290475000000001,41.999219,5000 -8.290431,41.999229,5000 -8.290391,41.999241,5000 -8.290207000000001,41.999317,5000 -8.290172,41.99934,5000 -8.290139,41.999366,5000 -8.290082999999999,41.999427,5000 -8.290005000000001,41.999571,5000 -8.289980999999999,41.999649,5000 -8.289947,41.999898,5000 -8.289934000000001,41.999937,5000 -8.289895,42.000013,5000 -8.289709999999999,42.000232,5000 -8.289578000000001,42.000444,5000 -8.28955,42.00052,5000 -8.289489,42.000771,5000 -8.289486,42.000941,5000 -8.2895,42.001022,5000 -8.289515,42.001059,5000 -8.289535000000001,42.001095,5000 -8.289714999999999,42.001291,5000 -8.289891000000001,42.001508,5000 -8.289910000000001,42.001547,5000 -8.289985,42.001778,5000 -8.290018999999999,42.002056,5000 -8.290031000000001,42.002225,5000 -8.290075,42.002474,5000 -8.290094,42.002722,5000 -8.290190000000001,42.003216,5000 -8.290189,42.003299,5000 -8.290082,42.003538,5000 -8.290054,42.003658,5000 -8.290054,42.003894,5000 -8.290058,42.00412,5000 -8.290107000000001,42.004367,5000 -8.290193,42.004592,5000 -8.290297000000001,42.004807,5000 -8.290421,42.005043,5000 -8.290537,42.005271,5000 -8.290699,42.005488,5000 -8.290902000000001,42.005689,5000 -8.291133,42.005862,5000 -8.291359999999999,42.006026,5000 -8.291541,42.006215,5000 -8.291707000000001,42.006424,5000 -8.291919,42.006618,5000 -8.292149999999999,42.006798,5000 -8.292367,42.006985,5000 -8.292560999999999,42.007159,5000 -8.292752999999999,42.007352,5000 -8.292873,42.007471,5000 -8.293011,42.007534,5000 -8.293331999999999,42.007604,5000 -8.293658000000001,42.007635,5000 -8.294083000000001,42.00764,5000 -8.294231,42.007629,5000 -8.294501,42.007623,5000 -8.294772999999999,42.007591,5000 -8.295064,42.00756,5000 -8.295432999999999,42.007564,5000 -8.295773000000001,42.007601,5000 -8.296093000000001,42.00764,5000 -8.296422,42.007702,5000 -8.296673,42.00781,5000 -8.296863999999999,42.00799,5000 -8.29687,42.008006,5000 -8.297742,42.009387,5000 -8.297751999999999,42.009424,5000 -8.297762000000001,42.009473,5000 -8.297768,42.009498,5000 -8.29777,42.009519,5000 -8.297777,42.009589,5000 -8.297779999999999,42.009609,5000 -8.297795000000001,42.009692,5000 -8.297803999999999,42.00976,5000 -8.29782,42.009854,5000 -8.297822999999999,42.009869,5000 -8.297836999999999,42.00991,5000 -8.297853,42.009959,5000 -8.297867,42.009997,5000 -8.297895,42.010068,5000 -8.297909000000001,42.010116,5000 -8.297927,42.010166,5000 -8.297933,42.010178,5000 -8.297941,42.010199,5000 -8.297971,42.010269,5000 -8.298043,42.010447,5000 -8.298049000000001,42.010463,5000 -8.298064,42.010496,5000 -8.298097,42.010609,5000 -8.298105,42.010631,5000 -8.298112,42.010665,5000 -8.298137000000001,42.01076,5000 -8.298156000000001,42.010848,5000 -8.298155,42.010905,5000 -8.298162,42.010935,5000 -8.298182000000001,42.010992,5000 -8.298185,42.011036,5000 -8.298194000000001,42.01107,5000 -8.298211,42.011138,5000 -8.298216999999999,42.011165,5000 -8.298227000000001,42.011198,5000 -8.298239000000001,42.011234,5000 -8.298266,42.011287,5000 -8.298280999999999,42.011312,5000 -8.298317000000001,42.011369,5000 -8.298330999999999,42.011425,5000 -8.298337999999999,42.01149,5000 -8.298387,42.011692,5000 -8.298412000000001,42.011852,5000 -8.298435,42.011903,5000 -8.298456,42.01196,5000 -8.298476000000001,42.012,5000 -8.298565,42.01223,5000 -8.298579,42.012316,5000 -8.298603999999999,42.012452,5000 -8.298596,42.012534,5000 -8.298598,42.012579,5000 -8.298610999999999,42.012637,5000 -8.298622999999999,42.012673,5000 -8.298634,42.0127,5000 -8.298679,42.012771,5000 -8.298698,42.012799,5000 -8.298738,42.012873,5000 -8.298785000000001,42.013012,5000 -8.298788,42.013048,5000 -8.298795,42.013081,5000 -8.298806000000001,42.013112,5000 -8.298829,42.013157,5000 -8.298843,42.013196,5000 -8.298851000000001,42.013224,5000 -8.298861,42.013256,5000 -8.298889000000001,42.013344,5000 -8.298883999999999,42.013369,5000 -8.298888,42.013419,5000 -8.298893,42.01347,5000 -8.298890999999999,42.013498,5000 -8.298893,42.013534,5000 -8.298899,42.013586,5000 -8.298909,42.013644,5000 -8.298918,42.013674,5000 -8.298970000000001,42.013908,5000 -8.298971999999999,42.01401,5000 -8.298987,42.014272,5000 -8.299003000000001,42.014313,5000 -8.299018999999999,42.014358,5000 -8.29903,42.014404,5000 -8.299035,42.014438,5000 -8.299041000000001,42.014516,5000 -8.299054,42.014604,5000 -8.299061,42.014634,5000 -8.299094,42.014766,5000 -8.299102,42.014789,5000 -8.299117000000001,42.014843,5000 -8.299161,42.014966,5000 -8.29918,42.015014,5000 -8.299243000000001,42.01513,5000 -8.29927,42.015176,5000 -8.299283000000001,42.015201,5000 -8.299296,42.015227,5000 -8.299306,42.015252,5000 -8.299322999999999,42.015306,5000 -8.299336,42.01534,5000 -8.299341999999999,42.015378,5000 -8.299352000000001,42.015424,5000 -8.299382,42.015462,5000 -8.299416000000001,42.015496,5000 -8.299453,42.015552,5000 -8.299555,42.015705,5000 -8.299576999999999,42.015742,5000 -8.299618000000001,42.015797,5000 -8.299635,42.01582,5000 -8.299704999999999,42.01589,5000 -8.299742,42.01595,5000 -8.299773999999999,42.016077,5000 -8.299787,42.016112,5000 -8.299799999999999,42.016133,5000 -8.29987,42.016198,5000 -8.29988,42.016214,5000 -8.299909,42.016285,5000 -8.299946,42.016388,5000 -8.299993000000001,42.016464,5000 -8.300013999999999,42.016519,5000 -8.300022,42.016551,5000 -8.300089,42.016778,5000 -8.300102000000001,42.016847,5000 -8.300108,42.016912,5000 -8.300117,42.017007,5000 -8.300132,42.017056,5000 -8.300147000000001,42.017081,5000 -8.300295,42.017311,5000 -8.300356000000001,42.017414,5000 -8.30039,42.017454,5000 -8.300435,42.017505,5000 -8.300544,42.017606,5000 -8.300577000000001,42.017641,5000 -8.300641000000001,42.017719,5000 -8.300845000000001,42.017888,5000 -8.300943999999999,42.017974,5000 -8.300989,42.018008,5000 -8.301045999999999,42.018045,5000 -8.301116,42.018088,5000 -8.30115,42.018138,5000 -8.301157,42.018174,5000 -8.301105,42.018426,5000 -8.301043,42.01858,5000 -8.300996,42.018693,5000 -8.300978000000001,42.018741,5000 -8.300946,42.018842,5000 -8.300993,42.01894,5000 -8.301005,42.018957,5000 -8.301019,42.018996,5000 -8.301021,42.019016,5000 -8.301024999999999,42.019033,5000 -8.301035000000001,42.019099,5000 -8.301057999999999,42.019156,5000 -8.301088999999999,42.019203,5000 -8.301109,42.019227,5000 -8.301135,42.019261,5000 -8.301161,42.019316,5000 -8.301175000000001,42.019343,5000 -8.301190999999999,42.019383,5000 -8.301213000000001,42.019426,5000 -8.301225000000001,42.019446,5000 -8.301239000000001,42.019477,5000 -8.301268,42.019621,5000 -8.301269,42.019643,5000 -8.301278,42.019725,5000 -8.301272000000001,42.01977,5000 -8.301268,42.019794,5000 -8.301254999999999,42.01983,5000 -8.301247,42.019852,5000 -8.301238,42.019872,5000 -8.301102999999999,42.020014,5000 -8.301073000000001,42.020231,5000 -8.301072,42.020283,5000 -8.301069999999999,42.020331,5000 -8.301067,42.020366,5000 -8.301030000000001,42.020542,5000 -8.301029,42.020576,5000 -8.301031999999999,42.020633,5000 -8.301038999999999,42.020724,5000 -8.301048,42.020869,5000 -8.301066,42.020921,5000 -8.301083,42.020961,5000 -8.301113000000001,42.021015,5000 -8.301183999999999,42.021136,5000 -8.301251000000001,42.021215,5000 -8.301273,42.021233,5000 -8.301316,42.021275,5000 -8.301341000000001,42.021309,5000 -8.301354,42.021333,5000 -8.301373999999999,42.021363,5000 -8.301487,42.02146,5000 -8.301548,42.021496,5000 -8.301613,42.021537,5000 -8.301755999999999,42.021638,5000 -8.301792000000001,42.021664,5000 -8.301992,42.021838,5000 -8.302006,42.021855,5000 -8.302020000000001,42.02187,5000 -8.302082,42.02204,5000 -8.302225,42.022187,5000 -8.302281000000001,42.022242,5000 -8.302516000000001,42.022481,5000 -8.302678,42.022677,5000 -8.302712,42.022716,5000 -8.302740999999999,42.022749,5000 -8.30289,42.022863,5000 -8.302963999999999,42.022933,5000 -8.30302,42.02299,5000 -8.303042,42.023018,5000 -8.303077999999999,42.023068,5000 -8.303127,42.023131,5000 -8.303153,42.023166,5000 -8.303209000000001,42.0233,5000 -8.303222,42.023337,5000 -8.303246,42.02346,5000 -8.303281999999999,42.023526,5000 -8.303286,42.023548,5000 -8.303362999999999,42.023678,5000 -8.303381999999999,42.023798,5000 -8.303394000000001,42.023865,5000 -8.303388999999999,42.023928,5000 -8.303381999999999,42.024156,5000 -8.303392000000001,42.02419,5000 -8.303452999999999,42.024323,5000 -8.303549,42.024404,5000 -8.303661999999999,42.024505,5000 -8.303731000000001,42.024674,5000 -8.303731000000001,42.024761,5000 -8.303742,42.024815,5000 -8.303808,42.024845,5000 -8.303856,42.024877,5000 -8.303901,42.024896,5000 -8.303944,42.02492,5000 -8.304017,42.024938,5000 -8.304081999999999,42.024963,5000 -8.304353000000001,42.025083,5000 -8.304423,42.025115,5000 -8.304456,42.025133,5000 -8.304539999999999,42.025182,5000 -8.304582999999999,42.025211,5000 -8.304634,42.025246,5000 -8.304705999999999,42.025312,5000 -8.304795,42.025387,5000 -8.304891,42.025462,5000 -8.304929,42.025483,5000 -8.305199999999999,42.025601,5000 -8.305327,42.025665,5000 -8.305413,42.025725,5000 -8.305634,42.025917,5000 -8.305662,42.025941,5000 -8.305725000000001,42.026006,5000 -8.305762,42.026062,5000 -8.305776,42.026106,5000 -8.305769,42.026163,5000 -8.305755,42.026206,5000 -8.305699000000001,42.02626,5000 -8.305642000000001,42.026335,5000 -8.30559,42.026381,5000 -8.305451,42.026561,5000 -8.305389,42.026636,5000 -8.30524,42.02672,5000 -8.305178,42.02675,5000 -8.305078999999999,42.026797,5000 -8.305040999999999,42.026815,5000 -8.305012,42.026828,5000 -8.304976,42.026843,5000 -8.30491,42.026864,5000 -8.304843,42.02687,5000 -8.304480999999999,42.026809,5000 -8.304423,42.026795,5000 -8.304332,42.026781,5000 -8.304240999999999,42.026785,5000 -8.303947000000001,42.026853,5000 -8.303823,42.026919,5000 -8.303699,42.026984,5000 -8.303477000000001,42.027144,5000 -8.303461,42.027173,5000 -8.303455,42.027241,5000 -8.303459,42.027267,5000 -8.303478999999999,42.027314,5000 -8.303483,42.027348,5000 -8.303492,42.027401,5000 -8.303485999999999,42.027473,5000 -8.303507,42.027531,5000 -8.303528999999999,42.027573,5000 -8.303547,42.027615,5000 -8.303591000000001,42.027663,5000 -8.303743000000001,42.028008,5000 -8.303891,42.028318,5000 -8.303914000000001,42.028432,5000 -8.303922999999999,42.028454,5000 -8.303941999999999,42.028491,5000 -8.303948999999999,42.028532,5000 -8.303948,42.028583,5000 -8.303924,42.028704,5000 -8.303915999999999,42.028779,5000 -8.303927,42.028824,5000 -8.303936,42.028853,5000 -8.303941999999999,42.028887,5000 -8.303936999999999,42.028921,5000 -8.30391,42.028963,5000 -8.303884,42.028992,5000 -8.303846999999999,42.029049,5000 -8.303813,42.029112,5000 -8.303796999999999,42.029153,5000 -8.303775999999999,42.029191,5000 -8.303762000000001,42.029234,5000 -8.303741,42.029277,5000 -8.303735,42.02932,5000 -8.303751,42.029363,5000 -8.303769000000001,42.029413,5000 -8.303832,42.029672,5000 -8.303884999999999,42.029899,5000 -8.303919,42.029944,5000 -8.303952000000001,42.029989,5000 -8.304036999999999,42.030089,5000 -8.304069,42.030121,5000 -8.304131999999999,42.030195,5000 -8.304154,42.030234,5000 -8.304166,42.03029,5000 -8.304173,42.030332,5000 -8.304185,42.030377,5000 -8.304202,42.030416,5000 -8.304256000000001,42.030518,5000 -8.304304999999999,42.030614,5000 -8.304357,42.030678,5000 -8.304406999999999,42.030758,5000 -8.304434000000001,42.030828,5000 -8.304449,42.030889,5000 -8.304453000000001,42.030919,5000 -8.304449,42.030952,5000 -8.304418999999999,42.03103,5000 -8.304366,42.031125,5000 -8.304319,42.031201,5000 -8.304308000000001,42.031231,5000 -8.304314,42.031279,5000 -8.304327000000001,42.031366,5000 -8.304342999999999,42.031406,5000 -8.304385999999999,42.03149,5000 -8.304423,42.031549,5000 -8.304456,42.031589,5000 -8.304565,42.031669,5000 -8.304587,42.031702,5000 -8.304619000000001,42.031847,5000 -8.304641,42.031964,5000 -8.304675,42.031972,5000 -8.304709000000001,42.031981,5000 -8.304804000000001,42.032003,5000 -8.304945,42.032033,5000 -8.305009999999999,42.032049,5000 -8.305073,42.032091,5000 -8.305116,42.032124,5000 -8.305161,42.032166,5000 -8.305154999999999,42.032208,5000 -8.305137999999999,42.032243,5000 -8.305073,42.032294,5000 -8.305024,42.032323,5000 -8.304919,42.032379,5000 -8.304866000000001,42.032412,5000 -8.304845,42.032456,5000 -8.304933999999999,42.032645,5000 -8.304937000000001,42.032707,5000 -8.304956000000001,42.03275,5000 -8.30498,42.032797,5000 -8.305027000000001,42.032898,5000 -8.305057,42.032946,5000 -8.305084000000001,42.032978,5000 -8.305115000000001,42.03302,5000 -8.305149,42.033065,5000 -8.305175999999999,42.033095,5000 -8.305199,42.033136,5000 -8.305291,42.03321,5000 -8.305342,42.033244,5000 -8.305393,42.033293,5000 -8.305527,42.03348,5000 -8.305583,42.033541,5000 -8.305638999999999,42.033618,5000 -8.305695,42.033685,5000 -8.305730000000001,42.033723,5000 -8.305771999999999,42.033764,5000 -8.305799,42.033789,5000 -8.305809999999999,42.033803,5000 -8.305820000000001,42.033814,5000 -8.305842999999999,42.033845,5000 -8.305875,42.033895,5000 -8.305897,42.03392,5000 -8.305985,42.03404,5000 -8.306198,42.034227,5000 -8.306222999999999,42.034251,5000 -8.306330000000001,42.034344,5000 -8.306414999999999,42.034421,5000 -8.306469999999999,42.034463,5000 -8.30654,42.034507,5000 -8.306573999999999,42.034523,5000 -8.306622000000001,42.034541,5000 -8.306694999999999,42.034569,5000 -8.306829,42.034626,5000 -8.306922,42.03472,5000 -8.306964000000001,42.034756,5000 -8.307003999999999,42.034785,5000 -8.307076,42.034856,5000 -8.307162,42.034925,5000 -8.307187000000001,42.034949,5000 -8.307271999999999,42.035002,5000 -8.307326,42.035031,5000 -8.307378,42.035066,5000 -8.307408000000001,42.035091,5000 -8.307461,42.035149,5000 -8.307537999999999,42.035252,5000 -8.307554,42.035307,5000 -8.307570999999999,42.035349,5000 -8.307599,42.035421,5000 -8.307740000000001,42.035618,5000 -8.307757000000001,42.035645,5000 -8.307796,42.035692,5000 -8.308033999999999,42.036095,5000 -8.308052999999999,42.036126,5000 -8.308130999999999,42.036225,5000 -8.308194,42.036321,5000 -8.308206999999999,42.036347,5000 -8.308225,42.036396,5000 -8.308235,42.036442,5000 -8.30833,42.036704,5000 -8.308365999999999,42.036784,5000 -8.308386,42.03687,5000 -8.308386,42.036901,5000 -8.308381000000001,42.036954,5000 -8.308350000000001,42.037027,5000 -8.30833,42.037081,5000 -8.308309,42.037207,5000 -8.308315,42.037247,5000 -8.308344999999999,42.037299,5000 -8.308515999999999,42.037504,5000 -8.308545000000001,42.037534,5000 -8.308813000000001,42.037765,5000 -8.309016,42.037937,5000 -8.309106999999999,42.038036,5000 -8.309203999999999,42.038189,5000 -8.309172,42.038194,5000 -8.309061,42.038249,5000 -8.30903,42.038289,5000 -8.309030999999999,42.03837,5000 -8.309054,42.038475,5000 -8.309138000000001,42.03872,5000 -8.309293,42.039082,5000 -8.309469999999999,42.039481,5000 -8.309538999999999,42.039697,5000 -8.309582000000001,42.039808,5000 -8.309639000000001,42.039884,5000 -8.309747,42.03998,5000 -8.309853,42.040066,5000 -8.309934999999999,42.040147,5000 -8.309943000000001,42.040163,5000 -8.309911,42.040189,5000 -8.309593,42.040248,5000 -8.309271000000001,42.040294,5000 -8.308617,42.040316,5000 -8.30799,42.040326,5000 -8.307402,42.04031,5000 -8.306761,42.04032,5000 -8.305763000000001,42.04033,5000 -8.305313999999999,42.040285,5000 -8.305066,42.040271,5000 -8.304976,42.040397,5000 -8.304936,42.040562,5000 -8.304791,42.040706,5000 -8.304565,42.040806,5000 -8.304344,42.040861,5000 -8.304232000000001,42.040898,5000 -8.304221,42.040962,5000 -8.304342999999999,42.041081,5000 -8.304372000000001,42.0411,5000 -8.304425999999999,42.041136,5000 -8.304500000000001,42.041185,5000 -8.304529,42.041205,5000 -8.304881999999999,42.04142,5000 -8.304900999999999,42.041436,5000 -8.304919,42.041451,5000 -8.304976999999999,42.041517,5000 -8.305002999999999,42.041561,5000 -8.305037,42.041671,5000 -8.305087,42.041779,5000 -8.305129000000001,42.041838,5000 -8.305159,42.041869,5000 -8.305224000000001,42.041921,5000 -8.305472,42.042064,5000 -8.305510999999999,42.042088,5000 -8.305631999999999,42.042177,5000 -8.305713000000001,42.042231,5000 -8.305851000000001,42.042314,5000 -8.305904999999999,42.042354,5000 -8.305951,42.04237,5000 -8.306018,42.042401,5000 -8.30616,42.042453,5000 -8.306219,42.042487,5000 -8.30627,42.042527,5000 -8.306331999999999,42.042571,5000 -8.306386,42.042603,5000 -8.306468000000001,42.042663,5000 -8.306734000000001,42.042836,5000 -8.306797,42.042871,5000 -8.306850000000001,42.042894,5000 -8.306901,42.042915,5000 -8.307204,42.043006,5000 -8.307267,42.043036,5000 -8.307508,42.043181,5000 -8.307803,42.043345,5000 -8.307861000000001,42.043374,5000 -8.307952,42.043411,5000 -8.308275,42.043538,5000 -8.308559000000001,42.043649,5000 -8.308899,42.043799,5000 -8.309182,42.043966,5000 -8.3093,42.044041,5000 -8.30951,42.044203,5000 -8.309525000000001,42.044241,5000 -8.309537000000001,42.044269,5000 -8.309547,42.044298,5000 -8.309558000000001,42.044322,5000 -8.30958,42.044354,5000 -8.309613000000001,42.044398,5000 -8.309692,42.04453,5000 -8.309710000000001,42.044565,5000 -8.309723999999999,42.044605,5000 -8.309721,42.044639,5000 -8.309749999999999,42.044682,5000 -8.311493,42.045872,5000 -8.3117,42.045682,5000 -8.312132999999999,42.045304,5000 -8.312438999999999,42.04504,5000 -8.312782,42.044706,5000 -8.313140000000001,42.044428,5000 -8.313521,42.044237,5000 -8.313959000000001,42.044119,5000 -8.314581,42.044053,5000 -8.314997999999999,42.044058,5000 -8.315303999999999,42.044135,5000 -8.315569999999999,42.044267,5000 -8.315772000000001,42.044444,5000 -8.316005000000001,42.044714,5000 -8.31622,42.045098,5000 -8.316419,42.045441,5000 -8.316662000000001,42.045711,5000 -8.316812000000001,42.045844,5000 -8.317019,42.046003,5000 -8.317038,42.046017,5000 -8.317112,42.045971,5000 -8.317231,42.045879,5000 -8.317356999999999,42.045731,5000 -8.317494,42.045477,5000 -8.318139,42.045925,5000 -8.318728,42.046252,5000 -8.319350999999999,42.046651,5000 -8.319720999999999,42.046882,5000 -8.3201,42.047145,5000 -8.320429000000001,42.047448,5000 -8.320888,42.047908,5000 -8.321498,42.048374,5000 -8.321911,42.048716,5000 -8.321973,42.048788,5000 -8.321999,42.048858,5000 -8.322054,42.048946,5000 -8.322289,42.049179,5000 -8.322359000000001,42.049256,5000 -8.322512,42.049436,5000 -8.322521,42.049507,5000 -8.322457,42.049699,5000 -8.322431999999999,42.049798,5000 -8.322419999999999,42.049849,5000 -8.322419999999999,42.049912,5000 -8.322447,42.049949,5000 -8.322601000000001,42.049995,5000 -8.322611999999999,42.050005,5000 -8.322646000000001,42.05001,5000 -8.322689,42.050031,5000 -8.322734000000001,42.050051,5000 -8.322853,42.05012,5000 -8.323017999999999,42.050214,5000 -8.323074,42.050432,5000 -8.323079999999999,42.050708,5000 -8.323138,42.05071,5000 -8.323365000000001,42.050727,5000 -8.323418999999999,42.050738,5000 -8.323663,42.050891,5000 -8.323703999999999,42.050941,5000 -8.323753,42.051017,5000 -8.323833,42.051268,5000 -8.323871,42.051334,5000 -8.324077000000001,42.051501,5000 -8.324211999999999,42.051585,5000 -8.324237999999999,42.051603,5000 -8.3245,42.051769,5000 -8.324676,42.051857,5000 -8.324714999999999,42.051875,5000 -8.324754,42.051892,5000 -8.325105000000001,42.051873,5000 -8.325217,42.051866,5000 -8.325341,42.051878,5000 -8.325445999999999,42.051942,5000 -8.325538999999999,42.052024,5000 -8.325559999999999,42.052046,5000 -8.325608000000001,42.052082,5000 -8.32564,42.052098,5000 -8.325672000000001,42.052114,5000 -8.325894,42.052272,5000 -8.326119,42.052508,5000 -8.326142000000001,42.052525,5000 -8.326288,42.052613,5000 -8.326345,42.052637,5000 -8.326438,42.052645,5000 -8.326556999999999,42.052641,5000 -8.326658999999999,42.052637,5000 -8.326755,42.052638,5000 -8.326911000000001,42.052647,5000 -8.327298000000001,42.052673,5000 -8.327443000000001,42.052702,5000 -8.327582,42.052728,5000 -8.327683,42.052765,5000 -8.327776999999999,42.052812,5000 -8.327812,42.052834,5000 -8.328011,42.053097,5000 -8.328032,42.053142,5000 -8.32809,42.053265,5000 -8.328122,42.05331,5000 -8.328222,42.05336,5000 -8.328256,42.053369,5000 -8.328341999999999,42.053399,5000 -8.328469,42.053473,5000 -8.32854,42.053523,5000 -8.32878,42.053754,5000 -8.326271,42.055795,5000 -8.325837999999999,42.056112,5000 -8.325155000000001,42.056697,5000 -8.324059999999999,42.057497,5000 -8.319585999999999,42.060558,5000 -8.318244999999999,42.061474,5000 -8.317593,42.061895,5000 -8.317491,42.061947,5000 -8.317023000000001,42.062187,5000 -8.317273,42.062268,5000 -8.318815000000001,42.062498,5000 -8.321289999999999,42.062792,5000 -8.328595,42.063249,5000 -8.328906999999999,42.063258,5000 -8.329539,42.063273,5000 -8.330196000000001,42.063354,5000 -8.330698999999999,42.063415,5000 -8.331265999999999,42.063605,5000 -8.331499000000001,42.063667,5000 -8.331637000000001,42.063704,5000 -8.331671,42.063719,5000 -8.331690999999999,42.063734,5000 -8.331718,42.063751,5000 -8.331749,42.063769,5000 -8.331784000000001,42.063793,5000 -8.331989999999999,42.063956,5000 -8.332195,42.064106,5000 -8.332409999999999,42.064269,5000 -8.332587,42.06444,5000 -8.332757000000001,42.064623,5000 -8.332897000000001,42.064807,5000 -8.333023000000001,42.065014,5000 -8.333087000000001,42.06523,5000 -8.333095,42.065463,5000 -8.333133,42.065679,5000 -8.333164999999999,42.065918,5000 -8.333263000000001,42.066157,5000 -8.333421,42.066374,5000 -8.333596,42.066544,5000 -8.333612,42.066567,5000 -8.333659000000001,42.066695,5000 -8.333622,42.066918,5000 -8.333551,42.06712,5000 -8.333545000000001,42.067144,5000 -8.333556,42.067369,5000 -8.333615999999999,42.067584,5000 -8.333690000000001,42.067819,5000 -8.333823000000001,42.068036,5000 -8.333970000000001,42.068247,5000 -8.334118999999999,42.068443,5000 -8.334284999999999,42.06864,5000 -8.334379999999999,42.068863,5000 -8.334415999999999,42.069096,5000 -8.334429999999999,42.069315,5000 -8.334427,42.069539,5000 -8.334377,42.069762,5000 -8.334346999999999,42.069846,5000 -8.334206999999999,42.070049,5000 -8.334054,42.070224,5000 -8.333952999999999,42.070303,5000 -8.333923,42.070332,5000 -8.333905,42.070365,5000 -8.333897,42.070403,5000 -8.333898,42.070424,5000 -8.333907,42.07047,5000 -8.333919,42.070497,5000 -8.334078,42.070685,5000 -8.334284,42.070874,5000 -8.334502000000001,42.071061,5000 -8.334944,42.071417,5000 -8.334968,42.071447,5000 -8.334997,42.071511,5000 -8.335003,42.07175,5000 -8.335004,42.071986,5000 -8.33493,42.072292,5000 -8.334936000000001,42.072457,5000 -8.334932,42.072478,5000 -8.334835999999999,42.072718,5000 -8.334833,42.072758,5000 -8.334827000000001,42.072997,5000 -8.33479,42.073229,5000 -8.334789000000001,42.073454,5000 -8.334814,42.073696,5000 -8.33478,42.073914,5000 -8.334697,42.074149,5000 -8.33459,42.074372,5000 -8.334493,42.074611,5000 -8.334434,42.074842,5000 -8.334439,42.075078,5000 -8.3345,42.075327,5000 -8.334595999999999,42.075573,5000 -8.334695999999999,42.075828,5000 -8.334809,42.076067,5000 -8.334965,42.076301,5000 -8.335129999999999,42.076523,5000 -8.335311000000001,42.076734,5000 -8.335468000000001,42.076933,5000 -8.335559999999999,42.077179,5000 -8.335622000000001,42.077425,5000 -8.335729000000001,42.077668,5000 -8.335801999999999,42.077811,5000 -8.335969,42.078015,5000 -8.336152,42.078203,5000 -8.336328999999999,42.078405,5000 -8.336541,42.078592,5000 -8.336676000000001,42.078748,5000 -8.336753,42.078702,5000 -8.336843,42.078657,5000 -8.336961000000001,42.078615,5000 -8.33713,42.078592,5000 -8.337221,42.07861,5000 -8.337377,42.078694,5000 -8.337463,42.078778,5000 -8.337628,42.078975,5000 -8.337679,42.079048,5000 -8.337745999999999,42.079161,5000 -8.337872000000001,42.079366,5000 -8.337961,42.079561,5000 -8.338074000000001,42.079737,5000 -8.338193,42.079893,5000 -8.338387000000001,42.080037,5000 -8.338568,42.080127,5000 -8.338725,42.080179,5000 -8.338969000000001,42.080248,5000 -8.339524000000001,42.08039,5000 -8.339808,42.080426,5000 -8.340113000000001,42.080419,5000 -8.340452000000001,42.080385,5000 -8.340843,42.080318,5000 -8.341063,42.080217,5000 -8.341167,42.080138,5000 -8.34127,42.080032,5000 -8.341336,42.079962,5000 -8.341443999999999,42.079863,5000 -8.341627000000001,42.079744,5000 -8.341894999999999,42.079635,5000 -8.342105,42.079573,5000 -8.342138,42.079571,5000 -8.342254000000001,42.079606,5000 -8.342336,42.079735,5000 -8.342337000000001,42.079761,5000 -8.342332000000001,42.07982,5000 -8.342328,42.079854,5000 -8.342309999999999,42.079928,5000 -8.342305,42.080161,5000 -8.342305,42.080393,5000 -8.342317,42.080626,5000 -8.342342,42.080858,5000 -8.34235,42.081096,5000 -8.342337000000001,42.081351,5000 -8.342320000000001,42.08142,5000 -8.342219,42.081645,5000 -8.342053,42.081867,5000 -8.341825999999999,42.082096,5000 -8.3416,42.08226,5000 -8.341396,42.082421,5000 -8.341203,42.082618,5000 -8.340989,42.082797,5000 -8.340781,42.08299,5000 -8.340579,42.083157,5000 -8.340351,42.083334,5000 -8.340138,42.083505,5000 -8.340009999999999,42.083595,5000 -8.339790000000001,42.083771,5000 -8.339561,42.083931,5000 -8.339536000000001,42.083947,5000 -8.339464,42.084176,5000 -8.339748,42.084256,5000 -8.340002,42.084365,5000 -8.340258,42.084563,5000 -8.340591,42.084642,5000 -8.342006,42.084627,5000 -8.342745000000001,42.084748,5000 -8.343064,42.084895,5000 -8.343451,42.085171,5000 -8.343776,42.08532,5000 -8.344355999999999,42.085433,5000 -8.345026000000001,42.085648,5000 -8.346403,42.086227,5000 -8.347408,42.086848,5000 -8.347891000000001,42.087095,5000 -8.348255,42.087451,5000 -8.348658,42.08802,5000 -8.349254,42.088185,5000 -8.350009999999999,42.088236,5000 -8.351191999999999,42.088251,5000 -8.351471,42.088457,5000 -8.352518999999999,42.089461,5000 -8.353368,42.089794,5000 -8.354186,42.089908,5000 -8.355145,42.090113,5000 -8.356619999999999,42.090288,5000 -8.357879000000001,42.090131,5000 -8.358853,42.089801,5000 -8.360201999999999,42.089689,5000 -8.36125,42.090033,5000 -8.361331,42.09006,5000 -8.362513999999999,42.090518,5000 -8.36317,42.090459,5000 -8.363871,42.090164,5000 -8.364520000000001,42.089979,5000 -8.365677,42.089516,5000 -8.366702,42.088997,5000 -8.367573999999999,42.088656,5000 -8.368727,42.088447,5000 -8.370150000000001,42.088453,5000 -8.371057,42.088329,5000 -8.371460000000001,42.088001,5000 -8.371641,42.087559,5000 -8.371714000000001,42.086585,5000 -8.371959,42.086242,5000 -8.372328,42.08589,5000 -8.372944,42.085389,5000 -8.373568000000001,42.085122,5000 -8.374485999999999,42.084798,5000 -8.375078999999999,42.084337,5000 -8.375362000000001,42.083796,5000 -8.375627,42.082271,5000 -8.376336,42.081238,5000 -8.376889,42.081027,5000 -8.377043,42.080837,5000 -8.377164,42.080433,5000 -8.377848,42.079614,5000 -8.378527999999999,42.078956,5000 -8.379205000000001,42.078529,5000 -8.379967000000001,42.078136,5000 -8.381027,42.076996,5000 
						</coordinates>
					</LinearRing>
				</outerBoundaryIs>
			</Polygon>
		</MultiGeometry>
		<atom:link rel="app" href="https://www.google.com/earth/about/versions/#earth-pro" title="Google Earth Pro 7.3.7.1155"></atom:link>
	</Placemark>
</Document>
</kml>
