<?xml version="1.0" encoding="UTF-8"?>
<kml xmlns="http://www.opengis.net/kml/2.2" xmlns:gx="http://www.google.com/kml/ext/2.2" xmlns:kml="http://www.opengis.net/kml/2.2" xmlns:atom="http://www.w3.org/2005/Atom">
<Document>
	<name>Ponte da Barca.kml</name>
	<Style id="PolyStyle000001">
		<LabelStyle>
			<color>ff000000</color>
			<scale>1.2</scale>
		</LabelStyle>
		<LineStyle>
			<color>ff0000ff</color>
			<width>2</width>
		</LineStyle>
		<PolyStyle>
			<color>4dffffff</color>
		</PolyStyle>
	</Style>
	<Style id="PolyStyle00005">
		<LabelStyle>
			<color>ff000000</color>
			<scale>1.2</scale>
		</LabelStyle>
		<LineStyle>
			<color>ff0000ff</color>
			<width>2</width>
		</LineStyle>
		<PolyStyle>
			<color>4dffffff</color>
		</PolyStyle>
	</Style>
	<StyleMap id="PolyStyle00183">
		<Pair>
			<key>normal</key>
			<styleUrl>#PolyStyle00005</styleUrl>
		</Pair>
		<Pair>
			<key>highlight</key>
			<styleUrl>#PolyStyle000001</styleUrl>
		</Pair>
	</StyleMap>
	<Placemark>
		<name>Ponte da Barca</name>
		<Snippet maxLines="0"></Snippet>
		<styleUrl>#PolyStyle00183</styleUrl>
		<MultiGeometry>
			<extrude>1</extrude>
			<Polygon>
				<extrude>1</extrude>
				<tessellate>1</tessellate>
				<outerBoundaryIs>
					<LinearRing>
						<coordinates>
							-8.252988999999999,41.86186,5000 -8.253375,41.861882,5000 -8.253809,41.861899,5000 -8.254189999999999,41.86193,5000 -8.254643,41.861961,5000 -8.255098,41.861984,5000 -8.255499,41.861976,5000 -8.255922999999999,41.861961,5000 -8.256323999999999,41.861902,5000 -8.256384000000001,41.861888,5000 -8.258870999999999,41.861518,5000 -8.259444,41.861449,5000 -8.259887000000001,41.86132,5000 -8.260339999999999,41.861099,5000 -8.261034,41.860608,5000 -8.261582000000001,41.860238,5000 -8.262401000000001,41.859735,5000 -8.262998,41.859433,5000 -8.263432999999999,41.85929,5000 -8.264157000000001,41.859121,5000 -8.264563000000001,41.85915,5000 -8.265200999999999,41.859326,5000 -8.2659,41.859526,5000 -8.266475,41.859628,5000 -8.267087,41.859691,5000 -8.267491,41.859765,5000 -8.268158,41.859862,5000 -8.268851,41.859932,5000 -8.269482999999999,41.859916,5000 -8.270334,41.859809,5000 -8.271087,41.859642,5000 -8.271832,41.859465,5000 -8.272513999999999,41.85948,5000 -8.273287,41.859545,5000 -8.273815000000001,41.859611,5000 -8.274399000000001,41.859752,5000 -8.274437000000001,41.859759,5000 -8.274518,41.859773,5000 -8.27453,41.859774,5000 -8.274855000000001,41.859796,5000 -8.275003999999999,41.859785,5000 -8.275033000000001,41.859782,5000 -8.275067999999999,41.85978,5000 -8.275274,41.859764,5000 -8.275512000000001,41.859731,5000 -8.275759000000001,41.859712,5000 -8.275925000000001,41.859697,5000 -8.276221,41.85964,5000 -8.276508,41.859557,5000 -8.276823,41.859443,5000 -8.277058,41.859393,5000 -8.277409,41.85927,5000 -8.277602999999999,41.859209,5000 -8.277709,41.859177,5000 -8.277984,41.859103,5000 -8.278401000000001,41.858989,5000 -8.278784,41.858878,5000 -8.279192,41.858768,5000 -8.279719999999999,41.858632,5000 -8.279976,41.858565,5000 -8.280346,41.858479,5000 -8.280953,41.858347,5000 -8.281499999999999,41.858204,5000 -8.28181,41.858114,5000 -8.282211999999999,41.857981,5000 -8.28224,41.857974,5000 -8.282396,41.857927,5000 -8.282755999999999,41.857825,5000 -8.283207000000001,41.857678,5000 -8.283531,41.857539,5000 -8.28392,41.857361,5000 -8.284395999999999,41.857085,5000 -8.284431,41.857065,5000 -8.284506,41.857021,5000 -8.284697,41.856892,5000 -8.285000999999999,41.856672,5000 -8.285178,41.856529,5000 -8.285455000000001,41.856341,5000 -8.285883999999999,41.856162,5000 -8.285995,41.856116,5000 -8.286154,41.856033,5000 -8.286549000000001,41.855805,5000 -8.286823999999999,41.855609,5000 -8.287159000000001,41.855302,5000 -8.287393,41.854992,5000 -8.287499,41.854768,5000 -8.287642,41.854568,5000 -8.287796,41.854238,5000 -8.287951,41.853883,5000 -8.288046,41.853537,5000 -8.288081999999999,41.853215,5000 -8.288114999999999,41.852972,5000 -8.288149000000001,41.852817,5000 -8.288192,41.852277,5000 -8.288223,41.851739,5000 -8.288226999999999,41.851263,5000 -8.288219,41.850874,5000 -8.288185,41.850448,5000 -8.288175000000001,41.850195,5000 -8.288169,41.850009,5000 -8.288214999999999,41.849444,5000 -8.288295,41.848848,5000 -8.288372000000001,41.848243,5000 -8.288437,41.847795,5000 -8.288444,41.847771,5000 -8.288456,41.847639,5000 -8.288518,41.847032,5000 -8.288563999999999,41.846562,5000 -8.288587,41.84612,5000 -8.288595000000001,41.845784,5000 -8.288683000000001,41.845416,5000 -8.288717,41.84527,5000 -8.288767999999999,41.845104,5000 -8.288878,41.844917,5000 -8.289161999999999,41.844574,5000 -8.28973,41.844172,5000 -8.290024000000001,41.844037,5000 -8.290357999999999,41.843902,5000 -8.290545,41.84385,5000 -8.290721,41.843773,5000 -8.291123000000001,41.843615,5000 -8.291491000000001,41.843507,5000 -8.291663,41.843462,5000 -8.291945,41.84339,5000 -8.29228,41.84328,5000 -8.292714,41.843177,5000 -8.293191999999999,41.843067,5000 -8.293431999999999,41.843008,5000 -8.293889999999999,41.842834,5000 -8.294195,41.842634,5000 -8.294559,41.842396,5000 -8.294791999999999,41.842223,5000 -8.295242,41.841889,5000 -8.295432,41.841692,5000 -8.295446999999999,41.841682,5000 -8.295604000000001,41.84156,5000 -8.295852,41.841274,5000 -8.296115,41.84092,5000 -8.296334999999999,41.840677,5000 -8.296604,41.840399,5000 -8.296925,41.840114,5000 -8.297102000000001,41.839966,5000 -8.297283999999999,41.839766,5000 -8.297383,41.839626,5000 -8.297473,41.839527,5000 -8.297573999999999,41.83932,5000 -8.297686000000001,41.839059,5000 -8.297777999999999,41.838767,5000 -8.29791,41.838452,5000 -8.298063000000001,41.838179,5000 -8.298287999999999,41.837876,5000 -8.298605,41.837487,5000 -8.298823000000001,41.837211,5000 -8.299015000000001,41.836971,5000 -8.299115,41.836858,5000 -8.299308999999999,41.836661,5000 -8.299588,41.836381,5000 -8.299855000000001,41.83622,5000 -8.300293,41.836031,5000 -8.300776000000001,41.835788,5000 -8.301124,41.835554,5000 -8.301314,41.835379,5000 -8.301481000000001,41.835229,5000 -8.301752,41.83499,5000 -8.302084000000001,41.834619,5000 -8.302358,41.834319,5000 -8.302564,41.834079,5000 -8.302864,41.833786,5000 -8.303210999999999,41.833522,5000 -8.303565000000001,41.833267,5000 -8.303898,41.833051,5000 -8.303988,41.832991,5000 -8.304213000000001,41.832833,5000 -8.304543000000001,41.832546,5000 -8.305158,41.831859,5000 -8.306138000000001,41.831123,5000 -8.307836,41.830072,5000 -8.309307,41.829139,5000 -8.310143,41.82861,5000 -8.311512,41.827939,5000 -8.313169,41.827258,5000 -8.315028,41.827029,5000 -8.315215,41.826999,5000 -8.317007,41.826712,5000 -8.318267000000001,41.826512,5000 -8.319483999999999,41.826155,5000 -8.320173,41.825934,5000 -8.320627,41.825894,5000 -8.320857,41.8259,5000 -8.321160000000001,41.825904,5000 -8.321337,41.825898,5000 -8.321873,41.825881,5000 -8.322329999999999,41.825927,5000 -8.322613,41.825918,5000 -8.323413,41.825933,5000 -8.324108000000001,41.825938,5000 -8.324667,41.825762,5000 -8.325310999999999,41.825447,5000 -8.325956,41.825207,5000 -8.326631000000001,41.824842,5000 -8.327162,41.824614,5000 -8.327596,41.824356,5000 -8.328082,41.824109,5000 -8.328329999999999,41.823958,5000 -8.328804,41.82349,5000 -8.328885,41.823224,5000 -8.329015999999999,41.82288,5000 -8.329075,41.822495,5000 -8.329050000000001,41.821988,5000 -8.329140000000001,41.821762,5000 -8.329212999999999,41.821599,5000 -8.329408000000001,41.8213,5000 -8.329509,41.821146,5000 -8.329755,41.820914,5000 -8.330170000000001,41.820757,5000 -8.330681,41.820663,5000 -8.331276000000001,41.820573,5000 -8.331556000000001,41.820578,5000 -8.331797,41.820573,5000 -8.33215,41.820449,5000 -8.332468,41.820285,5000 -8.33282,41.819713,5000 -8.333,41.818962,5000 -8.333048,41.818609,5000 -8.333048,41.818285,5000 -8.33305,41.817972,5000 -8.333050999999999,41.817628,5000 -8.333045,41.81685,5000 -8.333074999999999,41.816494,5000 -8.333121,41.816072,5000 -8.333278999999999,41.815722,5000 -8.333541,41.815444,5000 -8.333913000000001,41.815248,5000 -8.334035,41.815183,5000 -8.33441,41.815024,5000 -8.334901,41.814877,5000 -8.335334,41.814753,5000 -8.335813,41.814639,5000 -8.336359,41.814538,5000 -8.336762999999999,41.814462,5000 -8.337235,41.814405,5000 -8.337609,41.814358,5000 -8.338169000000001,41.814285,5000 -8.339978,41.814165,5000 -8.340581999999999,41.814163,5000 -8.340883,41.814125,5000 -8.34126,41.814011,5000 -8.341526999999999,41.813826,5000 -8.341761999999999,41.813583,5000 -8.34207,41.81327,5000 -8.342362,41.813055,5000 -8.342707000000001,41.812792,5000 -8.343662999999999,41.812481,5000 -8.344321000000001,41.812464,5000 -8.344946,41.812447,5000 -8.345846,41.812522,5000 -8.346473,41.812653,5000 -8.347258,41.812799,5000 -8.347541,41.81283,5000 -8.347557,41.812831,5000 -8.347569999999999,41.812832,5000 -8.348102000000001,41.812888,5000 -8.348971000000001,41.812922,5000 -8.349849000000001,41.812909,5000 -8.350814,41.812883,5000 -8.35202,41.812802,5000 -8.353096000000001,41.812711,5000 -8.354079,41.812646,5000 -8.354293999999999,41.81264,5000 -8.354725999999999,41.812621,5000 -8.355199000000001,41.812586,5000 -8.355756,41.812557,5000 -8.356125,41.812535,5000 -8.356577,41.812521,5000 -8.357093000000001,41.812507,5000 -8.357632000000001,41.812494,5000 -8.358040000000001,41.812469,5000 -8.358492999999999,41.812412,5000 -8.359214,41.812302,5000 -8.359526000000001,41.812255,5000 -8.359881,41.812144,5000 -8.360092,41.812013,5000 -8.360234999999999,41.811835,5000 -8.360300000000001,41.811665,5000 -8.360412999999999,41.81146,5000 -8.360588,41.811305,5000 -8.360844,41.811181,5000 -8.361090000000001,41.811142,5000 -8.361433999999999,41.811152,5000 -8.361796999999999,41.811216,5000 -8.362111000000001,41.811285,5000 -8.362591999999999,41.811367,5000 -8.363001000000001,41.811415,5000 -8.363446,41.811423,5000 -8.363989,41.811409,5000 -8.364501000000001,41.811395,5000 -8.365116,41.811379,5000 -8.365788,41.81132,5000 -8.366129000000001,41.811265,5000 -8.366243000000001,41.811246,5000 -8.366591,41.811144,5000 -8.366841000000001,41.81102,5000 -8.367010000000001,41.810866,5000 -8.367158,41.810715,5000 -8.367308,41.81058,5000 -8.367533,41.810454,5000 -8.367779000000001,41.810373,5000 -8.368031999999999,41.810325,5000 -8.368852,41.810218,5000 -8.369232999999999,41.810193,5000 -8.369603,41.81017,5000 -8.369891000000001,41.81015,5000 -8.370267,41.810138,5000 -8.370619,41.810133,5000 -8.370960999999999,41.810175,5000 -8.371219999999999,41.810297,5000 -8.371432,41.810459,5000 -8.371639999999999,41.810622,5000 -8.371956000000001,41.810809,5000 -8.372391,41.810969,5000 -8.372795,41.811061,5000 -8.373157000000001,41.811162,5000 -8.373419999999999,41.811248,5000 -8.373552999999999,41.811291,5000 -8.373934,41.811392,5000 -8.374278,41.811455,5000 -8.374582,41.811488,5000 -8.374930000000001,41.81151,5000 -8.375253000000001,41.81153,5000 -8.375640000000001,41.811558,5000 -8.376113999999999,41.811579,5000 -8.376543,41.811595,5000 -8.376924000000001,41.81165,5000 -8.377062,41.811679,5000 -8.37758,41.811736,5000 -8.378007999999999,41.811831,5000 -8.378465,41.811957,5000 -8.378819,41.812087,5000 -8.378835,41.812093,5000 -8.379215,41.812267,5000 -8.379588999999999,41.812504,5000 -8.379972,41.812797,5000 -8.380321,41.813127,5000 -8.380627,41.813491,5000 -8.380917999999999,41.813847,5000 -8.381186,41.814224,5000 -8.381489999999999,41.814598,5000 -8.381830000000001,41.814933,5000 -8.382232,41.815314,5000 -8.382659,41.815571,5000 -8.383169000000001,41.815783,5000 -8.383597999999999,41.815874,5000 -8.383877,41.815897,5000 -8.383895000000001,41.815899,5000 -8.384209999999999,41.815925,5000 -8.384838999999999,41.815919,5000 -8.385403,41.815907,5000 -8.386060000000001,41.815822,5000 -8.386645,41.815707,5000 -8.387224,41.815536,5000 -8.387665,41.815329,5000 -8.38801,41.815137,5000 -8.388341,41.814921,5000 -8.388610999999999,41.814699,5000 -8.388735,41.814509,5000 -8.388951,41.814269,5000 -8.389097,41.814041,5000 -8.389281,41.813837,5000 -8.389578999999999,41.813634,5000 -8.389699,41.813585,5000 -8.389994,41.813461,5000 -8.391073,41.813204,5000 -8.391662,41.813118,5000 -8.392253,41.813028,5000 -8.392823,41.812994,5000 -8.393298,41.813001,5000 -8.393606,41.813046,5000 -8.393840000000001,41.81308,5000 -8.394268,41.813152,5000 -8.394792000000001,41.813257,5000 -8.39533,41.813366,5000 -8.395803000000001,41.813487,5000 -8.395973,41.81353,5000 -8.396395,41.813639,5000 -8.397027,41.813813,5000 -8.397451999999999,41.81396,5000 -8.398009999999999,41.814129,5000 -8.3985,41.814268,5000 -8.398614,41.814292,5000 -8.398966,41.814366,5000 -8.399523,41.814413,5000 -8.399972,41.814434,5000 -8.400467000000001,41.814438,5000 -8.401039000000001,41.814468,5000 -8.401574999999999,41.814516,5000 -8.402061,41.814521,5000 -8.402167,41.814512,5000 -8.402592,41.814478,5000 -8.402998,41.814399,5000 -8.403337000000001,41.814274,5000 -8.403492,41.81419,5000 -8.40363,41.814116,5000 -8.403817,41.813945,5000 -8.403964,41.813682,5000 -8.404052999999999,41.813406,5000 -8.404121999999999,41.813101,5000 -8.404222000000001,41.812754,5000 -8.404317000000001,41.812423,5000 -8.404388000000001,41.811972,5000 -8.404477999999999,41.811528,5000 -8.404617999999999,41.811133,5000 -8.404776,41.81079,5000 -8.404945,41.810462,5000 -8.405155000000001,41.810189,5000 -8.405428000000001,41.809956,5000 -8.405735,41.809774,5000 -8.406082,41.809614,5000 -8.406485,41.809449,5000 -8.40696,41.809219,5000 -8.407353000000001,41.808995,5000 -8.407633000000001,41.808808,5000 -8.407807,41.808691,5000 -8.408220999999999,41.808407,5000 -8.408668,41.808157,5000 -8.409431,41.807873,5000 -8.410043999999999,41.807812,5000 -8.410764,41.80783,5000 -8.411431,41.807988,5000 -8.412419999999999,41.808545,5000 -8.413517000000001,41.809261,5000 -8.414159,41.809778,5000 -8.415013999999999,41.810175,5000 -8.415521999999999,41.810453,5000 -8.415948999999999,41.810612,5000 -8.41638,41.810639,5000 -8.416563,41.81065,5000 -8.417016,41.810529,5000 -8.417228,41.810369,5000 -8.417813000000001,41.810008,5000 -8.418665000000001,41.809767,5000 -8.419183,41.809676,5000 -8.420051000000001,41.809524,5000 -8.420958000000001,41.809522,5000 -8.422371999999999,41.809678,5000 -8.423304999999999,41.809615,5000 -8.423916999999999,41.809314,5000 -8.424246999999999,41.80896,5000 -8.424606000000001,41.808574,5000 -8.425428,41.807534,5000 -8.425746999999999,41.807154,5000 -8.425852000000001,41.806835,5000 -8.426171,41.806634,5000 -8.426970000000001,41.806453,5000 -8.428089,41.80625,5000 -8.428967999999999,41.806128,5000 -8.429902,41.806205,5000 -8.430623000000001,41.806443,5000 -8.431369999999999,41.806501,5000 -8.431991,41.806444,5000 -8.432036,41.80644,5000 -8.432992,41.806251,5000 -8.433496,41.806087,5000 -8.434010000000001,41.805975,5000 -8.434568000000001,41.805912,5000 -8.435150999999999,41.805934,5000 -8.435617000000001,41.80601,5000 -8.4361,41.806078,5000 -8.436546,41.806089,5000 -8.436674999999999,41.806083,5000 -8.437054,41.806067,5000 -8.437633999999999,41.805991,5000 -8.438140000000001,41.805929,5000 -8.438689999999999,41.805867,5000 -8.439315000000001,41.805795,5000 -8.439959,41.805728,5000 -8.440618000000001,41.805702,5000 -8.441219,41.805699,5000 -8.441865,41.80565,5000 -8.442424000000001,41.80555,5000 -8.443009,41.805477,5000 -8.443671,41.805463,5000 -8.444174,41.805494,5000 -8.444762000000001,41.805626,5000 -8.444883000000001,41.805657,5000 -8.445356,41.805778,5000 -8.44594,41.805956,5000 -8.446479,41.806128,5000 -8.446989,41.806241,5000 -8.447289,41.806284,5000 -8.447516999999999,41.806317,5000 -8.447951,41.80633,5000 -8.448543000000001,41.806315,5000 -8.449101000000001,41.806207,5000 -8.44956,41.80605,5000 -8.449985,41.805843,5000 -8.450407999999999,41.805594,5000 -8.450924000000001,41.805344,5000 -8.451549,41.805136,5000 -8.452299999999999,41.804962,5000 -8.453093000000001,41.804788,5000 -8.453884,41.804643,5000 -8.454684,41.804509,5000 -8.455560999999999,41.804345,5000 -8.456402000000001,41.804146,5000 -8.457238,41.803903,5000 -8.458057,41.803678,5000 -8.458834,41.803466,5000 -8.459775,41.803213,5000 -8.46027,41.803127,5000 -8.46067,41.803057,5000 -8.461693,41.802935,5000 -8.462669,41.80283,5000 -8.463437000000001,41.802816,5000 -8.464331,41.802807,5000 -8.465247,41.802737,5000 -8.466255,41.80261,5000 -8.467036999999999,41.802482,5000 -8.467109000000001,41.80247,5000 -8.468106000000001,41.80237,5000 -8.469021,41.802286,5000 -8.469377,41.802229,5000 -8.469645,41.802186,5000 -8.470516,41.802098,5000 -8.471850999999999,41.801832,5000 -8.472396,41.801677,5000 -8.47259,41.801576,5000 -8.47298,41.801373,5000 -8.473532000000001,41.80082,5000 -8.473748000000001,41.800344,5000 -8.473857000000001,41.799894,5000 -8.474000999999999,41.799408,5000 -8.474178,41.798876,5000 -8.474478,41.7984,5000 -8.475778,41.797115,5000 -8.476661,41.796524,5000 -8.477264,41.796091,5000 -8.477660999999999,41.795712,5000 -8.478116999999999,41.795259,5000 -8.477198,41.79387,5000 -8.476901,41.793455,5000 -8.475262000000001,41.791479,5000 -8.472125,41.788327,5000 -8.472364000000001,41.786782,5000 -8.47237,41.786748,5000 -8.473637999999999,41.783493,5000 -8.474157,41.782102,5000 -8.475315,41.779485,5000 -8.475951999999999,41.778895,5000 -8.477342999999999,41.777834,5000 -8.478194999999999,41.776929,5000 -8.478339999999999,41.776458,5000 -8.479618,41.773316,5000 -8.479865,41.771918,5000 -8.479888000000001,41.771788,5000 -8.479664,41.771543,5000 -8.479229,41.771216,5000 -8.478626999999999,41.770775,5000 -8.478336000000001,41.770638,5000 -8.477841,41.770394,5000 -8.477510000000001,41.770484,5000 -8.477179,41.770498,5000 -8.476858999999999,41.770501,5000 -8.476533,41.770475,5000 -8.476195000000001,41.770395,5000 -8.476107000000001,41.770369,5000 -8.475785,41.77017,5000 -8.47575,41.770141,5000 -8.475572,41.769925,5000 -8.475368,41.769732,5000 -8.475132,41.769561,5000 -8.475103000000001,41.769548,5000 -8.474983999999999,41.769491,5000 -8.474831,41.769447,5000 -8.474676000000001,41.769403,5000 -8.474663,41.769402,5000 -8.474498000000001,41.769398,5000 -8.474186,41.769407,5000 -8.473838000000001,41.76942,5000 -8.473776000000001,41.769418,5000 -8.473713,41.769412,5000 -8.473655000000001,41.769402,5000 -8.473597,41.769387,5000 -8.473545,41.769368,5000 -8.473326999999999,41.769197,5000 -8.473300999999999,41.769163,5000 -8.473281999999999,41.769128,5000 -8.473271,41.769091,5000 -8.473265,41.769051,5000 -8.473267,41.76901,5000 -8.473195,41.768512,5000 -8.473001,41.768349,5000 -8.472772000000001,41.768181,5000 -8.472562999999999,41.76803,5000 -8.472287,41.767892,5000 -8.471235,41.767948,5000 -8.471048,41.768072,5000 -8.470851,41.768282,5000 -8.470067999999999,41.768471,5000 -8.469825,41.76836,5000 -8.46959,41.768214,5000 -8.469355,41.768074,5000 -8.469116,41.767923,5000 -8.468885999999999,41.767787,5000 -8.468658,41.76764,5000 -8.468444,41.767493,5000 -8.468246000000001,41.767337,5000 -8.468066,41.767131,5000 -8.467903,41.766924,5000 -8.467718,41.766703,5000 -8.46753,41.766486,5000 -8.467357,41.766297,5000 -8.467157,41.766109,5000 -8.466946,41.765927,5000 -8.466682,41.765742,5000 -8.466418000000001,41.765589,5000 -8.466374,41.765567,5000 -8.4665,41.76553,5000 -8.466678999999999,41.765573,5000 -8.46682,41.765553,5000 -8.467027,41.765475,5000 -8.467139,41.765409,5000 -8.467259,41.765254,5000 -8.467366999999999,41.765039,5000 -8.467419,41.764857,5000 -8.467444,41.764668,5000 -8.467525,41.764464,5000 -8.467677,41.764276,5000 -8.467803,41.764062,5000 -8.467878000000001,41.763874,5000 -8.467791,41.763672,5000 -8.467696999999999,41.763499,5000 -8.467654,41.763378,5000 -8.467587,41.76325,5000 -8.467516,41.763185,5000 -8.467495,41.763187,5000 -8.467452,41.763079,5000 -8.467418,41.762927,5000 -8.467385999999999,41.762794,5000 -8.467338,41.762656,5000 -8.467279,41.762514,5000 -8.467321,41.762347,5000 -8.467453000000001,41.762235,5000 -8.467646,41.762126,5000 -8.467803999999999,41.76203,5000 -8.467929,41.761894,5000 -8.467992000000001,41.761763,5000 -8.468040999999999,41.761628,5000 -8.468121,41.761545,5000 -8.468215000000001,41.761548,5000 -8.468310000000001,41.761568,5000 -8.468392,41.761543,5000 -8.46841,41.76144,5000 -8.468419000000001,41.761349,5000 -8.468486,41.761248,5000 -8.468518,41.761137,5000 -8.468444,41.760948,5000 -8.468451,41.760819,5000 -8.468593,41.760675,5000 -8.468896000000001,41.760473,5000 -8.469086000000001,41.760338,5000 -8.469272,41.760171,5000 -8.469386,41.760009,5000 -8.469503,41.759839,5000 -8.469659999999999,41.759677,5000 -8.469684000000001,41.759578,5000 -8.469586,41.759504,5000 -8.469381,41.759515,5000 -8.469196,41.759572,5000 -8.469011999999999,41.759577,5000 -8.468997,41.759475,5000 -8.469078,41.75931,5000 -8.469132,41.759088,5000 -8.46912,41.758907,5000 -8.468992,41.758761,5000 -8.468800999999999,41.758642,5000 -8.468734,41.758484,5000 -8.468738,41.758299,5000 -8.468654000000001,41.757989,5000 -8.468676,41.757793,5000 -8.468636999999999,41.75765,5000 -8.468645,41.757513,5000 -8.468650999999999,41.757341,5000 -8.468641,41.756898,5000 -8.468693,41.756698,5000 -8.46871,41.756524,5000 -8.468643,41.75635,5000 -8.468619,41.756196,5000 -8.468665,41.756074,5000 -8.468738,41.755967,5000 -8.468731999999999,41.755882,5000 -8.468617999999999,41.755816,5000 -8.468484,41.75575,5000 -8.468323,41.755682,5000 -8.468227000000001,41.755638,5000 -8.468128,41.755561,5000 -8.468061000000001,41.755474,5000 -8.46804,41.755379,5000 -8.468036,41.755249,5000 -8.468031,41.755116,5000 -8.468003,41.755006,5000 -8.468055,41.754918,5000 -8.46809,41.754803,5000 -8.468246000000001,41.754663,5000 -8.468461,41.754551,5000 -8.468674999999999,41.754457,5000 -8.468921,41.754362,5000 -8.469175,41.754241,5000 -8.469302000000001,41.754115,5000 -8.469448,41.753925,5000 -8.4695,41.753788,5000 -8.469498,41.753692,5000 -8.469445,41.753568,5000 -8.469389,41.753418,5000 -8.469385000000001,41.753216,5000 -8.469393,41.753,5000 -8.469393,41.752715,5000 -8.469405,41.752362,5000 -8.469455,41.752067,5000 -8.469502,41.751834,5000 -8.469576,41.751622,5000 -8.469709,41.75144,5000 -8.46974,41.751395,5000 -8.469783,41.751319,5000 -8.469792,41.749995,5000 -8.469927999999999,41.748926,5000 -8.470019000000001,41.74869,5000 -8.470179,41.74843,5000 -8.470406000000001,41.74822,5000 -8.470651,41.748018,5000 -8.47096,41.747813,5000 -8.471188,41.747704,5000 -8.471292999999999,41.747667,5000 -8.471398000000001,41.747373,5000 -8.47184,41.746134,5000 -8.473431,41.745806,5000 -8.473966000000001,41.745176,5000 -8.474881999999999,41.743926,5000 -8.475203,41.743273,5000 -8.475187,41.742193,5000 -8.47518,41.742173,5000 -8.475171,41.742151,5000 -8.47508,41.742009,5000 -8.475059,41.741969,5000 -8.475054999999999,41.741928,5000 -8.475069,41.741886,5000 -8.475099999999999,41.74182,5000 -8.475167000000001,41.741594,5000 -8.475206999999999,41.741365,5000 -8.475225999999999,41.741124,5000 -8.475282999999999,41.74089,5000 -8.475379,41.740748,5000 -8.475441999999999,41.740521,5000 -8.475441999999999,41.740294,5000 -8.475432,41.74025,5000 -8.475415999999999,41.740208,5000 -8.475395000000001,41.74017,5000 -8.475274000000001,41.740042,5000 -8.475125999999999,41.739893,5000 -8.474425,41.739469,5000 -8.473198,41.738818,5000 -8.472408,41.738133,5000 -8.468017,41.735921,5000 -8.466862000000001,41.735399,5000 -8.465358,41.734641,5000 -8.463308,41.733447,5000 -8.462802999999999,41.733198,5000 -8.461506,41.732297,5000 -8.458596999999999,41.733799,5000 -8.455310000000001,41.735194,5000 -8.454198,41.735747,5000 -8.454132,41.739691,5000 -8.454048999999999,41.739779,5000 -8.454032,41.73995,5000 -8.454078000000001,41.740392,5000 -8.454102000000001,41.740703,5000 -8.453906,41.740932,5000 -8.453405999999999,41.741311,5000 -8.453093000000001,41.741536,5000 -8.452871999999999,41.741704,5000 -8.452642000000001,41.741851,5000 -8.452411,41.741996,5000 -8.452286000000001,41.742083,5000 -8.452252,41.742101,5000 -8.452225,41.742111,5000 -8.452187,41.74212,5000 -8.452145,41.742122,5000 -8.451838,41.742085,5000 -8.451625999999999,41.742016,5000 -8.451589,41.742011,5000 -8.451290999999999,41.74202,5000 -8.451000000000001,41.742084,5000 -8.450656,41.742085,5000 -8.450327,41.742061,5000 -8.449989,41.742051,5000 -8.449688999999999,41.742127,5000 -8.44941,41.742215,5000 -8.449147,41.742365,5000 -8.448911000000001,41.742533,5000 -8.448658999999999,41.742686,5000 -8.448388,41.742809,5000 -8.448307,41.742826,5000 -8.448005999999999,41.742879,5000 -8.447967,41.742893,5000 -8.447929999999999,41.742911,5000 -8.447896999999999,41.74293,5000 -8.447867,41.742951,5000 -8.447817000000001,41.742997,5000 -8.447744999999999,41.743092,5000 -8.447469999999999,41.743284,5000 -8.44722,41.743435,5000 -8.44697,41.74359,5000 -8.446702,41.743728,5000 -8.446436,41.743815,5000 -8.446334,41.743842,5000 -8.446306999999999,41.74385,5000 -8.446282999999999,41.74386,5000 -8.446120000000001,41.743949,5000 -8.446020000000001,41.744016,5000 -8.445978,41.744057,5000 -8.445842000000001,41.74424,5000 -8.445672999999999,41.74444,5000 -8.445461,41.744619,5000 -8.445252999999999,41.744802,5000 -8.445062999999999,41.744979,5000 -8.444944,41.745409,5000 -8.444763999999999,41.745773,5000 -8.444497,41.746089,5000 -8.444362999999999,41.746284,5000 -8.444198999999999,41.746498,5000 -8.444102000000001,41.746634,5000 -8.444084999999999,41.74667,5000 -8.44408,41.746692,5000 -8.444051,41.746766,5000 -8.443906999999999,41.746936,5000 -8.443711,41.747149,5000 -8.443078999999999,41.747478,5000 -8.442557000000001,41.747594,5000 -8.442526000000001,41.747601,5000 -8.442488000000001,41.747616,5000 -8.442444999999999,41.747629,5000 -8.442396,41.747634,5000 -8.442304999999999,41.747634,5000 -8.442273,41.747632,5000 -8.442242,41.747626,5000 -8.442176,41.747604,5000 -8.442142,41.747597,5000 -8.442104,41.747599,5000 -8.442064,41.747607,5000 -8.441782,41.747705,5000 -8.441673,41.747728,5000 -8.44163,41.747729,5000 -8.441401000000001,41.747715,5000 -8.441352999999999,41.747706,5000 -8.441307999999999,41.747695,5000 -8.441039,41.747598,5000 -8.440993000000001,41.74759,5000 -8.440948000000001,41.74759,5000 -8.440758000000001,41.747616,5000 -8.440557,41.747618,5000 -8.440509,41.747615,5000 -8.440186000000001,41.747553,5000 -8.440087,41.747529,5000 -8.440048000000001,41.747521,5000 -8.439741,41.747509,5000 -8.439408,41.747528,5000 -8.439253000000001,41.747528,5000 -8.439220000000001,41.74753,5000 -8.439188,41.747541,5000 -8.439159,41.747558,5000 -8.439135,41.747579,5000 -8.439101000000001,41.747625,5000 -8.438950999999999,41.747765,5000 -8.438915,41.747785,5000 -8.438834999999999,41.747818,5000 -8.438798999999999,41.74784,5000 -8.43873,41.747898,5000 -8.438639999999999,41.747831,5000 -8.438435,41.74772,5000 -8.438316,41.747679,5000 -8.438238999999999,41.747662,5000 -8.438077,41.747698,5000 -8.438046,41.747707,5000 -8.437856,41.747785,5000 -8.437818,41.747792,5000 -8.437780999999999,41.747794,5000 -8.437471,41.74778,5000 -8.437428000000001,41.74778,5000 -8.437386999999999,41.747782,5000 -8.437348999999999,41.747789,5000 -8.437310999999999,41.747799,5000 -8.437275,41.747813,5000 -8.437239999999999,41.74783,5000 -8.437006999999999,41.747998,5000 -8.436748,41.748169,5000 -8.436475,41.748308,5000 -8.436360000000001,41.748367,5000 -8.436144000000001,41.74855,5000 -8.436063000000001,41.748626,5000 -8.436045,41.74865,5000 -8.436031,41.748674,5000 -8.435999000000001,41.748768,5000 -8.435987000000001,41.748883,5000 -8.435967,41.748915,5000 -8.435931,41.748948,5000 -8.43591,41.748965,5000 -8.435860999999999,41.748989,5000 -8.435833000000001,41.748998,5000 -8.435691,41.749021,5000 -8.435658999999999,41.749031,5000 -8.43563,41.749045,5000 -8.435608,41.749064,5000 -8.435591000000001,41.749085,5000 -8.435561,41.749142,5000 -8.435465000000001,41.74927,5000 -8.435335,41.749403,5000 -8.435206000000001,41.749491,5000 -8.435029999999999,41.749575,5000 -8.434787999999999,41.74967,5000 -8.434664,41.749743,5000 -8.434516,41.749869,5000 -8.434419999999999,41.749971,5000 -8.434253,41.750168,5000 -8.434193,41.750165,5000 -8.434051,41.750108,5000 -8.433999,41.750209,5000 -8.433895,41.750378,5000 -8.433821999999999,41.750513,5000 -8.433738,41.750671,5000 -8.433628000000001,41.750844,5000 -8.433495000000001,41.750935,5000 -8.433292,41.751016,5000 -8.433047999999999,41.751049,5000 -8.432885000000001,41.751073,5000 -8.432708999999999,41.751167,5000 -8.432582999999999,41.751283,5000 -8.432383,41.751438,5000 -8.432148,41.75152,5000 -8.431775999999999,41.751539,5000 -8.431504,41.751571,5000 -8.431471,41.751583,5000 -8.431403,41.751609,5000 -8.431324999999999,41.751696,5000 -8.431269,41.751859,5000 -8.431253999999999,41.751991,5000 -8.431246,41.752286,5000 -8.43127,41.752469,5000 -8.431293,41.752607,5000 -8.431326,41.752786,5000 -8.431357,41.75291,5000 -8.431319,41.753042,5000 -8.431171000000001,41.753178,5000 -8.430949999999999,41.753315,5000 -8.430641,41.753616,5000 -8.430638,41.753645,5000 -8.429964999999999,41.753727,5000 -8.428353,41.754151,5000 -8.428290000000001,41.754124,5000 -8.427974000000001,41.754126,5000 -8.427663000000001,41.754148,5000 -8.427371000000001,41.754208,5000 -8.427087999999999,41.754286,5000 -8.426824999999999,41.754356,5000 -8.426716000000001,41.754379,5000 -8.426450000000001,41.754477,5000 -8.426199,41.754578,5000 -8.425951,41.754688,5000 -8.425701999999999,41.754806,5000 -8.425005000000001,41.755036,5000 -8.424728999999999,41.755209,5000 -8.424832,41.755441,5000 -8.424849,41.755495,5000 -8.424868999999999,41.755558,5000 -8.424884,41.755803,5000 -8.424875,41.755875,5000 -8.42483,41.756064,5000 -8.424747999999999,41.756267,5000 -8.424651000000001,41.756538,5000 -8.424652999999999,41.756773,5000 -8.424621999999999,41.756968,5000 -8.424545999999999,41.757135,5000 -8.424542000000001,41.757144,5000 -8.424431999999999,41.757322,5000 -8.424393,41.757416,5000 -8.424372999999999,41.757418,5000 -8.423069999999999,41.757581,5000 -8.422834,41.757493,5000 -8.420503999999999,41.756623,5000 -8.418004,41.757281,5000 -8.416332000000001,41.757753,5000 -8.415419999999999,41.758251,5000 -8.414849999999999,41.75866,5000 -8.414211999999999,41.759029,5000 -8.413641,41.759153,5000 -8.410811000000001,41.759411,5000 -8.409565000000001,41.759525,5000 -8.407404,41.759045,5000 -8.406705000000001,41.75889,5000 -8.403420000000001,41.758161,5000 -8.403126,41.758146,5000 -8.401843,41.758082,5000 -8.401477,41.758132,5000 -8.399723,41.758146,5000 -8.398823999999999,41.757825,5000 -8.396079,41.759958,5000 -8.394617999999999,41.761149,5000 -8.393287000000001,41.761291,5000 -8.391083999999999,41.760794,5000 -8.390599999999999,41.760641,5000 -8.390101,41.760457,5000 -8.389412,41.760292,5000 -8.388755,41.760252,5000 -8.388547000000001,41.760253,5000 -8.388458999999999,41.760253,5000 -8.387969,41.760279,5000 -8.387276,41.760449,5000 -8.386730999999999,41.760663,5000 -8.386269,41.760813,5000 -8.385891000000001,41.761011,5000 -8.385543,41.761173,5000 -8.38532,41.761223,5000 -8.385168999999999,41.761224,5000 -8.384862,41.761259,5000 -8.384566,41.761339,5000 -8.384395,41.761372,5000 -8.384356,41.761374,5000 -8.384321999999999,41.76137,5000 -8.384292,41.761355,5000 -8.384266,41.761331,5000 -8.384166,41.761208,5000 -8.384135000000001,41.761179,5000 -8.384102,41.761153,5000 -8.384067999999999,41.761133,5000 -8.384034,41.761119,5000 -8.383998999999999,41.76111,5000 -8.383964000000001,41.761105,5000 -8.383889999999999,41.761103,5000 -8.383851,41.761104,5000 -8.38381,41.761107,5000 -8.383768,41.761115,5000 -8.383603000000001,41.761168,5000 -8.383459,41.761214,5000 -8.383172,41.76124,5000 -8.383137,41.761245,5000 -8.383103999999999,41.761252,5000 -8.382967000000001,41.761299,5000 -8.382679,41.761385,5000 -8.38264,41.761396,5000 -8.382611000000001,41.761406,5000 -8.382586999999999,41.761399,5000 -8.382403999999999,41.761736,5000 -8.382244999999999,41.761947,5000 -8.382085,41.762198,5000 -8.382042999999999,41.762289,5000 -8.381990999999999,41.762454,5000 -8.381926,41.76259,5000 -8.381807,41.762677,5000 -8.381634,41.762737,5000 -8.381454,41.762827,5000 -8.381349999999999,41.762986,5000 -8.381282000000001,41.763134,5000 -8.381233999999999,41.763258,5000 -8.381145999999999,41.763358,5000 -8.381174,41.76348,5000 -8.381069,41.763528,5000 -8.381014,41.763552,5000 -8.380882,41.763875,5000 -8.380775999999999,41.764119,5000 -8.380539000000001,41.764453,5000 -8.380276,41.764777,5000 -8.379916,41.765169,5000 -8.379619999999999,41.765457,5000 -8.379358999999999,41.765722,5000 -8.379194,41.765937,5000 -8.378811000000001,41.76626,5000 -8.378466,41.766628,5000 -8.378086,41.766963,5000 -8.377661,41.767371,5000 -8.377409,41.76762,5000 -8.377195,41.767866,5000 -8.374948,41.770422,5000 -8.371214,41.770644,5000 -8.370900000000001,41.770099,5000 -8.369415,41.767518,5000 -8.367005000000001,41.766014,5000 -8.365804000000001,41.764726,5000 -8.365353000000001,41.763421,5000 -8.364560000000001,41.762891,5000 -8.361518999999999,41.762912,5000 -8.360383000000001,41.762929,5000 -8.359207,41.762552,5000 -8.357732,41.761089,5000 -8.356490000000001,41.760843,5000 -8.353847999999999,41.761211,5000 -8.353099,41.761186,5000 -8.351808,41.760224,5000 -8.351298999999999,41.759921,5000 -8.350664999999999,41.75979,5000 -8.3497,41.759829,5000 -8.349093,41.760122,5000 -8.343985999999999,41.762588,5000 -8.342352999999999,41.76315,5000 -8.340706000000001,41.763666,5000 -8.339515,41.764125,5000 -8.338425000000001,41.764412,5000 -8.337460999999999,41.764698,5000 -8.336726000000001,41.764681,5000 -8.335836,41.764207,5000 -8.334667,41.763715,5000 -8.334159,41.763583,5000 -8.333602000000001,41.763755,5000 -8.330586,41.764938,5000 -8.330003,41.765016,5000 -8.329419,41.76494,5000 -8.328429,41.764677,5000 -8.327234000000001,41.764146,5000 -8.325077,41.764111,5000 -8.322001,41.764081,5000 -8.321662999999999,41.763986,5000 -8.321656000000001,41.763976,5000 -8.321236000000001,41.763811,5000 -8.320512000000001,41.763577,5000 -8.319974,41.763396,5000 -8.319348,41.763176,5000 -8.318878,41.763009,5000 -8.317525,41.762437,5000 -8.316725,41.762203,5000 -8.315954,41.761991,5000 -8.315056999999999,41.761894,5000 -8.314220000000001,41.761982,5000 -8.314207,41.761983,5000 -8.313832,41.762036,5000 -8.312979,41.762129,5000 -8.312957000000001,41.762128,5000 -8.312241999999999,41.762102,5000 -8.311833,41.762064,5000 -8.311444,41.761995,5000 -8.310454999999999,41.761775,5000 -8.309165,41.761366,5000 -8.308342,41.761107,5000 -8.307555000000001,41.761085,5000 -8.306827,41.761211,5000 -8.305974000000001,41.761528,5000 -8.305092,41.762037,5000 -8.304238,41.762554,5000 -8.303691000000001,41.762998,5000 -8.303221000000001,41.763434,5000 -8.303088000000001,41.76356,5000 -8.301712,41.765146,5000 -8.300654,41.766627,5000 -8.299333000000001,41.768409,5000 -8.299029000000001,41.769086,5000 -8.298905,41.769751,5000 -8.298761000000001,41.77038,5000 -8.298700999999999,41.77221,5000 -8.298767,41.773391,5000 -8.298645,41.774732,5000 -8.298463,41.775691,5000 -8.298254999999999,41.776335,5000 -8.297917999999999,41.777101,5000 -8.297496000000001,41.777924,5000 -8.297026000000001,41.77863,5000 -8.296393,41.779349,5000 -8.295778,41.779973,5000 -8.295127000000001,41.78057,5000 -8.294457,41.780931,5000 -8.294178,41.781032,5000 -8.291549,41.78198,5000 -8.284539000000001,41.778827,5000 -8.280493999999999,41.775731,5000 -8.278378999999999,41.774981,5000 -8.277009,41.772007,5000 -8.274991999999999,41.770896,5000 -8.274797,41.770875,5000 -8.274369999999999,41.770816,5000 -8.273493999999999,41.77086,5000 -8.272268,41.771084,5000 -8.271675,41.771241,5000 -8.270974000000001,41.771472,5000 -8.270346,41.771779,5000 -8.269515999999999,41.772253,5000 -8.268783000000001,41.772725,5000 -8.26812,41.773342,5000 -8.267555,41.77389,5000 -8.266866,41.774478,5000 -8.266624,41.774635,5000 -8.266266999999999,41.774865,5000 -8.261739,41.777784,5000 -8.261711,41.7778,5000 -8.261651000000001,41.777839,5000 -8.261621,41.777865,5000 -8.261483,41.778077,5000 -8.261430000000001,41.778136,5000 -8.261393999999999,41.778166,5000 -8.261164000000001,41.778304,5000 -8.260925,41.778427,5000 -8.260649000000001,41.778517,5000 -8.260375,41.778589,5000 -8.260094,41.778676,5000 -8.259829999999999,41.778744,5000 -8.259748,41.77877,5000 -8.259456,41.778857,5000 -8.258585999999999,41.779122,5000 -8.257256999999999,41.779555,5000 -8.256285,41.779752,5000 -8.254998000000001,41.780058,5000 -8.253575,41.780395,5000 -8.251715000000001,41.780898,5000 -8.24545,41.782941,5000 -8.244139000000001,41.784619,5000 -8.243002000000001,41.787482,5000 -8.240601,41.788904,5000 -8.237185,41.788165,5000 -8.235208999999999,41.787915,5000 -8.231704000000001,41.787455,5000 -8.230373999999999,41.787774,5000 -8.229285000000001,41.788036,5000 -8.229085,41.788208,5000 -8.228896000000001,41.788428,5000 -8.228858000000001,41.788479,5000 -8.228826,41.788534,5000 -8.228721,41.78878,5000 -8.228113,41.789808,5000 -8.227653999999999,41.79055,5000 -8.227269,41.790929,5000 -8.226944,41.791361,5000 -8.226507,41.791887,5000 -8.226115999999999,41.792342,5000 -8.225394,41.79285,5000 -8.224653,41.793248,5000 -8.224087000000001,41.793494,5000 -8.223181,41.793757,5000 -8.222752,41.793958,5000 -8.222187999999999,41.794308,5000 -8.221705,41.794599,5000 -8.221078,41.795128,5000 -8.220534000000001,41.79565,5000 -8.220027,41.79615,5000 -8.219643,41.796672,5000 -8.219184,41.797378,5000 -8.218707999999999,41.797865,5000 -8.218365,41.798183,5000 -8.218221,41.798317,5000 -8.217760999999999,41.798892,5000 -8.216965999999999,41.799619,5000 -8.216334,41.80023,5000 -8.215846000000001,41.800678,5000 -8.215581999999999,41.800898,5000 -8.215331000000001,41.801026,5000 -8.215215000000001,41.801229,5000 -8.214605000000001,41.801777,5000 -8.214046,41.802295,5000 -8.213388999999999,41.802762,5000 -8.212915000000001,41.803058,5000 -8.212035999999999,41.803391,5000 -8.210957000000001,41.803565,5000 -8.210229999999999,41.803697,5000 -8.209889,41.803764,5000 -8.209530000000001,41.803767,5000 -8.209254,41.80373,5000 -8.208987,41.803683,5000 -8.208765,41.803633,5000 -8.208534999999999,41.803685,5000 -8.207991,41.803777,5000 -8.207477000000001,41.803906,5000 -8.206678999999999,41.803906,5000 -8.206205000000001,41.803976,5000 -8.205596999999999,41.804191,5000 -8.205349,41.804551,5000 -8.205232000000001,41.804683,5000 -8.205088,41.804971,5000 -8.204991,41.8052,5000 -8.204927,41.805415,5000 -8.204941,41.805571,5000 -8.204845000000001,41.805732,5000 -8.204641000000001,41.805997,5000 -8.204502,41.806123,5000 -8.204091,41.806652,5000 -8.203981000000001,41.806812,5000 -8.203878,41.807004,5000 -8.20377,41.807156,5000 -8.202914,41.80735,5000 -8.202605999999999,41.807347,5000 -8.20243,41.807355,5000 -8.202126,41.807433,5000 -8.201694,41.807607,5000 -8.201200999999999,41.807816,5000 -8.200991999999999,41.807989,5000 -8.200684000000001,41.808131,5000 -8.200317,41.808264,5000 -8.199938,41.808545,5000 -8.199687000000001,41.808807,5000 -8.199392,41.809217,5000 -8.199367000000001,41.809417,5000 -8.199202,41.809589,5000 -8.199026999999999,41.809701,5000 -8.198904000000001,41.809832,5000 -8.198816000000001,41.809972,5000 -8.198700000000001,41.810099,5000 -8.198575,41.81021,5000 -8.198452,41.810311,5000 -8.198364,41.81052,5000 -8.198366999999999,41.810634,5000 -8.198378,41.810746,5000 -8.198325000000001,41.810887,5000 -8.198193,41.810992,5000 -8.197855000000001,41.81116,5000 -8.197571,41.811273,5000 -8.197348,41.81139,5000 -8.197241,41.811522,5000 -8.19713,41.811673,5000 -8.197003,41.811806,5000 -8.196899999999999,41.81196,5000 -8.196790999999999,41.812109,5000 -8.196669999999999,41.812245,5000 -8.19641,41.812367,5000 -8.196168999999999,41.812487,5000 -8.195643,41.812654,5000 -8.195285999999999,41.812655,5000 -8.194559,41.812537,5000 -8.194188,41.812424,5000 -8.193927,41.812392,5000 -8.193462,41.812303,5000 -8.193206999999999,41.812237,5000 -8.193073,41.812169,5000 -8.193056,41.812065,5000 -8.193085999999999,41.811852,5000 -8.192989000000001,41.811535,5000 -8.192871999999999,41.811256,5000 -8.192736999999999,41.811016,5000 -8.192646999999999,41.810804,5000 -8.192482,41.810636,5000 -8.192209999999999,41.810523,5000 -8.191895000000001,41.810477,5000 -8.191585,41.810393,5000 -8.1914,41.810347,5000 -8.191158,41.810308,5000 -8.190994,41.810298,5000 -8.190811,41.81023,5000 -8.190569,41.810133,5000 -8.190419,41.810061,5000 -8.190208,41.809945,5000 -8.190073999999999,41.809927,5000 -8.189907,41.80992,5000 -8.189401,41.810204,5000 -8.189223999999999,41.810305,5000 -8.189014999999999,41.810402,5000 -8.188879999999999,41.810413,5000 -8.188757000000001,41.810456,5000 -8.188585,41.810522,5000 -8.188415000000001,41.810588,5000 -8.187836000000001,41.810842,5000 -8.186991000000001,41.811224,5000 -8.186446999999999,41.81153,5000 -8.185931999999999,41.811793,5000 -8.185736,41.811899,5000 -8.185484000000001,41.812083,5000 -8.185174999999999,41.812288,5000 -8.184919000000001,41.812413,5000 -8.184642,41.81256,5000 -8.184404000000001,41.812694,5000 -8.184188000000001,41.812764,5000 -8.183973,41.812806,5000 -8.183695999999999,41.812826,5000 -8.183509000000001,41.812817,5000 -8.183298000000001,41.812757,5000 -8.183176,41.81267,5000 -8.183068,41.812529,5000 -8.182987000000001,41.812383,5000 -8.18289,41.812246,5000 -8.182708999999999,41.812165,5000 -8.182464,41.812102,5000 -8.182257999999999,41.812065,5000 -8.182040000000001,41.812015,5000 -8.181875,41.811955,5000 -8.181696000000001,41.811837,5000 -8.181518000000001,41.811725,5000 -8.181285000000001,41.811617,5000 -8.181046,41.811494,5000 -8.180876,41.811371,5000 -8.180659,41.811241,5000 -8.180453,41.81112,5000 -8.180229000000001,41.810954,5000 -8.18,41.810862,5000 -8.179776,41.810779,5000 -8.179592,41.810656,5000 -8.179414,41.810484,5000 -8.179236,41.810268,5000 -8.179073000000001,41.810018,5000 -8.178952000000001,41.809779,5000 -8.178789999999999,41.809523,5000 -8.178666,41.809339,5000 -8.178483,41.809128,5000 -8.178331999999999,41.809039,5000 -8.178074000000001,41.808966,5000 -8.177894,41.808894,5000 -8.177701000000001,41.808751,5000 -8.177474999999999,41.808544,5000 -8.177144,41.808327,5000 -8.176973,41.808231,5000 -8.176723000000001,41.808118,5000 -8.176475,41.808095,5000 -8.176114999999999,41.808108,5000 -8.175805,41.808111,5000 -8.175535,41.808151,5000 -8.175298,41.80822,5000 -8.174913,41.808238,5000 -8.174614,41.808212,5000 -8.174291,41.808153,5000 -8.173990999999999,41.808034,5000 -8.173643,41.80793,5000 -8.173333,41.807846,5000 -8.173031,41.80781,5000 -8.17267,41.807814,5000 -8.172299000000001,41.80779,5000 -8.17196,41.807719,5000 -8.171602999999999,41.807628,5000 -8.171215999999999,41.807605,5000 -8.170945,41.807608,5000 -8.170583000000001,41.807602,5000 -8.170299,41.807596,5000 -8.170013000000001,41.807598,5000 -8.169791999999999,41.807556,5000 -8.169623,41.807473,5000 -8.169447,41.807403,5000 -8.169229,41.807362,5000 -8.169129999999999,41.807346,5000 -8.168669,41.807265,5000 -8.168054,41.807438,5000 -8.167374000000001,41.807618,5000 -8.167087,41.807825,5000 -8.166776,41.808787,5000 -8.165983000000001,41.811307,5000 -8.165032999999999,41.818131,5000 -8.164218999999999,41.825137,5000 -8.164025000000001,41.826897,5000 -8.163795,41.828767,5000 -8.163724,41.829412,5000 -8.163648,41.830399,5000 -8.163455000000001,41.831663,5000 -8.163423,41.832219,5000 -8.163333,41.833869,5000 -8.163294,41.834663,5000 -8.163213000000001,41.836998,5000 -8.163028000000001,41.839908,5000 -8.162834,41.842406,5000 -8.162860999999999,41.842525,5000 -8.162671,41.845411,5000 -8.162611999999999,41.845827,5000 -8.162573,41.847103,5000 -8.162406000000001,41.849925,5000 -8.162248,41.852878,5000 -8.161792,41.860994,5000 -8.162084,41.861091,5000 -8.164645999999999,41.861841,5000 -8.166266,41.862336,5000 -8.166309,41.862327,5000 -8.166264999999999,41.862493,5000 -8.16625,41.862797,5000 -8.166399,41.86333,5000 -8.166418999999999,41.863577,5000 -8.166194000000001,41.863968,5000 -8.166159,41.864214,5000 -8.166191,41.864454,5000 -8.166368,41.864913,5000 -8.166816000000001,41.865836,5000 -8.167001000000001,41.866039,5000 -8.167122000000001,41.866297,5000 -8.167456,41.866669,5000 -8.167555999999999,41.867338,5000 -8.167524,41.867457,5000 -8.167424,41.867577,5000 -8.167389999999999,41.867908,5000 -8.167445000000001,41.868251,5000 -8.167427999999999,41.868403,5000 -8.167559000000001,41.868688,5000 -8.167745999999999,41.868875,5000 -8.167820000000001,41.869059,5000 -8.167980999999999,41.869174,5000 -8.168034,41.869255,5000 -8.168009,41.869675,5000 -8.168248,41.870053,5000 -8.168532000000001,41.870837,5000 -8.168441,41.870969,5000 -8.168415,41.871105,5000 -8.16844,41.871526,5000 -8.168676,41.87213,5000 -8.168977999999999,41.872554,5000 -8.169041,41.873164,5000 -8.168984,41.873363,5000 -8.168988000000001,41.873535,5000 -8.168748000000001,41.873955,5000 -8.168882999999999,41.874713,5000 -8.169126,41.875555,5000 -8.169324,41.876546,5000 -8.17216,41.879544,5000 -8.173539,41.878909,5000 -8.175795000000001,41.877798,5000 -8.177357000000001,41.877153,5000 -8.179149000000001,41.8763,5000 -8.180203000000001,41.875695,5000 -8.181362999999999,41.875301,5000 -8.182171,41.875064,5000 -8.183120000000001,41.875063,5000 -8.185581000000001,41.875325,5000 -8.187702,41.875703,5000 -8.189139000000001,41.876193,5000 -8.190996,41.876782,5000 -8.191837,41.877048,5000 -8.192348000000001,41.877055,5000 -8.192702000000001,41.876947,5000 -8.193125999999999,41.876874,5000 -8.193728999999999,41.876404,5000 -8.194101,41.87597,5000 -8.194762000000001,41.875503,5000 -8.19558,41.875281,5000 -8.196075,41.875154,5000 -8.196531999999999,41.874888,5000 -8.197371,41.874417,5000 -8.198098999999999,41.87418,5000 -8.198456,41.874027,5000 -8.198974,41.873896,5000 -8.199503999999999,41.87388,5000 -8.199783,41.87357,5000 -8.200374,41.873191,5000 -8.200863,41.872918,5000 -8.201209,41.872721,5000 -8.202181,41.872243,5000 -8.202723000000001,41.87209,5000 -8.203011,41.871986,5000 -8.203248,41.871883,5000 -8.203516,41.871788,5000 -8.204096,41.871521,5000 -8.204373,41.871415,5000 -8.204662000000001,41.8713,5000 -8.205054000000001,41.871233,5000 -8.205251000000001,41.871257,5000 -8.205401,41.871285,5000 -8.205657,41.87137,5000 -8.205826,41.871475,5000 -8.205983,41.871633,5000 -8.206162000000001,41.871843,5000 -8.206465,41.872113,5000 -8.206695,41.872247,5000 -8.206989,41.872353,5000 -8.207202000000001,41.872406,5000 -8.207655000000001,41.872408,5000 -8.208071,41.872305,5000 -8.208411,41.872189,5000 -8.208736999999999,41.872076,5000 -8.209091000000001,41.871943,5000 -8.209388000000001,41.871843,5000 -8.209711,41.871747,5000 -8.209944999999999,41.871692,5000 -8.21036,41.871671,5000 -8.210606,41.871735,5000 -8.21092,41.87184,5000 -8.211155,41.871946,5000 -8.211451,41.872092,5000 -8.211767999999999,41.872199,5000 -8.212173,41.872377,5000 -8.212396999999999,41.872482,5000 -8.212675000000001,41.872606,5000 -8.212956,41.872701,5000 -8.213196,41.872749,5000 -8.213437000000001,41.872778,5000 -8.213596000000001,41.872773,5000 -8.213653000000001,41.872771,5000 -8.213843000000001,41.872739,5000 -8.214026,41.87265,5000 -8.214173000000001,41.872522,5000 -8.214259999999999,41.87238,5000 -8.214314,41.872219,5000 -8.21435,41.872043,5000 -8.214340999999999,41.871883,5000 -8.214306000000001,41.871592,5000 -8.214287000000001,41.871351,5000 -8.214299,41.871224,5000 -8.214368,41.87103,5000 -8.214480999999999,41.87089,5000 -8.214665999999999,41.870727,5000 -8.214848999999999,41.87061,5000 -8.215064,41.870522,5000 -8.215348000000001,41.8704,5000 -8.21561,41.870269,5000 -8.215843,41.870156,5000 -8.216086000000001,41.869999,5000 -8.21637,41.869776,5000 -8.216529,41.869611,5000 -8.216613000000001,41.869445,5000 -8.216595,41.869307,5000 -8.216620000000001,41.869129,5000 -8.216658000000001,41.868922,5000 -8.216703000000001,41.868733,5000 -8.216759,41.868512,5000 -8.216837999999999,41.868311,5000 -8.216932,41.868162,5000 -8.217031,41.868023,5000 -8.217167,41.867915,5000 -8.217198,41.867897,5000 -8.217313000000001,41.867832,5000 -8.217506999999999,41.867781,5000 -8.217722,41.867756,5000 -8.217824,41.867773,5000 -8.218086,41.867937,5000 -8.218384,41.868032,5000 -8.218721,41.868082,5000 -8.219074000000001,41.868111,5000 -8.219963,41.868211,5000 -8.220604,41.868383,5000 -8.221484999999999,41.868887,5000 -8.221954,41.869241,5000 -8.222246,41.869466,5000 -8.222529,41.869708,5000 -8.222804999999999,41.869916,5000 -8.223229,41.87005,5000 -8.223573,41.870065,5000 -8.223998999999999,41.870032,5000 -8.224157999999999,41.870095,5000 -8.224489,41.870328,5000 -8.224716000000001,41.870501,5000 -8.224962,41.870725,5000 -8.225263,41.870924,5000 -8.225448999999999,41.871001,5000 -8.225680000000001,41.871046,5000 -8.225947,41.871067,5000 -8.22612,41.871073,5000 -8.226317,41.871067,5000 -8.226350999999999,41.871066,5000 -8.226743000000001,41.871048,5000 -8.226976000000001,41.871036,5000 -8.227198,41.870982,5000 -8.22739,41.870906,5000 -8.227487,41.870845,5000 -8.227595000000001,41.870765,5000 -8.227703999999999,41.87069,5000 -8.227868000000001,41.870553,5000 -8.228009,41.870431,5000 -8.228313999999999,41.870223,5000 -8.228617,41.870089,5000 -8.228897,41.870002,5000 -8.229215,41.869989,5000 -8.229578999999999,41.869963,5000 -8.229825999999999,41.869946,5000 -8.230035000000001,41.869916,5000 -8.230186,41.869837,5000 -8.230328,41.869685,5000 -8.23057,41.869442,5000 -8.230712,41.86926,5000 -8.230762,41.869047,5000 -8.230739,41.868746,5000 -8.230731,41.868524,5000 -8.230987000000001,41.868118,5000 -8.231465,41.867603,5000 -8.231820000000001,41.867491,5000 -8.232211,41.867399,5000 -8.232611,41.867328,5000 -8.233435999999999,41.867107,5000 -8.233915,41.86695,5000 -8.234213,41.86683,5000 -8.234484,41.866693,5000 -8.234696,41.866546,5000 -8.235056,41.866383,5000 -8.235112000000001,41.866358,5000 -8.235436,41.866248,5000 -8.235758000000001,41.866114,5000 -8.236176,41.865901,5000 -8.236490999999999,41.865767,5000 -8.23686,41.865642,5000 -8.237137000000001,41.865522,5000 -8.237522,41.865365,5000 -8.237864999999999,41.865231,5000 -8.238127,41.865133,5000 -8.238472,41.864995,5000 -8.238777000000001,41.864849,5000 -8.239193,41.864663,5000 -8.239509999999999,41.864541,5000 -8.239909000000001,41.864417,5000 -8.240273999999999,41.864367,5000 -8.24053,41.864422,5000 -8.240973,41.864516,5000 -8.241294999999999,41.864656,5000 -8.241463,41.864975,5000 -8.241588,41.865321,5000 -8.241680000000001,41.865612,5000 -8.241811,41.865929,5000 -8.241991000000001,41.866267,5000 -8.242228000000001,41.866574,5000 -8.242499,41.866796,5000 -8.242858999999999,41.866972,5000 -8.243016000000001,41.867017,5000 -8.243397999999999,41.867078,5000 -8.243748,41.867072,5000 -8.244038,41.867038,5000 -8.244479999999999,41.866967,5000 -8.244908000000001,41.866905,5000 -8.245089999999999,41.866848,5000 -8.245271000000001,41.866773,5000 -8.245462,41.866673,5000 -8.245849,41.866388,5000 -8.246117,41.866067,5000 -8.246321999999999,41.86561,5000 -8.246325000000001,41.865405,5000 -8.246271,41.865195,5000 -8.246205,41.864925,5000 -8.246195,41.864698,5000 -8.246226999999999,41.864469,5000 -8.246294000000001,41.86431,5000 -8.246344000000001,41.864158,5000 -8.246435999999999,41.863843,5000 -8.246486000000001,41.863636,5000 -8.246585,41.86326,5000 -8.246718,41.862944,5000 -8.246874,41.862682,5000 -8.247192,41.862338,5000 -8.247612999999999,41.862026,5000 -8.247942999999999,41.861838,5000 -8.248402,41.861786,5000 -8.248836000000001,41.861763,5000 -8.24929,41.861715,5000 -8.249701,41.861684,5000 -8.250188,41.861667,5000 -8.250591,41.861661,5000 -8.251032,41.861654,5000 -8.251289999999999,41.86167,5000 -8.251556000000001,41.861685,5000 -8.251908,41.861691,5000 -8.252193,41.86171,5000 -8.252428999999999,41.861784,5000 -8.252749,41.861829,5000 -8.252775,41.861832,5000 -8.252988999999999,41.86186,5000 
						</coordinates>
					</LinearRing>
				</outerBoundaryIs>
			</Polygon>
		</MultiGeometry>
		<atom:link rel="app" href="https://www.google.com/earth/about/versions/#earth-pro" title="Google Earth Pro 7.3.7.1155"></atom:link>
	</Placemark>
</Document>
</kml>
