<?xml version="1.0" encoding="UTF-8"?>
<kml xmlns="http://www.opengis.net/kml/2.2" xmlns:gx="http://www.google.com/kml/ext/2.2" xmlns:kml="http://www.opengis.net/kml/2.2" xmlns:atom="http://www.w3.org/2005/Atom">
<Document>
	<name>Paredes de Coura.kml</name>
	<Style id="PolyStyle000001">
		<LabelStyle>
			<color>ff000000</color>
			<scale>1.2</scale>
		</LabelStyle>
		<LineStyle>
			<color>ff0000ff</color>
			<width>2</width>
		</LineStyle>
		<PolyStyle>
			<color>4dffffff</color>
		</PolyStyle>
	</Style>
	<Style id="PolyStyle00005">
		<LabelStyle>
			<color>ff000000</color>
			<scale>1.2</scale>
		</LabelStyle>
		<LineStyle>
			<color>ff0000ff</color>
			<width>2</width>
		</LineStyle>
		<PolyStyle>
			<color>4dffffff</color>
		</PolyStyle>
	</Style>
	<StyleMap id="PolyStyle00183">
		<Pair>
			<key>normal</key>
			<styleUrl>#PolyStyle00005</styleUrl>
		</Pair>
		<Pair>
			<key>highlight</key>
			<styleUrl>#PolyStyle000001</styleUrl>
		</Pair>
	</StyleMap>
	<Placemark>
		<name>Paredes de Coura</name>
		<visibility>0</visibility>
		<Snippet maxLines="0"></Snippet>
		<styleUrl>#PolyStyle00183</styleUrl>
		<MultiGeometry>
			<extrude>1</extrude>
			<Polygon>
				<extrude>1</extrude>
				<tessellate>1</tessellate>
				<outerBoundaryIs>
					<LinearRing>
						<coordinates>
							-8.559721,41.979267,5000 -8.559983000000001,41.976929,5000 -8.561256999999999,41.976861,5000 -8.561506,41.976467,5000 -8.564457000000001,41.971806,5000 -8.579488,41.959011,5000 -8.606204999999999,41.951426,5000 -8.608017,41.950911,5000 -8.613258999999999,41.948673,5000 -8.614732999999999,41.946082,5000 -8.615278,41.945595,5000 -8.615598,41.944785,5000 -8.615430999999999,41.944496,5000 -8.616021999999999,41.944104,5000 -8.616149999999999,41.944008,5000 -8.616341,41.943889,5000 -8.616595999999999,41.943745,5000 -8.616936000000001,41.943471,5000 -8.618245,41.942118,5000 -8.618930000000001,41.941754,5000 -8.619522,41.941436,5000 -8.62285,41.939598,5000 -8.6233,41.938824,5000 -8.625088999999999,41.937068,5000 -8.626398,41.937,5000 -8.629697,41.935153,5000 -8.629792999999999,41.935199,5000 -8.62989,41.935263,5000 -8.629961,41.935274,5000 -8.630458000000001,41.935196,5000 -8.630495,41.935064,5000 -8.630535999999999,41.934965,5000 -8.630566999999999,41.934864,5000 -8.630592,41.934799,5000 -8.630606,41.934732,5000 -8.630644,41.93467,5000 -8.630758,41.934596,5000 -8.630946,41.934835,5000 -8.631197,41.934829,5000 -8.631244000000001,41.934817,5000 -8.631354,41.934808,5000 -8.631589999999999,41.93475,5000 -8.63162,41.934719,5000 -8.632080999999999,41.934215,5000 -8.632168999999999,41.934212,5000 -8.632545,41.934323,5000 -8.632785999999999,41.934553,5000 -8.632955000000001,41.934556,5000 -8.633281999999999,41.934539,5000 -8.63578,41.93414,5000 -8.637001,41.933232,5000 -8.638776999999999,41.93177,5000 -8.639067000000001,41.930902,5000 -8.638859999999999,41.929212,5000 -8.639189,41.927211,5000 -8.637620999999999,41.912942,5000 -8.638192999999999,41.910083,5000 -8.638596,41.909098,5000 -8.640337000000001,41.907473,5000 -8.645084000000001,41.906254,5000 -8.64786,41.903296,5000 -8.648227,41.903304,5000 -8.652108,41.903543,5000 -8.65489,41.903714,5000 -8.65489,41.903669,5000 -8.654911999999999,41.903599,5000 -8.654947,41.903557,5000 -8.654961,41.903522,5000 -8.654961999999999,41.903468,5000 -8.654953000000001,41.903355,5000 -8.654968999999999,41.903277,5000 -8.655016,41.903175,5000 -8.655079000000001,41.903058,5000 -8.655098000000001,41.902945,5000 -8.655141,41.902792,5000 -8.655231000000001,41.902621,5000 -8.655322,41.902495,5000 -8.655540999999999,41.902171,5000 -8.655677000000001,41.901965,5000 -8.655756999999999,41.901773,5000 -8.655851,41.901544,5000 -8.655894,41.90139,5000 -8.655957000000001,41.901202,5000 -8.656022,41.901079,5000 -8.656133000000001,41.90096,5000 -8.656200999999999,41.900836,5000 -8.656248,41.90074,5000 -8.656319,41.900614,5000 -8.656369,41.900479,5000 -8.656415000000001,41.900349,5000 -8.656421,41.900205,5000 -8.657105,41.899136,5000 -8.65692,41.897671,5000 -8.658880999999999,41.89636,5000 -8.659309,41.892616,5000 -8.660287,41.890515,5000 -8.661182999999999,41.88842,5000 -8.660394,41.887481,5000 -8.660346000000001,41.887431,5000 -8.660322000000001,41.887391,5000 -8.660311,41.887334,5000 -8.660304999999999,41.88728,5000 -8.660318999999999,41.887218,5000 -8.660345,41.887149,5000 -8.660377,41.887053,5000 -8.660456999999999,41.886775,5000 -8.660477,41.886682,5000 -8.660484,41.886509,5000 -8.660504,41.886463,5000 -8.660556,41.886425,5000 -8.660684,41.886366,5000 -8.660849000000001,41.886322,5000 -8.661051,41.886309,5000 -8.661014,41.885845,5000 -8.661008000000001,41.885729,5000 -8.661322,41.885578,5000 -8.661572,41.885536,5000 -8.662159000000001,41.88546,5000 -8.662342000000001,41.885442,5000 -8.662603000000001,41.885481,5000 -8.662846999999999,41.885556,5000 -8.663277000000001,41.885852,5000 -8.663709000000001,41.886252,5000 -8.663836,41.886335,5000 -8.664,41.886337,5000 -8.664472999999999,41.886287,5000 -8.664908,41.886288,5000 -8.665096999999999,41.886344,5000 -8.665265,41.886484,5000 -8.665414999999999,41.886687,5000 -8.665571999999999,41.886808,5000 -8.665711,41.886838,5000 -8.665856,41.886828,5000 -8.666045,41.886787,5000 -8.666399999999999,41.886717,5000 -8.666650000000001,41.8867,5000 -8.666836999999999,41.886716,5000 -8.667014999999999,41.886789,5000 -8.667088,41.886867,5000 -8.667133,41.887008,5000 -8.667232,41.887119,5000 -8.667486999999999,41.887272,5000 -8.667717,41.887388,5000 -8.667949,41.887457,5000 -8.668214000000001,41.887485,5000 -8.668699,41.887539,5000 -8.668896,41.887598,5000 -8.669063,41.887694,5000 -8.669143999999999,41.887808,5000 -8.669233,41.888038,5000 -8.669395,41.888371,5000 -8.669513,41.888565,5000 -8.669677,41.888719,5000 -8.669791,41.888794,5000 -8.669862999999999,41.888813,5000 -8.67001,41.888811,5000 -8.670318,41.88878,5000 -8.670648,41.888754,5000 -8.670980999999999,41.888636,5000 -8.671143000000001,41.888521,5000 -8.671287,41.888328,5000 -8.671433,41.888056,5000 -8.671566,41.887875,5000 -8.671623,41.88784,5000 -8.671832999999999,41.887713,5000 -8.672065999999999,41.887619,5000 -8.672300999999999,41.887561,5000 -8.672492999999999,41.887544,5000 -8.672718,41.887567,5000 -8.672957,41.88759,5000 -8.673177000000001,41.887646,5000 -8.673321,41.88771,5000 -8.673553999999999,41.887849,5000 -8.673965000000001,41.88807,5000 -8.674262000000001,41.888176,5000 -8.674434,41.88821,5000 -8.674594000000001,41.888208,5000 -8.674739000000001,41.888163,5000 -8.674912000000001,41.888091,5000 -8.675127,41.88793,5000 -8.675420000000001,41.887774,5000 -8.674936000000001,41.887445,5000 -8.671842,41.885534,5000 -8.668647,41.879526,5000 -8.664246,41.874523,5000 -8.658462999999999,41.868294,5000 -8.658594000000001,41.865165,5000 -8.656561999999999,41.862709,5000 -8.656644,41.85842,5000 -8.652426,41.85642,5000 -8.652309000000001,41.856411,5000 -8.652170999999999,41.856384,5000 -8.652022000000001,41.856366,5000 -8.651818,41.856359,5000 -8.651598,41.856346,5000 -8.651337,41.856355,5000 -8.651134000000001,41.856394,5000 -8.650518999999999,41.856554,5000 -8.650096,41.856678,5000 -8.649945000000001,41.856739,5000 -8.649855000000001,41.856831,5000 -8.646093,41.858853,5000 -8.644814999999999,41.857329,5000 -8.642448,41.855565,5000 -8.638626,41.854277,5000 -8.633357999999999,41.848833,5000 -8.628671000000001,41.848532,5000 -8.626537000000001,41.848019,5000 -8.622153000000001,41.844376,5000 -8.613212000000001,41.852777,5000 -8.605893999999999,41.861396,5000 -8.604051,41.861809,5000 -8.603484,41.861556,5000 -8.603382,41.861599,5000 -8.603197,41.861715,5000 -8.602969,41.861898,5000 -8.602909,41.861948,5000 -8.602785000000001,41.862,5000 -8.602509,41.862107,5000 -8.602354999999999,41.862162,5000 -8.602255,41.862181,5000 -8.602129,41.862191,5000 -8.601944,41.862174,5000 -8.601767000000001,41.862166,5000 -8.601615000000001,41.862171,5000 -8.601494000000001,41.86219,5000 -8.601383999999999,41.862217,5000 -8.601271000000001,41.862263,5000 -8.601183000000001,41.862315,5000 -8.601039,41.862459,5000 -8.600804,41.862739,5000 -8.600745999999999,41.862817,5000 -8.60073,41.862886,5000 -8.600752999999999,41.862972,5000 -8.600839000000001,41.863156,5000 -8.60087,41.863288,5000 -8.600871,41.863377,5000 -8.600835,41.863431,5000 -8.600763000000001,41.86345,5000 -8.600669999999999,41.863442,5000 -8.600496,41.863418,5000 -8.600300000000001,41.863431,5000 -8.600149999999999,41.863417,5000 -8.600023999999999,41.863422,5000 -8.599926999999999,41.863457,5000 -8.599795,41.863522,5000 -8.599721000000001,41.863588,5000 -8.599576000000001,41.863799,5000 -8.599462000000001,41.863979,5000 -8.599309,41.864139,5000 -8.599043,41.86444,5000 -8.598974,41.864538,5000 -8.598943999999999,41.864768,5000 -8.598891,41.86488,5000 -8.598803,41.864955,5000 -8.598663999999999,41.865048,5000 -8.598559,41.865161,5000 -8.598509,41.865225,5000 -8.598428999999999,41.865399,5000 -8.597899999999999,41.865299,5000 -8.597878,41.865334,5000 -8.597815000000001,41.865301,5000 -8.597728,41.865294,5000 -8.597607999999999,41.865302,5000 -8.597526999999999,41.865327,5000 -8.597424,41.865397,5000 -8.597181000000001,41.865586,5000 -8.597008000000001,41.865713,5000 -8.596924,41.865756,5000 -8.596837000000001,41.865793,5000 -8.59675,41.865807,5000 -8.596629999999999,41.86579,5000 -8.596379000000001,41.865742,5000 -8.596185999999999,41.865702,5000 -8.595988999999999,41.865639,5000 -8.595822999999999,41.865581,5000 -8.595779,41.865653,5000 -8.595442,41.865622,5000 -8.595067999999999,41.865621,5000 -8.59477,41.865609,5000 -8.594519,41.865612,5000 -8.594246,41.865636,5000 -8.594072000000001,41.865687,5000 -8.593919,41.865738,5000 -8.593707999999999,41.865755,5000 -8.593487,41.865742,5000 -8.593297,41.86572,5000 -8.592978,41.865721,5000 -8.592497,41.865739,5000 -8.592098999999999,41.865747,5000 -8.591771,41.86576,5000 -8.591516,41.865731,5000 -8.591260999999999,41.86567,5000 -8.591047,41.865616,5000 -8.590875,41.865592,5000 -8.5907,41.865576,5000 -8.590501,41.865579,5000 -8.590301999999999,41.865587,5000 -8.590014,41.865631,5000 -8.589765999999999,41.865704,5000 -8.589658999999999,41.865743,5000 -8.589475,41.865912,5000 -8.588896,41.865789,5000 -8.587838,41.865644,5000 -8.587141000000001,41.865535,5000 -8.586319,41.865269,5000 -8.585642,41.864981,5000 -8.584946,41.864512,5000 -8.583271,41.864002,5000 -8.581894999999999,41.863678,5000 -8.581241,41.863681,5000 -8.576015999999999,41.863246,5000 -8.574560999999999,41.864354,5000 -8.574113000000001,41.864694,5000 -8.570233999999999,41.870107,5000 -8.561715,41.870329,5000 -8.556713,41.868502,5000 -8.550998999999999,41.864331,5000 -8.548016000000001,41.863855,5000 -8.546328000000001,41.863536,5000 -8.544468,41.863245,5000 -8.541839,41.863413,5000 -8.541795,41.863416,5000 -8.541662000000001,41.863216,5000 -8.541456999999999,41.862923,5000 -8.541309,41.862807,5000 -8.541152,41.862716,5000 -8.540929999999999,41.862656,5000 -8.540623999999999,41.86261,5000 -8.539313,41.8625,5000 -8.538963000000001,41.862489,5000 -8.538828000000001,41.862457,5000 -8.538728000000001,41.862415,5000 -8.538544,41.862256,5000 -8.538242,41.861921,5000 -8.538069,41.861755,5000 -8.537966000000001,41.86169,5000 -8.537734,41.861612,5000 -8.537553000000001,41.861565,5000 -8.537373000000001,41.861528,5000 -8.537179,41.861505,5000 -8.537064000000001,41.861501,5000 -8.536692,41.861558,5000 -8.536567,41.861561,5000 -8.536467,41.861549,5000 -8.53637,41.861506,5000 -8.536206999999999,41.86138,5000 -8.536016,41.861194,5000 -8.535875000000001,41.861079,5000 -8.535688,41.860984,5000 -8.535500000000001,41.860921,5000 -8.535278,41.860887,5000 -8.534587,41.860807,5000 -8.534138,41.860752,5000 -8.533562999999999,41.860656,5000 -8.533307000000001,41.860645,5000 -8.532543,41.860637,5000 -8.531446000000001,41.860632,5000 -8.530697999999999,41.860642,5000 -8.530246,41.860698,5000 -8.529233,41.860789,5000 -8.529017,41.860803,5000 -8.528757000000001,41.86072,5000 -8.528472000000001,41.860586,5000 -8.528115,41.860356,5000 -8.527623999999999,41.86002,5000 -8.527322,41.859719,5000 -8.527039,41.859405,5000 -8.526752,41.859115,5000 -8.526588,41.858929,5000 -8.526477,41.858743,5000 -8.526223999999999,41.858216,5000 -8.526147,41.858032,5000 -8.526059,41.85793,5000 -8.525983,41.857862,5000 -8.525808,41.857758,5000 -8.525510000000001,41.857607,5000 -8.525017,41.857374,5000 -8.524857000000001,41.857274,5000 -8.524762000000001,41.857195,5000 -8.524673999999999,41.857058,5000 -8.524551000000001,41.856764,5000 -8.524457,41.856492,5000 -8.524412,41.856342,5000 -8.524380000000001,41.856193,5000 -8.524331999999999,41.856067,5000 -8.524241,41.855899,5000 -8.524089,41.855682,5000 -8.523939,41.855533,5000 -8.523724,41.85539,5000 -8.52352,41.855223,5000 -8.523284,41.855009,5000 -8.523173999999999,41.854904,5000 -8.523128,41.854471,5000 -8.523152,41.855962,5000 -8.523206999999999,41.856574,5000 -8.523012,41.857738,5000 -8.520465,41.859624,5000 -8.517712,41.86479,5000 -8.514908,41.867053,5000 -8.51313,41.868184,5000 -8.514528,41.874969,5000 -8.514564999999999,41.875017,5000 -8.514633999999999,41.875093,5000 -8.514658000000001,41.875143,5000 -8.514678999999999,41.875219,5000 -8.514666,41.875317,5000 -8.514652999999999,41.875388,5000 -8.514614999999999,41.875456,5000 -8.514556000000001,41.875536,5000 -8.514514999999999,41.875582,5000 -8.514472,41.875638,5000 -8.514422,41.875704,5000 -8.514378000000001,41.875764,5000 -8.51435,41.875816,5000 -8.514331,41.875862,5000 -8.514241,41.875946,5000 -8.51421,41.875996,5000 -8.514132999999999,41.876078,5000 -8.514046,41.876144,5000 -8.513947,41.876221,5000 -8.513824,41.876295,5000 -8.513731,41.876382,5000 -8.513641,41.876473,5000 -8.513607,41.87652,5000 -8.513551,41.876596,5000 -8.513483000000001,41.87665,5000 -8.513415,41.876707,5000 -8.513334,41.876766,5000 -8.51318,41.876852,5000 -8.512995999999999,41.876944,5000 -8.512822999999999,41.877041,5000 -8.512708999999999,41.877077,5000 -8.512639,41.877109,5000 -8.51258,41.87712,5000 -8.512518999999999,41.877124,5000 -8.512449,41.877115,5000 -8.512382000000001,41.877089,5000 -8.512311,41.877068,5000 -8.512207999999999,41.877024,5000 -8.51205,41.876972,5000 -8.511964000000001,41.876933,5000 -8.511898,41.876878,5000 -8.511733,41.876781,5000 -8.5116,41.87672,5000 -8.511483999999999,41.876662,5000 -8.511365,41.876629,5000 -8.511286,41.876627,5000 -8.511241999999999,41.876638,5000 -8.511210999999999,41.876665,5000 -8.511165,41.876715,5000 -8.511084,41.876804,5000 -8.511010000000001,41.876863,5000 -8.510952,41.876892,5000 -8.510868,41.87694,5000 -8.510738999999999,41.877014,5000 -8.510619,41.877083,5000 -8.510557,41.877141,5000 -8.510476000000001,41.877246,5000 -8.51042,41.877319,5000 -8.510348,41.877403,5000 -8.510268,41.877473,5000 -8.510172000000001,41.877532,5000 -8.510107,41.877587,5000 -8.510012,41.877637,5000 -8.509917,41.877661,5000 -8.509836999999999,41.877679,5000 -8.509772,41.87772,5000 -8.509713,41.87776,5000 -8.509667,41.877815,5000 -8.509629,41.87789,5000 -8.509600000000001,41.87795,5000 -8.509346000000001,41.878051,5000 -8.509031,41.878207,5000 -8.508877,41.878288,5000 -8.508698000000001,41.878406,5000 -8.508552999999999,41.878515,5000 -8.508334,41.878669,5000 -8.508155,41.878789,5000 -8.508004,41.878902,5000 -8.507854999999999,41.879064,5000 -8.507758000000001,41.879171,5000 -8.507630000000001,41.87936,5000 -8.507508,41.879572,5000 -8.507377,41.879786,5000 -8.507254,41.880069,5000 -8.507142,41.880274,5000 -8.507078999999999,41.880408,5000 -8.507038,41.880513,5000 -8.507015000000001,41.880639,5000 -8.507013000000001,41.880767,5000 -8.507059999999999,41.880955,5000 -8.50708,41.881065,5000 -8.507085,41.881136,5000 -8.507080999999999,41.881209,5000 -8.507054999999999,41.881328,5000 -8.507045,41.881415,5000 -8.507047,41.88152,5000 -8.507066999999999,41.881609,5000 -8.507121,41.881706,5000 -8.507196,41.8818,5000 -8.507315,41.881878,5000 -8.507410999999999,41.881966,5000 -8.507569,41.882079,5000 -8.507688,41.882162,5000 -8.507724,41.88218,5000 -8.507754,41.88222,5000 -8.507778,41.882266,5000 -8.507775000000001,41.882283,5000 -8.507733,41.88234,5000 -8.507709,41.88237,5000 -8.507671999999999,41.882441,5000 -8.507633999999999,41.882533,5000 -8.507593,41.882637,5000 -8.507571,41.88271,5000 -8.507538,41.882825,5000 -8.507516000000001,41.882886,5000 -8.507474,41.882973,5000 -8.507440000000001,41.883034,5000 -8.507402000000001,41.883072,5000 -8.507339999999999,41.883125,5000 -8.507299,41.883155,5000 -8.507197,41.88321,5000 -8.507085999999999,41.883271,5000 -8.50681,41.8834,5000 -8.506728000000001,41.883478,5000 -8.506653999999999,41.88357,5000 -8.506525,41.88369,5000 -8.506372000000001,41.883808,5000 -8.506278999999999,41.883882,5000 -8.506192,41.883945,5000 -8.506071,41.884006,5000 -8.505990000000001,41.884028,5000 -8.505944,41.884037,5000 -8.505888000000001,41.884047,5000 -8.50581,41.884055,5000 -8.505712000000001,41.884064,5000 -8.505597,41.884065,5000 -8.5055,41.884064,5000 -8.505373000000001,41.884058,5000 -8.505222,41.884068,5000 -8.505091999999999,41.884085,5000 -8.504935,41.884114,5000 -8.504852,41.884146,5000 -8.504773,41.88417,5000 -8.504671999999999,41.884165,5000 -8.504587000000001,41.884153,5000 -8.504479,41.884121,5000 -8.504363,41.88409,5000 -8.504232,41.884057,5000 -8.50418,41.884056,5000 -8.503594,41.88412,5000 -8.503360000000001,41.884307,5000 -8.502872,41.884885,5000 -8.502769000000001,41.884984,5000 -8.502565000000001,41.884982,5000 -8.502446000000001,41.884971,5000 -8.502366,41.88495,5000 -8.502179999999999,41.884916,5000 -8.502126000000001,41.884902,5000 -8.502109000000001,41.884897,5000 -8.502083000000001,41.884893,5000 -8.50207,41.884893,5000 -8.502041,41.884897,5000 -8.501961,41.884915,5000 -8.501261,41.885028,5000 -8.501227999999999,41.885036,5000 -8.501201,41.885044,5000 -8.501177999999999,41.88505,5000 -8.501162000000001,41.885052,5000 -8.501136000000001,41.885049,5000 -8.501120999999999,41.885047,5000 -8.501099999999999,41.885043,5000 -8.50108,41.885038,5000 -8.501039,41.885018,5000 -8.500283,41.884775,5000 -8.499552,41.884756,5000 -8.499497,41.884758,5000 -8.499383,41.884826,5000 -8.498768999999999,41.886247,5000 -8.498745,41.886327,5000 -8.498745,41.88633,5000 -8.498896999999999,41.887421,5000 -8.498951999999999,41.887476,5000 -8.498984,41.887512,5000 -8.498991999999999,41.887559,5000 -8.499003999999999,41.88774,5000 -8.498977,41.887925,5000 -8.498941,41.888078,5000 -8.498903,41.888318,5000 -8.498905000000001,41.888393,5000 -8.498409000000001,41.889014,5000 -8.492914000000001,41.894278,5000 -8.490364,41.896965,5000 -8.489423,41.899369,5000 -8.488574,41.901539,5000 -8.489077,41.903343,5000 -8.489110999999999,41.903339,5000 -8.489106,41.903556,5000 -8.489136,41.904012,5000 -8.489155,41.904403,5000 -8.489171000000001,41.904678,5000 -8.489207,41.904819,5000 -8.489292000000001,41.904988,5000 -8.489443,41.905233,5000 -8.489547999999999,41.905367,5000 -8.489611999999999,41.905425,5000 -8.48976,41.905518,5000 -8.490016000000001,41.905672,5000 -8.490259,41.905827,5000 -8.490405000000001,41.905955,5000 -8.490458,41.906025,5000 -8.490487,41.906085,5000 -8.490503,41.906171,5000 -8.490504,41.906326,5000 -8.490531000000001,41.906607,5000 -8.490563999999999,41.906911,5000 -8.490596,41.907076,5000 -8.490640000000001,41.907177,5000 -8.490702000000001,41.907274,5000 -8.490780000000001,41.907349,5000 -8.491042,41.907561,5000 -8.491097999999999,41.907637,5000 -8.491108000000001,41.907703,5000 -8.491099,41.907775,5000 -8.491063,41.907862,5000 -8.491011,41.908016,5000 -8.490831999999999,41.908424,5000 -8.490663,41.908752,5000 -8.490598,41.908848,5000 -8.490532999999999,41.908923,5000 -8.490366,41.909086,5000 -8.490065,41.909357,5000 -8.489649999999999,41.909717,5000 -8.489421,41.90992,5000 -8.489262999999999,41.910072,5000 -8.489127,41.910256,5000 -8.489027999999999,41.910461,5000 -8.488958,41.910761,5000 -8.488845,41.911143,5000 -8.488788,41.911442,5000 -8.488757,41.9118,5000 -8.488718,41.912137,5000 -8.488699,41.912347,5000 -8.488699,41.912487,5000 -8.488712,41.912582,5000 -8.48875,41.912667,5000 -8.488769,41.912708,5000 -8.488810000000001,41.912759,5000 -8.488899,41.912817,5000 -8.489011,41.912863,5000 -8.489236,41.912951,5000 -8.489736000000001,41.913145,5000 -8.490100999999999,41.913297,5000 -8.490332,41.913438,5000 -8.490513,41.913567,5000 -8.490617,41.91366,5000 -8.490663,41.913715,5000 -8.490809,41.913968,5000 -8.490904,41.914121,5000 -8.490977000000001,41.914217,5000 -8.491034000000001,41.914264,5000 -8.491104,41.914303,5000 -8.491178,41.914315,5000 -8.491630000000001,41.914355,5000 -8.491832,41.914382,5000 -8.491959,41.914413,5000 -8.492032,41.914435,5000 -8.492099,41.914471,5000 -8.492182,41.914546,5000 -8.492251,41.914623,5000 -8.492319999999999,41.914719,5000 -8.492424,41.914858,5000 -8.492454,41.914913,5000 -8.492461,41.914978,5000 -8.49244,41.915045,5000 -8.492402999999999,41.915118,5000 -8.492281999999999,41.91526,5000 -8.492179999999999,41.915402,5000 -8.492115,41.915523,5000 -8.492076000000001,41.915665,5000 -8.492058,41.915849,5000 -8.492058999999999,41.916063,5000 -8.492069000000001,41.916196,5000 -8.492115,41.916367,5000 -8.492195000000001,41.916594,5000 -8.492286999999999,41.916873,5000 -8.492369999999999,41.91713,5000 -8.492432000000001,41.917285,5000 -8.492495999999999,41.9174,5000 -8.492516,41.917436,5000 -8.492547,41.917478,5000 -8.492749999999999,41.917683,5000 -8.493041,41.917978,5000 -8.493226,41.918183,5000 -8.493452,41.918503,5000 -8.493637,41.918749,5000 -8.493766000000001,41.918911,5000 -8.493812,41.919026,5000 -8.493847000000001,41.919143,5000 -8.493866000000001,41.919289,5000 -8.493892000000001,41.919431,5000 -8.493938999999999,41.91957,5000 -8.494025000000001,41.919773,5000 -8.494116,41.919986,5000 -8.494197,41.920173,5000 -8.494232999999999,41.920276,5000 -8.494278,41.920454,5000 -8.494294999999999,41.920609,5000 -8.494296,41.920823,5000 -8.494253,41.921194,5000 -8.494246,41.92125,5000 -8.494213,41.921331,5000 -8.494151,41.921491,5000 -8.493892000000001,41.922067,5000 -8.493791,41.922303,5000 -8.493592,41.922766,5000 -8.493404999999999,41.923178,5000 -8.493318,41.923381,5000 -8.493311,41.923433,5000 -8.493309,41.923509,5000 -8.493315000000001,41.923562,5000 -8.493345,41.923624,5000 -8.493411999999999,41.923712,5000 -8.4938,41.924114,5000 -8.494094,41.924422,5000 -8.494431000000001,41.92476,5000 -8.494607,41.924936,5000 -8.495120999999999,41.925465,5000 -8.495302000000001,41.925621,5000 -8.495668999999999,41.925884,5000 -8.496506,41.926439,5000 -8.496884,41.926692,5000 -8.497026999999999,41.92682,5000 -8.497158000000001,41.926984,5000 -8.497418,41.927402,5000 -8.49766,41.927807,5000 -8.498055000000001,41.928423,5000 -8.498236,41.928699,5000 -8.498347000000001,41.928847,5000 -8.498454000000001,41.928941,5000 -8.498621,41.929058,5000 -8.498977,41.929254,5000 -8.499670999999999,41.929645,5000 -8.499888,41.929791,5000 -8.500132000000001,41.929979,5000 -8.500343000000001,41.930123,5000 -8.500487,41.930192,5000 -8.50095,41.930391,5000 -8.501253999999999,41.930536,5000 -8.501654,41.930777,5000 -8.502364,41.931213,5000 -8.502742,41.93145,5000 -8.502852000000001,41.931534,5000 -8.502938,41.931627,5000 -8.503,41.931696,5000 -8.503156000000001,41.931934,5000 -8.503558,41.932663,5000 -8.503795,41.933059,5000 -8.503885,41.933238,5000 -8.503928,41.933345,5000 -8.504023,41.933662,5000 -8.504118,41.93403,5000 -8.504223,41.934416,5000 -8.504367999999999,41.93492,5000 -8.504428000000001,41.935049,5000 -8.504484,41.935129,5000 -8.504566000000001,41.935209,5000 -8.504731,41.935312,5000 -8.504960000000001,41.935468,5000 -8.50515,41.93561,5000 -8.505343999999999,41.935793,5000 -8.505502,41.935969,5000 -8.505777,41.936259,5000 -8.506143,41.936642,5000 -8.506373,41.93688,5000 -8.506475,41.936968,5000 -8.506596,41.937049,5000 -8.506717999999999,41.937108,5000 -8.506875000000001,41.937169,5000 -8.507299,41.937301,5000 -8.507577,41.937409,5000 -8.507683,41.937475,5000 -8.507757,41.93754,5000 -8.507799,41.937615,5000 -8.507825,41.937706,5000 -8.507826,41.937817,5000 -8.507787,41.937967,5000 -8.507733999999999,41.93817,5000 -8.507674,41.938328,5000 -8.507531999999999,41.938564,5000 -8.507455999999999,41.938717,5000 -8.507389999999999,41.938899,5000 -8.507269000000001,41.939292,5000 -8.507142999999999,41.93968,5000 -8.507116999999999,41.9398,5000 -8.507104999999999,41.939928,5000 -8.507135,41.940181,5000 -8.507201,41.940703,5000 -8.507209,41.940814,5000 -8.507209,41.940909,5000 -8.507192999999999,41.940965,5000 -8.507058000000001,41.941218,5000 -8.506992,41.941381,5000 -8.506962,41.941462,5000 -8.506962,41.941547,5000 -8.50698,41.941643,5000 -8.507014,41.941756,5000 -8.507234,41.942261,5000 -8.507370999999999,41.942683,5000 -8.507455,41.942903,5000 -8.507536999999999,41.943141,5000 -8.507757,41.943701,5000 -8.507854,41.943973,5000 -8.507936000000001,41.944213,5000 -8.507961,41.944345,5000 -8.508019000000001,41.944349,5000 -8.507484,41.945689,5000 -8.504816,41.948244,5000 -8.504667,41.952383,5000 -8.504096000000001,41.953841,5000 -8.503807999999999,41.954588,5000 -8.501213999999999,41.957425,5000 -8.50107,41.960627,5000 -8.497711000000001,41.963468,5000 -8.494476000000001,41.966077,5000 -8.498664,41.966266,5000 -8.502497999999999,41.968387,5000 -8.503318999999999,41.968678,5000 -8.509976999999999,41.970446,5000 -8.511514,41.970912,5000 -8.51638,41.971132,5000 -8.517117000000001,41.97001,5000 -8.519228999999999,41.969318,5000 -8.52957,41.972651,5000 -8.534772999999999,41.974325,5000 -8.536142999999999,41.974171,5000 -8.543013,41.978211,5000 -8.544243,41.978943,5000 -8.545669999999999,41.979508,5000 -8.549901,41.980662,5000 -8.55279,41.981271,5000 -8.555087,41.982344,5000 -8.555514000000001,41.982617,5000 -8.556349000000001,41.982133,5000 -8.558881,41.980666,5000 -8.559721,41.979267,5000 
						</coordinates>
					</LinearRing>
				</outerBoundaryIs>
			</Polygon>
		</MultiGeometry>
		<atom:link rel="app" href="https://www.google.com/earth/about/versions/#earth-pro" title="Google Earth Pro 7.3.7.1155"></atom:link>
	</Placemark>
</Document>
</kml>
