<?xml version="1.0" encoding="UTF-8"?>
<kml xmlns="http://www.opengis.net/kml/2.2" xmlns:gx="http://www.google.com/kml/ext/2.2" xmlns:kml="http://www.opengis.net/kml/2.2" xmlns:atom="http://www.w3.org/2005/Atom">
<Document>
	<name>Ponte de Lima.kml</name>
	<Style id="PolyStyle000001">
		<LabelStyle>
			<color>ff000000</color>
			<scale>1.2</scale>
		</LabelStyle>
		<LineStyle>
			<color>ff0000ff</color>
			<width>2</width>
		</LineStyle>
		<PolyStyle>
			<color>4dffffff</color>
		</PolyStyle>
	</Style>
	<Style id="PolyStyle00005">
		<LabelStyle>
			<color>ff000000</color>
			<scale>1.2</scale>
		</LabelStyle>
		<LineStyle>
			<color>ff0000ff</color>
			<width>2</width>
		</LineStyle>
		<PolyStyle>
			<color>4dffffff</color>
		</PolyStyle>
	</Style>
	<StyleMap id="PolyStyle00183">
		<Pair>
			<key>normal</key>
			<styleUrl>#PolyStyle00005</styleUrl>
		</Pair>
		<Pair>
			<key>highlight</key>
			<styleUrl>#PolyStyle000001</styleUrl>
		</Pair>
	</StyleMap>
	<Placemark>
		<name>Ponte de Lima</name>
		<visibility>0</visibility>
		<Snippet maxLines="0"></Snippet>
		<styleUrl>#PolyStyle00183</styleUrl>
		<MultiGeometry>
			<extrude>1</extrude>
			<Polygon>
				<extrude>1</extrude>
				<tessellate>1</tessellate>
				<outerBoundaryIs>
					<LinearRing>
						<coordinates>
							-8.576015999999999,41.863246,5000 -8.581241,41.863681,5000 -8.581894999999999,41.863678,5000 -8.583271,41.864002,5000 -8.584946,41.864512,5000 -8.585642,41.864981,5000 -8.586319,41.865269,5000 -8.587141000000001,41.865535,5000 -8.587838,41.865644,5000 -8.588896,41.865789,5000 -8.589475,41.865912,5000 -8.589658999999999,41.865743,5000 -8.589765999999999,41.865704,5000 -8.590014,41.865631,5000 -8.590301999999999,41.865587,5000 -8.590501,41.865579,5000 -8.5907,41.865576,5000 -8.590875,41.865592,5000 -8.591047,41.865616,5000 -8.591260999999999,41.86567,5000 -8.591516,41.865731,5000 -8.591771,41.86576,5000 -8.592098999999999,41.865747,5000 -8.592497,41.865739,5000 -8.592978,41.865721,5000 -8.593297,41.86572,5000 -8.593487,41.865742,5000 -8.593707999999999,41.865755,5000 -8.593919,41.865738,5000 -8.594072000000001,41.865687,5000 -8.594246,41.865636,5000 -8.594519,41.865612,5000 -8.59477,41.865609,5000 -8.595067999999999,41.865621,5000 -8.595442,41.865622,5000 -8.595779,41.865653,5000 -8.595822999999999,41.865581,5000 -8.595988999999999,41.865639,5000 -8.596185999999999,41.865702,5000 -8.596379000000001,41.865742,5000 -8.596629999999999,41.86579,5000 -8.59675,41.865807,5000 -8.596837000000001,41.865793,5000 -8.596924,41.865756,5000 -8.597008000000001,41.865713,5000 -8.597181000000001,41.865586,5000 -8.597424,41.865397,5000 -8.597526999999999,41.865327,5000 -8.597607999999999,41.865302,5000 -8.597728,41.865294,5000 -8.597815000000001,41.865301,5000 -8.597878,41.865334,5000 -8.597899999999999,41.865299,5000 -8.598428999999999,41.865399,5000 -8.598509,41.865225,5000 -8.598559,41.865161,5000 -8.598663999999999,41.865048,5000 -8.598803,41.864955,5000 -8.598891,41.86488,5000 -8.598943999999999,41.864768,5000 -8.598974,41.864538,5000 -8.599043,41.86444,5000 -8.599309,41.864139,5000 -8.599462000000001,41.863979,5000 -8.599576000000001,41.863799,5000 -8.599721000000001,41.863588,5000 -8.599795,41.863522,5000 -8.599926999999999,41.863457,5000 -8.600023999999999,41.863422,5000 -8.600149999999999,41.863417,5000 -8.600300000000001,41.863431,5000 -8.600496,41.863418,5000 -8.600669999999999,41.863442,5000 -8.600763000000001,41.86345,5000 -8.600835,41.863431,5000 -8.600871,41.863377,5000 -8.60087,41.863288,5000 -8.600839000000001,41.863156,5000 -8.600752999999999,41.862972,5000 -8.60073,41.862886,5000 -8.600745999999999,41.862817,5000 -8.600804,41.862739,5000 -8.601039,41.862459,5000 -8.601183000000001,41.862315,5000 -8.601271000000001,41.862263,5000 -8.601383999999999,41.862217,5000 -8.601494000000001,41.86219,5000 -8.601615000000001,41.862171,5000 -8.601767000000001,41.862166,5000 -8.601944,41.862174,5000 -8.602129,41.862191,5000 -8.602255,41.862181,5000 -8.602354999999999,41.862162,5000 -8.602509,41.862107,5000 -8.602785000000001,41.862,5000 -8.602909,41.861948,5000 -8.602969,41.861898,5000 -8.603197,41.861715,5000 -8.603382,41.861599,5000 -8.603484,41.861556,5000 -8.604051,41.861809,5000 -8.605893999999999,41.861396,5000 -8.613212000000001,41.852777,5000 -8.622153000000001,41.844376,5000 -8.626537000000001,41.848019,5000 -8.628671000000001,41.848532,5000 -8.633357999999999,41.848833,5000 -8.638626,41.854277,5000 -8.642448,41.855565,5000 -8.644814999999999,41.857329,5000 -8.646093,41.858853,5000 -8.649855000000001,41.856831,5000 -8.649945000000001,41.856739,5000 -8.650096,41.856678,5000 -8.650518999999999,41.856554,5000 -8.651134000000001,41.856394,5000 -8.651337,41.856355,5000 -8.651598,41.856346,5000 -8.651818,41.856359,5000 -8.652022000000001,41.856366,5000 -8.652170999999999,41.856384,5000 -8.652309000000001,41.856411,5000 -8.652426,41.85642,5000 -8.656644,41.85842,5000 -8.657864,41.857985,5000 -8.658037,41.857792,5000 -8.658215999999999,41.857578,5000 -8.658445,41.857368,5000 -8.658690999999999,41.857186,5000 -8.658951999999999,41.856983,5000 -8.659205999999999,41.856753,5000 -8.659496000000001,41.856526,5000 -8.659693000000001,41.856326,5000 -8.659916000000001,41.856104,5000 -8.660166,41.855845,5000 -8.660252,41.855616,5000 -8.660413999999999,41.855334,5000 -8.660603,41.855054,5000 -8.660895999999999,41.854966,5000 -8.661265,41.854998,5000 -8.661657999999999,41.85502,5000 -8.661823999999999,41.854864,5000 -8.661896,41.854703,5000 -8.661949999999999,41.854527,5000 -8.662086,41.854412,5000 -8.662224,41.854329,5000 -8.662471999999999,41.853996,5000 -8.662493,41.853801,5000 -8.662494000000001,41.85367,5000 -8.662478999999999,41.853417,5000 -8.662454,41.853251,5000 -8.662426,41.853102,5000 -8.662428,41.852994,5000 -8.662443,41.852888,5000 -8.66253,41.852455,5000 -8.662578999999999,41.852315,5000 -8.662713999999999,41.852096,5000 -8.662794999999999,41.852019,5000 -8.66297,41.851888,5000 -8.663066000000001,41.851823,5000 -8.663353000000001,41.85166,5000 -8.663600000000001,41.851452,5000 -8.663684,41.851221,5000 -8.663667999999999,41.850978,5000 -8.663653,41.850863,5000 -8.663637,41.850751,5000 -8.663606,41.850623,5000 -8.663589,41.850451,5000 -8.663584999999999,41.850388,5000 -8.663562000000001,41.850214,5000 -8.663543000000001,41.850096,5000 -8.663541,41.849883,5000 -8.663558999999999,41.849756,5000 -8.66357,41.849625,5000 -8.663584999999999,41.849536,5000 -8.66362,41.849404,5000 -8.663656,41.849255,5000 -8.663655,41.849144,5000 -8.663608999999999,41.849026,5000 -8.663543000000001,41.848932,5000 -8.663449999999999,41.84883,5000 -8.663396000000001,41.848656,5000 -8.663554,41.848508,5000 -8.663652000000001,41.848454,5000 -8.663776,41.848385,5000 -8.663904,41.848313,5000 -8.664001000000001,41.848258,5000 -8.664148000000001,41.848178,5000 -8.66431,41.848055,5000 -8.664486999999999,41.847912,5000 -8.664960000000001,41.847466,5000 -8.665317999999999,41.847218,5000 -8.665827999999999,41.846967,5000 -8.666287000000001,41.846834,5000 -8.666641,41.846779,5000 -8.666885000000001,41.846757,5000 -8.667489,41.846717,5000 -8.668167,41.846735,5000 -8.668894999999999,41.84675,5000 -8.669407,41.846773,5000 -8.669938999999999,41.846784,5000 -8.670135,41.846787,5000 -8.670666000000001,41.846241,5000 -8.671279999999999,41.845569,5000 -8.671955000000001,41.844988,5000 -8.672612000000001,41.844383,5000 -8.673347,41.84403,5000 -8.67422,41.843709,5000 -8.674746000000001,41.843516,5000 -8.675349000000001,41.8432,5000 -8.675941999999999,41.84285,5000 -8.676458,41.842605,5000 -8.676703,41.842478,5000 -8.677012,41.842317,5000 -8.677242,41.842208,5000 -8.677515,41.842053,5000 -8.677657999999999,41.841952,5000 -8.677828999999999,41.841807,5000 -8.677941000000001,41.841712,5000 -8.678088000000001,41.841618,5000 -8.678250999999999,41.841532,5000 -8.678380000000001,41.841457,5000 -8.678502999999999,41.841383,5000 -8.678616999999999,41.841308,5000 -8.678708,41.841229,5000 -8.678882,41.841055,5000 -8.678925,41.840957,5000 -8.678955,41.840736,5000 -8.678982,41.840498,5000 -8.678986999999999,41.840299,5000 -8.678986,41.840118,5000 -8.678979999999999,41.83985,5000 -8.678984,41.839361,5000 -8.678995,41.839128,5000 -8.679040000000001,41.838954,5000 -8.679065,41.838812,5000 -8.679087000000001,41.838558,5000 -8.679107,41.838346,5000 -8.679145999999999,41.838036,5000 -8.679171999999999,41.837919,5000 -8.679190999999999,41.837776,5000 -8.679211,41.83764,5000 -8.679245,41.8375,5000 -8.679285999999999,41.837308,5000 -8.679318,41.837175,5000 -8.679309999999999,41.837064,5000 -8.679282000000001,41.836968,5000 -8.679213000000001,41.836811,5000 -8.679225000000001,41.836678,5000 -8.679276,41.836609,5000 -8.679337,41.836526,5000 -8.679342999999999,41.836271,5000 -8.679332,41.83612,5000 -8.679318,41.835985,5000 -8.679309999999999,41.835856,5000 -8.679239000000001,41.835724,5000 -8.679171,41.835625,5000 -8.679119999999999,41.835496,5000 -8.679103,41.83537,5000 -8.679087000000001,41.835275,5000 -8.678944,41.834857,5000 -8.678777999999999,41.834305,5000 -8.678737999999999,41.834228,5000 -8.678641000000001,41.834014,5000 -8.678573999999999,41.833655,5000 -8.678474,41.833412,5000 -8.67835,41.832983,5000 -8.678171000000001,41.83242,5000 -8.678053999999999,41.832111,5000 -8.677973,41.831955,5000 -8.677847,41.831621,5000 -8.677806,41.83144,5000 -8.677763000000001,41.831272,5000 -8.677587000000001,41.830656,5000 -8.6775,41.830382,5000 -8.677405,41.830109,5000 -8.677362,41.8299,5000 -8.677346999999999,41.829737,5000 -8.677337,41.829492,5000 -8.677343,41.829198,5000 -8.677337,41.829054,5000 -8.677333000000001,41.828681,5000 -8.677389,41.82852,5000 -8.677625000000001,41.828229,5000 -8.677711,41.828115,5000 -8.677904,41.827872,5000 -8.678086,41.827646,5000 -8.678169,41.827526,5000 -8.678291,41.827388,5000 -8.678414999999999,41.827184,5000 -8.678459,41.826863,5000 -8.678444000000001,41.826718,5000 -8.678438,41.826427,5000 -8.678438,41.826293,5000 -8.678435,41.826064,5000 -8.678432000000001,41.825922,5000 -8.678442,41.825618,5000 -8.678464,41.824894,5000 -8.678464,41.824833,5000 -8.678464,41.82479,5000 -8.678654999999999,41.824237,5000 -8.678955,41.823534,5000 -8.679066000000001,41.823486,5000 -8.679079,41.823475,5000 -8.679645000000001,41.823326,5000 -8.682371,41.822575,5000 -8.684006,41.822283,5000 -8.687271000000001,41.81949,5000 -8.687766999999999,41.816948,5000 -8.688670999999999,41.816149,5000 -8.689287999999999,41.815553,5000 -8.689928,41.814714,5000 -8.690289999999999,41.814197,5000 -8.690296999999999,41.814187,5000 -8.690626,41.813369,5000 -8.690837,41.811524,5000 -8.690562999999999,41.809327,5000 -8.690452000000001,41.808138,5000 -8.690345000000001,41.806921,5000 -8.690436999999999,41.806001,5000 -8.690421000000001,41.805163,5000 -8.690284,41.804511,5000 -8.689867,41.803412,5000 -8.689242999999999,41.802359,5000 -8.688594999999999,41.801373,5000 -8.687965999999999,41.800412,5000 -8.687808,41.800058,5000 -8.68782,41.800003,5000 -8.687851,41.799859,5000 -8.687957000000001,41.79966,5000 -8.688151,41.799449,5000 -8.688338,41.799286,5000 -8.688397999999999,41.799233,5000 -8.688789999999999,41.798975,5000 -8.689098,41.798746,5000 -8.689489999999999,41.798423,5000 -8.689831999999999,41.798013,5000 -8.690039000000001,41.797652,5000 -8.690154,41.79742,5000 -8.690239999999999,41.797217,5000 -8.69035,41.796868,5000 -8.690424999999999,41.796718,5000 -8.690389,41.796264,5000 -8.690405,41.796122,5000 -8.690628,41.795779,5000 -8.690643,41.79575,5000 -8.690681,41.795637,5000 -8.690749,41.795527,5000 -8.690763,41.795499,5000 -8.690878,41.795294,5000 -8.690939999999999,41.795194,5000 -8.691001999999999,41.795096,5000 -8.691124,41.79489,5000 -8.691138,41.794862,5000 -8.691233,41.794654,5000 -8.691248999999999,41.794626,5000 -8.691333999999999,41.794424,5000 -8.691338999999999,41.794393,5000 -8.691345999999999,41.794328,5000 -8.691354,41.794298,5000 -8.691397,41.794179,5000 -8.691407999999999,41.794148,5000 -8.691509999999999,41.793945,5000 -8.691608,41.793726,5000 -8.691744,41.793479,5000 -8.691856,41.793274,5000 -8.691872999999999,41.793245,5000 -8.692005,41.793036,5000 -8.692126,41.792822,5000 -8.692187000000001,41.792605,5000 -8.692197,41.792573,5000 -8.692285999999999,41.792352,5000 -8.692352,41.792221,5000 -8.692375999999999,41.792167,5000 -8.692387999999999,41.792138,5000 -8.692475,41.791949,5000 -8.692487,41.791921,5000 -8.692583000000001,41.79171,5000 -8.692598,41.79168,5000 -8.692716000000001,41.791459,5000 -8.692733,41.791431,5000 -8.692898,41.791234,5000 -8.692921999999999,41.791208,5000 -8.69294,41.791179,5000 -8.692955,41.791149,5000 -8.692976,41.791087,5000 -8.692982000000001,41.791038,5000 -8.692982000000001,41.791006,5000 -8.692978,41.790976,5000 -8.69285,41.790768,5000 -8.692836,41.790742,5000 -8.692824999999999,41.790714,5000 -8.692812,41.790657,5000 -8.692811000000001,41.790629,5000 -8.692817,41.790587,5000 -8.692823000000001,41.790558,5000 -8.692895999999999,41.790345,5000 -8.693014,41.790131,5000 -8.693031,41.790101,5000 -8.693123999999999,41.789879,5000 -8.693210000000001,41.789671,5000 -8.693223,41.789638,5000 -8.693265,41.789415,5000 -8.693281000000001,41.78919,5000 -8.693296,41.788942,5000 -8.693301999999999,41.78871,5000 -8.693307000000001,41.788484,5000 -8.69331,41.788454,5000 -8.693336,41.788295,5000 -8.693363,41.788107,5000 -8.693374,41.78786,5000 -8.693334999999999,41.787642,5000 -8.693327,41.787423,5000 -8.693337,41.787185,5000 -8.693374,41.787017,5000 -8.693391,41.786934,5000 -8.693448999999999,41.786802,5000 -8.693460999999999,41.786778,5000 -8.693553,41.786583,5000 -8.693641,41.786361,5000 -8.693648,41.786332,5000 -8.693719,41.7861,5000 -8.693764,41.785882,5000 -8.693768,41.785848,5000 -8.693775,41.785757,5000 -8.693809999999999,41.785631,5000 -8.693858000000001,41.785393,5000 -8.693918,41.784988,5000 -8.694012000000001,41.784783,5000 -8.694038000000001,41.78474,5000 -8.694172999999999,41.784524,5000 -8.694209000000001,41.784473,5000 -8.694405,41.784297,5000 -8.694606,41.784139,5000 -8.694813,41.783971,5000 -8.694943,41.78385,5000 -8.694969,41.783826,5000 -8.695131,41.783635,5000 -8.695152,41.783609,5000 -8.695316999999999,41.783433,5000 -8.695347999999999,41.783394,5000 -8.695398000000001,41.783305,5000 -8.695408,41.783276,5000 -8.695411,41.783248,5000 -8.695409,41.783218,5000 -8.695410000000001,41.783188,5000 -8.695418999999999,41.783067,5000 -8.695523,41.782823,5000 -8.695594,41.782673,5000 -8.695592,41.782647,5000 -8.695603,41.782625,5000 -8.695653,41.782559,5000 -8.695674,41.782539,5000 -8.695767,41.782457,5000 -8.695789,41.782434,5000 -8.695808,41.782409,5000 -8.695824,41.782383,5000 -8.695902999999999,41.782167,5000 -8.6959,41.782142,5000 -8.695893,41.782119,5000 -8.695876,41.782096,5000 -8.695709000000001,41.781973,5000 -8.695687,41.781956,5000 -8.695669000000001,41.781936,5000 -8.695658999999999,41.781913,5000 -8.695644,41.781863,5000 -8.695631000000001,41.781837,5000 -8.695536000000001,41.781713,5000 -8.695518,41.781695,5000 -8.695506,41.78167,5000 -8.695480999999999,41.781643,5000 -8.695434000000001,41.781605,5000 -8.695411999999999,41.781586,5000 -8.695392999999999,41.781565,5000 -8.69538,41.781542,5000 -8.69537,41.781518,5000 -8.695356,41.781483,5000 -8.695330999999999,41.781435,5000 -8.695287,41.781364,5000 -8.695264999999999,41.781336,5000 -8.695206000000001,41.781289,5000 -8.695187000000001,41.781272,5000 -8.695168000000001,41.781244,5000 -8.695164999999999,41.781221,5000 -8.695185,41.781064,5000 -8.695183,41.781038,5000 -8.695178,41.781011,5000 -8.695152,41.780835,5000 -8.695164,41.780692,5000 -8.695173,41.780602,5000 -8.695179,41.780574,5000 -8.695195999999999,41.78052,5000 -8.695209,41.780497,5000 -8.695258000000001,41.780423,5000 -8.695281,41.780397,5000 -8.695341000000001,41.780321,5000 -8.695358000000001,41.780292,5000 -8.695373,41.780264,5000 -8.69539,41.780239,5000 -8.695409,41.780215,5000 -8.695432,41.780191,5000 -8.695468999999999,41.78016,5000 -8.695499999999999,41.780139,5000 -8.695532,41.78012,5000 -8.695565,41.780103,5000 -8.695601999999999,41.780089,5000 -8.695643,41.780077,5000 -8.695683000000001,41.780064,5000 -8.695724999999999,41.780054,5000 -8.695757,41.780048,5000 -8.695886,41.78002,5000 -8.695914,41.78001,5000 -8.69594,41.779996,5000 -8.695964,41.779979,5000 -8.695982000000001,41.77996,5000 -8.695995999999999,41.779939,5000 -8.696021,41.779872,5000 -8.696045,41.779819,5000 -8.696063000000001,41.779794,5000 -8.696292,41.779611,5000 -8.696565,41.779487,5000 -8.696586,41.779483,5000 -8.696607,41.779479,5000 -8.696823999999999,41.779447,5000 -8.696866,41.779437,5000 -8.696904,41.779423,5000 -8.696937,41.779409,5000 -8.696966,41.77939,5000 -8.697081000000001,41.77931,5000 -8.697115999999999,41.779292,5000 -8.697148,41.779275,5000 -8.697246,41.779234,5000 -8.697282,41.779217,5000 -8.697402,41.779141,5000 -8.697436,41.779115,5000 -8.697495,41.779065,5000 -8.697647,41.77885,5000 -8.697676,41.778802,5000 -8.697704999999999,41.778754,5000 -8.697774000000001,41.778497,5000 -8.697818,41.778268,5000 -8.697984,41.77804,5000 -8.697898,41.777715,5000 -8.697915999999999,41.777546,5000 -8.697915,41.777513,5000 -8.697917,41.777349,5000 -8.697957000000001,41.777202,5000 -8.698092000000001,41.776981,5000 -8.698290999999999,41.776771,5000 -8.698513999999999,41.776592,5000 -8.698695000000001,41.776526,5000 -8.698774999999999,41.776508,5000 -8.698812999999999,41.776499,5000 -8.698847000000001,41.776487,5000 -8.698874999999999,41.776473,5000 -8.698912,41.776446,5000 -8.698931,41.776424,5000 -8.698945,41.776401,5000 -8.698950999999999,41.776378,5000 -8.698952999999999,41.776309,5000 -8.698973000000001,41.776201,5000 -8.698981,41.776176,5000 -8.698993,41.776154,5000 -8.699007999999999,41.776131,5000 -8.699025000000001,41.776108,5000 -8.699123,41.776002,5000 -8.699218,41.775919,5000 -8.699448,41.775761,5000 -8.699541,41.77569,5000 -8.699679,41.775547,5000 -8.699703,41.775515,5000 -8.699724,41.775482,5000 -8.699742000000001,41.775447,5000 -8.699750999999999,41.77533,5000 -8.69975,41.77531,5000 -8.699747,41.775248,5000 -8.699693999999999,41.775147,5000 -8.699598999999999,41.774929,5000 -8.699481,41.774695,5000 -8.699429,41.774598,5000 -8.699415,41.774574,5000 -8.699365,41.774503,5000 -8.69932,41.774442,5000 -8.699296,41.774419,5000 -8.699265,41.774404,5000 -8.699227,41.774395,5000 -8.698916000000001,41.774435,5000 -8.698886,41.774437,5000 -8.698779999999999,41.774432,5000 -8.698636,41.774405,5000 -8.698596,41.774395,5000 -8.698521,41.774375,5000 -8.698485,41.774364,5000 -8.698448000000001,41.774351,5000 -8.698413,41.774336,5000 -8.698383,41.77432,5000 -8.698357,41.774302,5000 -8.698306000000001,41.774258,5000 -8.698283,41.774241,5000 -8.698257999999999,41.774227,5000 -8.698230000000001,41.774216,5000 -8.6982,41.77421,5000 -8.698168000000001,41.774211,5000 -8.698102,41.774218,5000 -8.69801,41.774213,5000 -8.697813999999999,41.77417,5000 -8.697786000000001,41.77416,5000 -8.697531,41.774011,5000 -8.697283000000001,41.773837,5000 -8.697037999999999,41.773664,5000 -8.696918,41.773567,5000 -8.696744000000001,41.773382,5000 -8.696554000000001,41.773186,5000 -8.69637,41.772985,5000 -8.696177,41.772786,5000 -8.695995,41.772586,5000 -8.695836999999999,41.77236,5000 -8.695694,41.772152,5000 -8.695465,41.771968,5000 -8.695382,41.771912,5000 -8.695352,41.771895,5000 -8.695074,41.771794,5000 -8.69496,41.771765,5000 -8.694713,41.771634,5000 -8.694525000000001,41.771432,5000 -8.694371,41.771208,5000 -8.694203,41.77099,5000 -8.694096,41.770754,5000 -8.693996,41.770528,5000 -8.693863,41.770311,5000 -8.693735,41.770155,5000 -8.693631,41.77008,5000 -8.693602,41.77007,5000 -8.693569,41.77007,5000 -8.693268,41.770088,5000 -8.693231000000001,41.770078,5000 -8.693194,41.770066,5000 -8.692914999999999,41.769935,5000 -8.692643,41.769825,5000 -8.692346000000001,41.769706,5000 -8.692087000000001,41.769559,5000 -8.691801999999999,41.76943,5000 -8.691561,41.769248,5000 -8.691333,41.769085,5000 -8.691212,41.768997,5000 -8.691184,41.76897,5000 -8.691041,41.768749,5000 -8.690928,41.768527,5000 -8.690768,41.768304,5000 -8.690606000000001,41.768089,5000 -8.690488999999999,41.76788,5000 -8.690338000000001,41.76768,5000 -8.690186000000001,41.76745,5000 -8.690078,41.767203,5000 -8.690020000000001,41.766956,5000 -8.689973,41.766727,5000 -8.689864,41.766253,5000 -8.689798,41.766119,5000 -8.689779,41.766095,5000 -8.689406,41.765708,5000 -8.689223,41.765497,5000 -8.689190999999999,41.765475,5000 -8.689156000000001,41.765458,5000 -8.689119,41.765447,5000 -8.689081,41.765438,5000 -8.688966000000001,41.765436,5000 -8.688929,41.765439,5000 -8.688784,41.765471,5000 -8.688743000000001,41.765476,5000 -8.688566,41.765464,5000 -8.688521,41.765452,5000 -8.688316,41.765366,5000 -8.688093,41.76518,5000 -8.687867000000001,41.765027,5000 -8.687602,41.764868,5000 -8.687341,41.764705,5000 -8.687207000000001,41.764622,5000 -8.687004999999999,41.764423,5000 -8.686826999999999,41.76422,5000 -8.686781999999999,41.76419,5000 -8.686766,41.764165,5000 -8.686603,41.763949,5000 -8.686472,41.763722,5000 -8.686375,41.763486,5000 -8.686334,41.763262,5000 -8.686296,41.763007,5000 -8.686254999999999,41.762778,5000 -8.686178999999999,41.762547,5000 -8.686061,41.762329,5000 -8.68586,41.762129,5000 -8.685669000000001,41.761919,5000 -8.685522000000001,41.761682,5000 -8.685236,41.761233,5000 -8.685041,41.76102,5000 -8.684787,41.760861,5000 -8.684649,41.76082,5000 -8.684577000000001,41.760813,5000 -8.684297000000001,41.760709,5000 -8.684044,41.760553,5000 -8.684037,41.760543,5000 -8.684029000000001,41.760533,5000 -8.68402,41.760512,5000 -8.684017000000001,41.760489,5000 -8.684018,41.760466,5000 -8.684022000000001,41.760442,5000 -8.68403,41.760418,5000 -8.684054,41.760371,5000 -8.68407,41.760349,5000 -8.684089999999999,41.760328,5000 -8.684116,41.76031,5000 -8.684381,41.760167,5000 -8.684502999999999,41.760093,5000 -8.68455,41.760048,5000 -8.684569,41.760023,5000 -8.684583999999999,41.76,5000 -8.684616,41.759928,5000 -8.684621999999999,41.759903,5000 -8.684614,41.759809,5000 -8.684604,41.759787,5000 -8.684574,41.759749,5000 -8.684328000000001,41.75958,5000 -8.684296,41.759568,5000 -8.684075,41.759381,5000 -8.683821,41.759232,5000 -8.68352,41.759143,5000 -8.683217000000001,41.7591,5000 -8.682924,41.759043,5000 -8.682661,41.75893,5000 -8.682416,41.758787,5000 -8.682197,41.758618,5000 -8.682100999999999,41.758462,5000 -8.682081,41.75823,5000 -8.681979,41.758071,5000 -8.681891999999999,41.757995,5000 -8.681604,41.757854,5000 -8.681452999999999,41.757773,5000 -8.681346,41.757716,5000 -8.681124000000001,41.757559,5000 -8.680866999999999,41.757402,5000 -8.680618000000001,41.757218,5000 -8.680406,41.757007,5000 -8.680236000000001,41.756805,5000 -8.680097999999999,41.756587,5000 -8.680073999999999,41.756531,5000 -8.680028999999999,41.756284,5000 -8.680033999999999,41.756037,5000 -8.680135999999999,41.755824,5000 -8.680178,41.755708,5000 -8.680184000000001,41.755678,5000 -8.680182,41.755648,5000 -8.680177,41.755617,5000 -8.680085,41.755377,5000 -8.680101000000001,41.755142,5000 -8.680178,41.75492,5000 -8.680242,41.754686,5000 -8.680286000000001,41.754441,5000 -8.680304,41.754199,5000 -8.680317000000001,41.753967,5000 -8.680282,41.753743,5000 -8.680218,41.753493,5000 -8.680142999999999,41.753244,5000 -8.680028999999999,41.753027,5000 -8.679886,41.752821,5000 -8.679746,41.752618,5000 -8.679558999999999,41.752421,5000 -8.679342999999999,41.752256,5000 -8.67911,41.752107,5000 -8.678827,41.751957,5000 -8.678521999999999,41.751847,5000 -8.678425000000001,41.751828,5000 -8.678376999999999,41.751824,5000 -8.678032,41.751827,5000 -8.678008,41.751822,5000 -8.677985,41.751818,5000 -8.677943000000001,41.751805,5000 -8.677905000000001,41.751787,5000 -8.677873,41.751764,5000 -8.677845,41.751738,5000 -8.677825,41.751709,5000 -8.677811999999999,41.751679,5000 -8.677803000000001,41.751448,5000 -8.677797999999999,41.751208,5000 -8.677764,41.750982,5000 -8.677606000000001,41.750784,5000 -8.677422,41.750581,5000 -8.677215,41.750413,5000 -8.67712,41.750361,5000 -8.677085999999999,41.750347,5000 -8.677053000000001,41.750338,5000 -8.677021,41.750337,5000 -8.676989000000001,41.750341,5000 -8.676959,41.750347,5000 -8.67693,41.750356,5000 -8.676902,41.750369,5000 -8.676878,41.750384,5000 -8.676767,41.750472,5000 -8.676741,41.750486,5000 -8.676686999999999,41.750499,5000 -8.676657000000001,41.750498,5000 -8.676624,41.750492,5000 -8.676591999999999,41.75048,5000 -8.67656,41.750464,5000 -8.676529,41.750445,5000 -8.676296000000001,41.750276,5000 -8.676038999999999,41.750151,5000 -8.675786,41.750028,5000 -8.675765,41.750007,5000 -8.675732,41.749961,5000 -8.675722,41.749937,5000 -8.675719000000001,41.749913,5000 -8.675719000000001,41.749888,5000 -8.67573,41.749835,5000 -8.675819000000001,41.749618,5000 -8.675812000000001,41.749597,5000 -8.675806,41.749576,5000 -8.675789999999999,41.749555,5000 -8.675566999999999,41.74939,5000 -8.675363000000001,41.749218,5000 -8.675325000000001,41.749157,5000 -8.675314,41.749127,5000 -8.675307999999999,41.749099,5000 -8.675307999999999,41.74907,5000 -8.675314,41.74904,5000 -8.675335,41.748985,5000 -8.675371999999999,41.748936,5000 -8.675618999999999,41.748775,5000 -8.675903999999999,41.748682,5000 -8.67609,41.748593,5000 -8.676144000000001,41.748549,5000 -8.676164999999999,41.748526,5000 -8.676182000000001,41.7485,5000 -8.676206000000001,41.748448,5000 -8.676216999999999,41.748193,5000 -8.676212,41.74818,5000 -8.676206000000001,41.748167,5000 -8.676189000000001,41.748141,5000 -8.676004000000001,41.747923,5000 -8.675863,41.747709,5000 -8.675724000000001,41.747491,5000 -8.675573,41.747265,5000 -8.675473,41.747047,5000 -8.675388,41.746807,5000 -8.675307999999999,41.746589,5000 -8.675212999999999,41.746365,5000 -8.675031000000001,41.746145,5000 -8.674754,41.745989,5000 -8.674623,41.745924,5000 -8.674474,41.74585,5000 -8.674234999999999,41.745679,5000 -8.674018999999999,41.745468,5000 -8.673816,41.745261,5000 -8.673658,41.745051,5000 -8.673563,41.74484,5000 -8.673557000000001,41.744827,5000 -8.673431000000001,41.744599,5000 -8.673427999999999,41.744576,5000 -8.673406999999999,41.744529,5000 -8.673374000000001,41.744473,5000 -8.673363999999999,41.744439,5000 -8.673360000000001,41.74425,5000 -8.673349999999999,41.744202,5000 -8.673339,41.744177,5000 -8.673322000000001,41.744155,5000 -8.673297,41.744133,5000 -8.673266999999999,41.744112,5000 -8.67299,41.744013,5000 -8.672692,41.743946,5000 -8.672362,41.743868,5000 -8.672077,41.743757,5000 -8.67179,41.743656,5000 -8.671474999999999,41.743531,5000 -8.668457,41.739534,5000 -8.668101999999999,41.739088,5000 -8.666918000000001,41.737595,5000 -8.665694,41.735997,5000 -8.664389999999999,41.734331,5000 -8.664683999999999,41.732099,5000 -8.664759,41.73153,5000 -8.665330000000001,41.727215,5000 -8.665403,41.726925,5000 -8.665406000000001,41.726915,5000 -8.665898,41.72545,5000 -8.666603,41.723352,5000 -8.666903,41.722454,5000 -8.665659,41.720769,5000 -8.665583,41.719949,5000 -8.66502,41.719762,5000 -8.663589999999999,41.719286,5000 -8.661611000000001,41.718626,5000 -8.661334,41.718534,5000 -8.660266999999999,41.717667,5000 -8.657295,41.717809,5000 -8.656646,41.717882,5000 -8.655861,41.717969,5000 -8.655075,41.717999,5000 -8.654935,41.717589,5000 -8.654605999999999,41.714926,5000 -8.653337000000001,41.714752,5000 -8.651149,41.714685,5000 -8.649952000000001,41.714537,5000 -8.649264000000001,41.714002,5000 -8.649155,41.713233,5000 -8.647499,41.711166,5000 -8.647076999999999,41.709727,5000 -8.645598,41.708504,5000 -8.644779,41.708661,5000 -8.644297999999999,41.70833,5000 -8.642091000000001,41.701447,5000 -8.642866,41.700111,5000 -8.643165,41.6981,5000 -8.64345,41.696183,5000 -8.647161000000001,41.694603,5000 -8.648097999999999,41.694215,5000 -8.649476999999999,41.693645,5000 -8.647800999999999,41.690961,5000 -8.647574000000001,41.690681,5000 -8.648020000000001,41.69009,5000 -8.647876,41.690014,5000 -8.647781999999999,41.690119,5000 -8.647641,41.690192,5000 -8.647541,41.690211,5000 -8.647989000000001,41.68934,5000 -8.649025999999999,41.688835,5000 -8.651172000000001,41.688787,5000 -8.651562,41.68869,5000 -8.651767,41.688596,5000 -8.654624999999999,41.687292,5000 -8.655817000000001,41.686928,5000 -8.656465000000001,41.68672,5000 -8.656629000000001,41.685848,5000 -8.655379999999999,41.683522,5000 -8.654786,41.683068,5000 -8.654005,41.682472,5000 -8.652668999999999,41.681966,5000 -8.651301999999999,41.681921,5000 -8.649931,41.681697,5000 -8.648527,41.681216,5000 -8.647326,41.680555,5000 -8.646520000000001,41.679743,5000 -8.646464999999999,41.679688,5000 -8.646383,41.677997,5000 -8.646712000000001,41.676381,5000 -8.646698000000001,41.674664,5000 -8.646144,41.673642,5000 -8.646133000000001,41.672309,5000 -8.645709999999999,41.670646,5000 -8.645728,41.668667,5000 -8.645854999999999,41.667462,5000 -8.645709999999999,41.666387,5000 -8.646791,41.664844,5000 -8.64456,41.66342,5000 -8.643939,41.662628,5000 -8.643933000000001,41.661911,5000 -8.643242000000001,41.660812,5000 -8.642880999999999,41.658379,5000 -8.643316,41.657326,5000 -8.643857000000001,41.656606,5000 -8.644228,41.656041,5000 -8.643503000000001,41.654994,5000 -8.643318000000001,41.654439,5000 -8.643316,41.654413,5000 -8.643274,41.65441,5000 -8.642935,41.654379,5000 -8.641878,41.654211,5000 -8.641094000000001,41.654074,5000 -8.640312,41.654054,5000 -8.639590999999999,41.653775,5000 -8.637997,41.65357,5000 -8.637649,41.653525,5000 -8.634422000000001,41.652718,5000 -8.633043000000001,41.652325,5000 -8.631964999999999,41.652122,5000 -8.631475999999999,41.652027,5000 -8.630471,41.651444,5000 -8.628809,41.650911,5000 -8.628678000000001,41.650866,5000 -8.628418,41.650864,5000 -8.628038,41.650837,5000 -8.627687999999999,41.650837,5000 -8.627482000000001,41.650836,5000 -8.627155,41.650809,5000 -8.627151,41.650779,5000 -8.627152000000001,41.650684,5000 -8.627129999999999,41.650584,5000 -8.627129,41.650551,5000 -8.627134,41.650515,5000 -8.627211000000001,41.650348,5000 -8.627236999999999,41.650307,5000 -8.627352999999999,41.650123,5000 -8.627544,41.649949,5000 -8.627568,41.649921,5000 -8.627587999999999,41.649887,5000 -8.627603000000001,41.649851,5000 -8.627635,41.649742,5000 -8.627649999999999,41.64971,5000 -8.62767,41.649683,5000 -8.627694,41.649662,5000 -8.627724000000001,41.649649,5000 -8.627753999999999,41.649642,5000 -8.627810999999999,41.649649,5000 -8.627837,41.649664,5000 -8.627910999999999,41.649735,5000 -8.627941,41.64976,5000 -8.627976,41.64978,5000 -8.628012,41.649794,5000 -8.62805,41.649799,5000 -8.628087000000001,41.649799,5000 -8.62819,41.649777,5000 -8.628522999999999,41.649768,5000 -8.628560999999999,41.649763,5000 -8.628596,41.649754,5000 -8.628688,41.649716,5000 -8.628904,41.649556,5000 -8.628940999999999,41.649536,5000 -8.628982000000001,41.64952,5000 -8.629025,41.649513,5000 -8.629168999999999,41.649511,5000 -8.629469,41.649521,5000 -8.629508,41.649518,5000 -8.629545999999999,41.649512,5000 -8.629842999999999,41.649432,5000 -8.629913,41.649396,5000 -8.629941000000001,41.649376,5000 -8.629963,41.649355,5000 -8.629975,41.649333,5000 -8.629979000000001,41.649311,5000 -8.629968,41.649114,5000 -8.629948000000001,41.649064,5000 -8.629935,41.649043,5000 -8.629918,41.649024,5000 -8.629879000000001,41.648993,5000 -8.629854,41.64898,5000 -8.629757,41.648948,5000 -8.629727000000001,41.648934,5000 -8.629701000000001,41.648917,5000 -8.629678999999999,41.648896,5000 -8.629661,41.64887,5000 -8.629631,41.648819,5000 -8.629611000000001,41.648794,5000 -8.629588,41.648771,5000 -8.629534,41.648729,5000 -8.629483,41.648674,5000 -8.629441999999999,41.648608,5000 -8.629376000000001,41.648359,5000 -8.629377,41.648325,5000 -8.629384,41.648293,5000 -8.629402000000001,41.648267,5000 -8.629426,41.648245,5000 -8.629517,41.648184,5000 -8.629543999999999,41.648163,5000 -8.629564999999999,41.648138,5000 -8.629581999999999,41.648111,5000 -8.629594000000001,41.648084,5000 -8.629598,41.648058,5000 -8.629595,41.648034,5000 -8.629583999999999,41.648011,5000 -8.629566000000001,41.647988,5000 -8.629542000000001,41.647966,5000 -8.629515,41.647946,5000 -8.629486,41.647927,5000 -8.629453,41.647911,5000 -8.629246999999999,41.647833,5000 -8.629206,41.647811,5000 -8.629168999999999,41.647786,5000 -8.629073999999999,41.647695,5000 -8.629047,41.647662,5000 -8.629027000000001,41.647626,5000 -8.628990999999999,41.647471,5000 -8.628989000000001,41.647232,5000 -8.629026,41.646986,5000 -8.629030999999999,41.64695,5000 -8.629073999999999,41.646717,5000 -8.629227999999999,41.646498,5000 -8.629391,41.646301,5000 -8.629429999999999,41.64623,5000 -8.629443,41.646193,5000 -8.62945,41.646156,5000 -8.62945,41.646119,5000 -8.629441999999999,41.646083,5000 -8.629344,41.645914,5000 -8.629329,41.645883,5000 -8.62932,41.645854,5000 -8.629314000000001,41.645709,5000 -8.629318,41.64568,5000 -8.629329,41.64565,5000 -8.629384,41.645549,5000 -8.629531,41.645351,5000 -8.629549000000001,41.645324,5000 -8.62956,41.645298,5000 -8.629562999999999,41.645273,5000 -8.629559,41.645247,5000 -8.62955,41.645221,5000 -8.629514,41.645145,5000 -8.629507,41.645119,5000 -8.629504000000001,41.644943,5000 -8.62951,41.644903,5000 -8.629523000000001,41.644866,5000 -8.629604,41.644737,5000 -8.629613000000001,41.644707,5000 -8.629612,41.644681,5000 -8.629598,41.644661,5000 -8.629574,41.644646,5000 -8.629541,41.644637,5000 -8.629507,41.644634,5000 -8.629471000000001,41.644639,5000 -8.629364000000001,41.644666,5000 -8.629327999999999,41.64467,5000 -8.629289999999999,41.644671,5000 -8.629251999999999,41.644668,5000 -8.629216,41.644659,5000 -8.629186000000001,41.644646,5000 -8.629162000000001,41.644628,5000 -8.629128,41.644589,5000 -8.629104,41.644554,5000 -8.629097,41.644517,5000 -8.629104999999999,41.64448,5000 -8.629137,41.644449,5000 -8.629189,41.64443,5000 -8.629217000000001,41.644422,5000 -8.62927,41.644403,5000 -8.629305,41.644373,5000 -8.629374,41.644273,5000 -8.629394,41.644255,5000 -8.629443999999999,41.64423,5000 -8.629474,41.644225,5000 -8.629505,41.644227,5000 -8.629536999999999,41.644234,5000 -8.629607,41.644256,5000 -8.62992,41.644311,5000 -8.629960000000001,41.64431,5000 -8.629996,41.644305,5000 -8.630048,41.644279,5000 -8.630131,41.644186,5000 -8.630196,41.643963,5000 -8.630172999999999,41.64396,5000 -8.630086,41.643948,5000 -8.630026000000001,41.643934,5000 -8.629996999999999,41.643924,5000 -8.629934,41.643893,5000 -8.629654,41.643754,5000 -8.629579,41.643727,5000 -8.629541,41.643718,5000 -8.629504000000001,41.643713,5000 -8.629467999999999,41.643712,5000 -8.629435000000001,41.643716,5000 -8.629403999999999,41.643723,5000 -8.629375,41.643736,5000 -8.629348,41.643751,5000 -8.629205000000001,41.643885,5000 -8.629170999999999,41.643953,5000 -8.629136000000001,41.644005,5000 -8.629094,41.644024,5000 -8.629066,41.644055,5000 -8.629002,41.644049,5000 -8.628951000000001,41.644032,5000 -8.62893,41.643999,5000 -8.628933999999999,41.643959,5000 -8.628920000000001,41.643921,5000 -8.628895999999999,41.643902,5000 -8.628602000000001,41.643777,5000 -8.628337999999999,41.643645,5000 -8.628304999999999,41.643618,5000 -8.628277000000001,41.643586,5000 -8.628209,41.643474,5000 -8.628102999999999,41.643254,5000 -8.628076999999999,41.643225,5000 -8.628045,41.643198,5000 -8.628007,41.643173,5000 -8.627924999999999,41.643133,5000 -8.627844,41.643106,5000 -8.627807000000001,41.643101,5000 -8.627772999999999,41.643104,5000 -8.627739999999999,41.643118,5000 -8.62771,41.643139,5000 -8.627634,41.643208,5000 -8.627599,41.643233,5000 -8.627561,41.643236,5000 -8.627504,41.64322,5000 -8.627473999999999,41.643209,5000 -8.62744,41.643193,5000 -8.627219999999999,41.643038,5000 -8.627178000000001,41.643016,5000 -8.627135000000001,41.643001,5000 -8.627093,41.642995,5000 -8.627052000000001,41.642996,5000 -8.627013,41.643003,5000 -8.626976000000001,41.643015,5000 -8.626943000000001,41.643032,5000 -8.626913,41.643051,5000 -8.626889,41.643073,5000 -8.626871,41.643093,5000 -8.626792,41.643202,5000 -8.626761999999999,41.643228,5000 -8.626723999999999,41.643248,5000 -8.626681,41.643262,5000 -8.626636,41.643269,5000 -8.626590999999999,41.64327,5000 -8.626550999999999,41.643263,5000 -8.626312,41.6432,5000 -8.62626,41.643194,5000 -8.626207000000001,41.643194,5000 -8.626155000000001,41.643203,5000 -8.626104,41.643221,5000 -8.626056,41.643246,5000 -8.625920000000001,41.643338,5000 -8.625666000000001,41.643488,5000 -8.625610999999999,41.643506,5000 -8.625552000000001,41.643517,5000 -8.625489,41.643526,5000 -8.625168,41.643582,5000 -8.625109,41.643585,5000 -8.625052999999999,41.643578,5000 -8.624947000000001,41.64355,5000 -8.624893999999999,41.643539,5000 -8.624787,41.643539,5000 -8.624733000000001,41.643555,5000 -8.62467,41.643586,5000 -8.624098999999999,41.643706,5000 -8.622564000000001,41.643975,5000 -8.622547000000001,41.643979,5000 -8.621933,41.644087,5000 -8.617875,41.644175,5000 -8.617193,41.64419,5000 -8.616474999999999,41.643985,5000 -8.615830000000001,41.643499,5000 -8.613705,41.641893,5000 -8.61337,41.64164,5000 -8.611764000000001,41.640653,5000 -8.611147000000001,41.6405,5000 -8.610395,41.640339,5000 -8.610146,41.64028,5000 -8.610035,41.640183,5000 -8.6092,41.639079,5000 -8.608769000000001,41.638744,5000 -8.608336,41.638193,5000 -8.608036,41.638045,5000 -8.607792,41.63799,5000 -8.607396,41.637933,5000 -8.607053000000001,41.637849,5000 -8.606559000000001,41.637625,5000 -8.605976999999999,41.637261,5000 -8.605727999999999,41.637092,5000 -8.605058,41.636605,5000 -8.604895000000001,41.636241,5000 -8.604908999999999,41.636211,5000 -8.604939999999999,41.636138,5000 -8.60497,41.635968,5000 -8.604975,41.635838,5000 -8.60492,41.635586,5000 -8.604882,41.635442,5000 -8.604856,41.635314,5000 -8.604796,41.635075,5000 -8.604746,41.634922,5000 -8.604729000000001,41.634825,5000 -8.604657,41.634695,5000 -8.604547,41.63462,5000 -8.604316000000001,41.634491,5000 -8.604167,41.634347,5000 -8.603947,41.634367,5000 -8.603910000000001,41.634368,5000 -8.603664,41.634373,5000 -8.60351,41.634389,5000 -8.603374000000001,41.634456,5000 -8.603096000000001,41.634601,5000 -8.602937000000001,41.634674,5000 -8.602722999999999,41.634722,5000 -8.602318,41.634788,5000 -8.602080000000001,41.634827,5000 -8.60191,41.634853,5000 -8.601753,41.634894,5000 -8.601642,41.634935,5000 -8.601594,41.634961,5000 -8.601532000000001,41.635028,5000 -8.601509999999999,41.635078,5000 -8.601508000000001,41.635154,5000 -8.601521999999999,41.635336,5000 -8.601511,41.635504,5000 -8.601442,41.635567,5000 -8.601331,41.635622,5000 -8.601129999999999,41.635706,5000 -8.600956999999999,41.635753,5000 -8.600866999999999,41.635758,5000 -8.600745,41.635745,5000 -8.600593,41.635714,5000 -8.600509000000001,41.635697,5000 -8.600402000000001,41.635702,5000 -8.600349,41.635738,5000 -8.600277999999999,41.635841,5000 -8.600160000000001,41.635938,5000 -8.600042999999999,41.636009,5000 -8.599881999999999,41.636062,5000 -8.599658,41.636103,5000 -8.599501999999999,41.636113,5000 -8.599294,41.636075,5000 -8.599087000000001,41.636029,5000 -8.598922,41.636009,5000 -8.598826000000001,41.636037,5000 -8.598753,41.636238,5000 -8.598195,41.637155,5000 -8.597106999999999,41.638372,5000 -8.595382000000001,41.63961,5000 -8.595285000000001,41.639681,5000 -8.594896,41.639957,5000 -8.593579999999999,41.640348,5000 -8.592654,41.640696,5000 -8.592458000000001,41.640915,5000 -8.592257,41.641048,5000 -8.591998999999999,41.641399,5000 -8.591780999999999,41.641583,5000 -8.591317999999999,41.64175,5000 -8.589612000000001,41.64227,5000 -8.589229,41.642469,5000 -8.588832999999999,41.642676,5000 -8.588272999999999,41.642972,5000 -8.586738,41.643564,5000 -8.585884999999999,41.643843,5000 -8.585129,41.643937,5000 -8.584225,41.643904,5000 -8.583394,41.643834,5000 -8.581975999999999,41.643656,5000 -8.580852,41.643606,5000 -8.580021,41.643591,5000 -8.578382,41.643249,5000 -8.577342,41.642991,5000 -8.576948,41.642608,5000 -8.576501,41.641978,5000 -8.575911,41.641148,5000 -8.574014,41.637496,5000 -8.573740000000001,41.636946,5000 -8.573324,41.636108,5000 -8.573121,41.635703,5000 -8.573033000000001,41.635562,5000 -8.572671,41.634986,5000 -8.571968,41.633864,5000 -8.570411999999999,41.632008,5000 -8.569239,41.629737,5000 -8.56907,41.629199,5000 -8.569393,41.628164,5000 -8.568721999999999,41.626759,5000 -8.568111999999999,41.626099,5000 -8.566895000000001,41.625524,5000 -8.565918999999999,41.625499,5000 -8.565944999999999,41.625493,5000 -8.565502,41.625467,5000 -8.565033,41.625337,5000 -8.564925000000001,41.625197,5000 -8.564747000000001,41.624985,5000 -8.564534999999999,41.624766,5000 -8.564479,41.624731,5000 -8.564417000000001,41.624702,5000 -8.564349,41.62468,5000 -8.564279000000001,41.624666,5000 -8.564211,41.624659,5000 -8.563897000000001,41.624663,5000 -8.563834,41.624658,5000 -8.563769000000001,41.624647,5000 -8.563573,41.624591,5000 -8.563515000000001,41.624563,5000 -8.563464,41.624529,5000 -8.563421,41.624494,5000 -8.563383,41.624455,5000 -8.563253,41.624209,5000 -8.563132,41.623952,5000 -8.562896,41.623744,5000 -8.562834000000001,41.623703,5000 -8.563642,41.625585,5000 -8.563712000000001,41.62569,5000 -8.563753,41.625815,5000 -8.563807000000001,41.625949,5000 -8.563834999999999,41.62601,5000 -8.563663,41.626055,5000 -8.563385,41.62618,5000 -8.563119,41.626255,5000 -8.562741000000001,41.626277,5000 -8.562377,41.626335,5000 -8.562042,41.626396,5000 -8.561674999999999,41.626394,5000 -8.561401,41.626442,5000 -8.561038,41.626466,5000 -8.560632,41.626404,5000 -8.560409999999999,41.626352,5000 -8.559884,41.626268,5000 -8.559449000000001,41.626236,5000 -8.558994999999999,41.62618,5000 -8.558679,41.626158,5000 -8.558135,41.626091,5000 -8.557814,41.626127,5000 -8.557677,41.626144,5000 -8.557268000000001,41.626243,5000 -8.556952000000001,41.62635,5000 -8.556789,41.626404,5000 -8.556741000000001,41.62642,5000 -8.556430000000001,41.626526,5000 -8.555998000000001,41.626663,5000 -8.555702,41.626751,5000 -8.555331000000001,41.62683,5000 -8.555004,41.62689,5000 -8.554480999999999,41.626962,5000 -8.554237000000001,41.627006,5000 -8.553893,41.627102,5000 -8.553710000000001,41.627129,5000 -8.553546000000001,41.627126,5000 -8.553353,41.627113,5000 -8.553231,41.626981,5000 -8.553115,41.62704,5000 -8.552906999999999,41.627079,5000 -8.552732000000001,41.627097,5000 -8.552548,41.627105,5000 -8.552448999999999,41.627102,5000 -8.552075,41.627326,5000 -8.552021999999999,41.627405,5000 -8.551928,41.627506,5000 -8.551766000000001,41.627649,5000 -8.551587,41.627829,5000 -8.551450000000001,41.627975,5000 -8.551304,41.628104,5000 -8.551116,41.628233,5000 -8.550722,41.628454,5000 -8.550445,41.628593,5000 -8.550159000000001,41.628716,5000 -8.549693,41.628794,5000 -8.549534,41.628794,5000 -8.549344,41.62881,5000 -8.549168999999999,41.628869,5000 -8.548813000000001,41.629051,5000 -8.548654000000001,41.6291,5000 -8.548363,41.629157,5000 -8.547995,41.629217,5000 -8.547673,41.629274,5000 -8.54707,41.629343,5000 -8.546806,41.629395,5000 -8.546443,41.629507,5000 -8.545999999999999,41.629703,5000 -8.545849,41.629802,5000 -8.545121999999999,41.630232,5000 -8.544904000000001,41.630331,5000 -8.544074999999999,41.630572,5000 -8.54377,41.630673,5000 -8.540777,41.631341,5000 -8.540775,41.631556,5000 -8.540761,41.631921,5000 -8.540753,41.632084,5000 -8.540708,41.632221,5000 -8.540625,41.632546,5000 -8.540623,41.632767,5000 -8.540756999999999,41.633017,5000 -8.540799,41.633085,5000 -8.540763,41.63334,5000 -8.540899,41.633597,5000 -8.540858,41.633732,5000 -8.540813,41.633813,5000 -8.540813999999999,41.633956,5000 -8.540867,41.634052,5000 -8.540948,41.63421,5000 -8.54111,41.634292,5000 -8.541134,41.634391,5000 -8.542704000000001,41.637726,5000 -8.542877000000001,41.638484,5000 -8.542870000000001,41.638532,5000 -8.542747,41.63932,5000 -8.542373,41.640183,5000 -8.541473999999999,41.641731,5000 -8.538959999999999,41.645194,5000 -8.538499,41.645656,5000 -8.537951,41.646296,5000 -8.537459,41.646876,5000 -8.537398,41.647151,5000 -8.537443,41.647359,5000 -8.537381999999999,41.64762,5000 -8.537337000000001,41.648058,5000 -8.537259000000001,41.648677,5000 -8.53673,41.649144,5000 -8.536473000000001,41.649573,5000 -8.536505,41.650157,5000 -8.536371000000001,41.650727,5000 -8.536645999999999,41.65132,5000 -8.53689,41.651603,5000 -8.537037,41.652673,5000 -8.537183000000001,41.653535,5000 -8.537750000000001,41.654131,5000 -8.537919,41.655242,5000 -8.537941999999999,41.655396,5000 -8.538556,41.656147,5000 -8.538612000000001,41.656192,5000 -8.539113,41.656591,5000 -8.539137,41.656606,5000 -8.539410999999999,41.65664,5000 -8.539958,41.656691,5000 -8.540478999999999,41.656792,5000 -8.540739,41.656862,5000 -8.540759,41.656903,5000 -8.540774000000001,41.657024,5000 -8.540775,41.657083,5000 -8.540781000000001,41.657106,5000 -8.540811,41.657137,5000 -8.540843000000001,41.657151,5000 -8.541027,41.657205,5000 -8.541074,41.657224,5000 -8.541116000000001,41.657249,5000 -8.541152,41.657278,5000 -8.541185,41.657314,5000 -8.541275000000001,41.657449,5000 -8.541285,41.657475,5000 -8.541294000000001,41.657734,5000 -8.541309,41.657776,5000 -8.54134,41.657813,5000 -8.541416999999999,41.657873,5000 -8.541461999999999,41.657894,5000 -8.541515,41.657906,5000 -8.541539999999999,41.657912,5000 -8.541838,41.657979,5000 -8.541886,41.658001,5000 -8.541926,41.658023,5000 -8.541957999999999,41.658051,5000 -8.541975000000001,41.658083,5000 -8.541980000000001,41.658116,5000 -8.541968000000001,41.658162,5000 -8.541943,41.658189,5000 -8.541904000000001,41.658213,5000 -8.541853,41.658232,5000 -8.541824999999999,41.658239,5000 -8.54171,41.658256,5000 -8.541664000000001,41.658274,5000 -8.541620999999999,41.658303,5000 -8.541601,41.65832,5000 -8.541520999999999,41.658417,5000 -8.541318,41.658591,5000 -8.541288,41.658607,5000 -8.541255,41.658619,5000 -8.541133,41.658645,5000 -8.541078000000001,41.658651,5000 -8.540837,41.658633,5000 -8.540787,41.658636,5000 -8.540739,41.658646,5000 -8.540585,41.658709,5000 -8.540563000000001,41.658724,5000 -8.540543,41.658743,5000 -8.540528,41.658762,5000 -8.540516999999999,41.658784,5000 -8.540512,41.658826,5000 -8.54055,41.658879,5000 -8.540571999999999,41.658895,5000 -8.540596000000001,41.658908,5000 -8.540682,41.658941,5000 -8.540948999999999,41.65905,5000 -8.540995000000001,41.659083,5000 -8.541096,41.659235,5000 -8.541216,41.65945,5000 -8.541228,41.659491,5000 -8.541223,41.659528,5000 -8.5412,41.65956,5000 -8.541147,41.659602,5000 -8.541105999999999,41.659626,5000 -8.541067,41.659654,5000 -8.541032,41.659687,5000 -8.541003999999999,41.659724,5000 -8.540998,41.659761,5000 -8.54101,41.659799,5000 -8.541052000000001,41.659878,5000 -8.541055999999999,41.65992,5000 -8.541046,41.659957,5000 -8.540993,41.660019,5000 -8.540971000000001,41.660052,5000 -8.540955,41.660084,5000 -8.540953,41.660115,5000 -8.540977,41.66014,5000 -8.541022,41.660154,5000 -8.541071000000001,41.660163,5000 -8.541383,41.660176,5000 -8.541432,41.660183,5000 -8.541475,41.660195,5000 -8.541513999999999,41.66022,5000 -8.541532999999999,41.660238,5000 -8.541642,41.66041,5000 -8.541777,41.660615,5000 -8.542085,41.661006,5000 -8.54227,41.661269,5000 -8.54312,41.661562,5000 -8.544513,41.662001,5000 -8.545006000000001,41.662228,5000 -8.545501,41.662498,5000 -8.545702,41.662611,5000 -8.546056999999999,41.66312,5000 -8.546854,41.663029,5000 -8.547295,41.663168,5000 -8.54739,41.663308,5000 -8.547295,41.663561,5000 -8.547288,41.66358,5000 -8.547139,41.663944,5000 -8.547015,41.66418,5000 -8.546863,41.664539,5000 -8.546708000000001,41.664981,5000 -8.546411000000001,41.665311,5000 -8.546001,41.665502,5000 -8.545608,41.665757,5000 -8.545394999999999,41.665927,5000 -8.545118,41.665992,5000 -8.544971,41.66621,5000 -8.544936,41.666513,5000 -8.544919,41.666831,5000 -8.544877,41.667062,5000 -8.544789,41.667302,5000 -8.544544,41.667534,5000 -8.544384000000001,41.667746,5000 -8.544262,41.667925,5000 -8.54407,41.668949,5000 -8.542890999999999,41.671466,5000 -8.542646,41.671526,5000 -8.54251,41.671529,5000 -8.542014,41.6714,5000 -8.541213000000001,41.671409,5000 -8.540189,41.671452,5000 -8.538990999999999,41.671761,5000 -8.537661999999999,41.672251,5000 -8.537064000000001,41.672538,5000 -8.535895,41.673426,5000 -8.535622999999999,41.673743,5000 -8.535727,41.674024,5000 -8.535830000000001,41.674229,5000 -8.535871999999999,41.674352,5000 -8.535863000000001,41.674821,5000 -8.535579,41.675399,5000 -8.535563,41.675435,5000 -8.535463999999999,41.677421,5000 -8.53534,41.677545,5000 -8.534686000000001,41.677628,5000 -8.534497999999999,41.677651,5000 -8.534136,41.678507,5000 -8.534006,41.678766,5000 -8.533906,41.678949,5000 -8.533806,41.679089,5000 -8.533640999999999,41.679264,5000 -8.533436999999999,41.679433,5000 -8.533275,41.679561,5000 -8.53275,41.679707,5000 -8.530794,41.680146,5000 -8.530613000000001,41.680203,5000 -8.530457,41.680288,5000 -8.530306,41.680412,5000 -8.530257000000001,41.680457,5000 -8.530196,41.680514,5000 -8.529394999999999,41.679922,5000 -8.529273,41.679817,5000 -8.528677,41.679301,5000 -8.528048999999999,41.679084,5000 -8.526913,41.678901,5000 -8.525876,41.678953,5000 -8.524774000000001,41.679055,5000 -8.522948,41.679191,5000 -8.522224,41.679306,5000 -8.521966000000001,41.679445,5000 -8.521794,41.679608,5000 -8.521385,41.680749,5000 -8.521383999999999,41.680937,5000 -8.521182,41.681699,5000 -8.520769,41.683253,5000 -8.520607999999999,41.685069,5000 -8.520555,41.685123,5000 -8.520493,41.6856,5000 -8.520232,41.68633,5000 -8.519354,41.688808,5000 -8.519304,41.689129,5000 -8.519098,41.690448,5000 -8.519117,41.690475,5000 -8.51925,41.690717,5000 -8.520022000000001,41.692115,5000 -8.5199,41.692416,5000 -8.519752,41.692791,5000 -8.519276,41.693422,5000 -8.517636,41.697224,5000 -8.517606000000001,41.697293,5000 -8.516724999999999,41.702851,5000 -8.516006000000001,41.70721,5000 -8.515897000000001,41.708114,5000 -8.515684,41.710293,5000 -8.514583,41.715948,5000 -8.513975,41.718763,5000 -8.513769999999999,41.721334,5000 -8.513918,41.721537,5000 -8.513983,41.721586,5000 -8.514037,41.721618,5000 -8.514087,41.721653,5000 -8.514113999999999,41.72167,5000 -8.514139,41.721684,5000 -8.514182999999999,41.721702,5000 -8.514212000000001,41.721713,5000 -8.514305,41.721751,5000 -8.514347000000001,41.721763,5000 -8.514393999999999,41.721782,5000 -8.514495999999999,41.721842,5000 -8.514521999999999,41.721857,5000 -8.514552,41.721875,5000 -8.514595,41.721898,5000 -8.514631,41.721914,5000 -8.51474,41.72196,5000 -8.51477,41.721972,5000 -8.514893000000001,41.72201,5000 -8.515093999999999,41.72205,5000 -8.515140000000001,41.722055,5000 -8.515193,41.722061,5000 -8.515497,41.722081,5000 -8.515805,41.722086,5000 -8.515838,41.722087,5000 -8.516159,41.722109,5000 -8.516271,41.722119,5000 -8.516362000000001,41.72213,5000 -8.516396,41.722139,5000 -8.516461,41.722151,5000 -8.516489999999999,41.722156,5000 -8.516534999999999,41.72216,5000 -8.516569,41.722161,5000 -8.516627,41.722162,5000 -8.516867,41.722178,5000 -8.516902,41.722185,5000 -8.516933,41.722192,5000 -8.517168,41.722274,5000 -8.517382,41.722345,5000 -8.517439,41.722363,5000 -8.517473000000001,41.722368,5000 -8.517528,41.722376,5000 -8.517564999999999,41.722384,5000 -8.517658000000001,41.722403,5000 -8.517766,41.722431,5000 -8.517847,41.722452,5000 -8.517946,41.722503,5000 -8.517989,41.722526,5000 -8.518020999999999,41.722546,5000 -8.518133000000001,41.722611,5000 -8.518245,41.722661,5000 -8.51864,41.722751,5000 -8.518713999999999,41.72277,5000 -8.518777999999999,41.722794,5000 -8.518846999999999,41.722824,5000 -8.518905999999999,41.722855,5000 -8.518959000000001,41.722892,5000 -8.519196000000001,41.723068,5000 -8.519232000000001,41.723103,5000 -8.51928,41.723143,5000 -8.519321,41.723191,5000 -8.519363999999999,41.723249,5000 -8.519373999999999,41.723371,5000 -8.519088,41.723601,5000 -8.518803999999999,41.724185,5000 -8.518706,41.724692,5000 -8.518572000000001,41.72501,5000 -8.518575,41.725441,5000 -8.518577000000001,41.725602,5000 -8.518637,41.725776,5000 -8.518629000000001,41.725942,5000 -8.518456,41.726192,5000 -8.518371999999999,41.726287,5000 -8.516938,41.727143,5000 -8.514222,41.728809,5000 -8.509995999999999,41.731203,5000 -8.506705,41.733068,5000 -8.505894,41.733673,5000 -8.501861,41.738432,5000 -8.501834000000001,41.738448,5000 -8.501652999999999,41.738591,5000 -8.501614,41.738621,5000 -8.501334,41.73874,5000 -8.501288000000001,41.738749,5000 -8.501241,41.738754,5000 -8.501106,41.738754,5000 -8.500867,41.738743,5000 -8.500829,41.738748,5000 -8.500591999999999,41.73882,5000 -8.500310000000001,41.738978,5000 -8.500059,41.739136,5000 -8.499779,41.739254,5000 -8.499459999999999,41.739352,5000 -8.499165,41.739428,5000 -8.498854,41.739539,5000 -8.498627000000001,41.739731,5000 -8.498431,41.739911,5000 -8.498203,41.74006,5000 -8.498151999999999,41.740081,5000 -8.498099,41.740094,5000 -8.498044,41.740102,5000 -8.497941000000001,41.740107,5000 -8.497892999999999,41.740101,5000 -8.497801000000001,41.740069,5000 -8.497668000000001,41.74001,5000 -8.497627,41.739996,5000 -8.497586999999999,41.739988,5000 -8.497547000000001,41.739985,5000 -8.497244999999999,41.740024,5000 -8.497204999999999,41.740036,5000 -8.496905,41.740146,5000 -8.496876,41.74016,5000 -8.496850999999999,41.740177,5000 -8.496831999999999,41.740197,5000 -8.49682,41.740221,5000 -8.496814000000001,41.740246,5000 -8.496812,41.740274,5000 -8.496865,41.740511,5000 -8.496864,41.740544,5000 -8.496858,41.740576,5000 -8.496845,41.740607,5000 -8.496803,41.740665,5000 -8.496778000000001,41.740694,5000 -8.496748,41.740721,5000 -8.496715,41.740745,5000 -8.496596,41.740813,5000 -8.496301000000001,41.740926,5000 -8.496249000000001,41.740935,5000 -8.495977,41.740952,5000 -8.495791000000001,41.740905,5000 -8.495744999999999,41.74091,5000 -8.495701,41.740921,5000 -8.495654999999999,41.740937,5000 -8.495367,41.741028,5000 -8.495055000000001,41.74106,5000 -8.494732000000001,41.741053,5000 -8.494426000000001,41.74103,5000 -8.494381000000001,41.741036,5000 -8.494341,41.741048,5000 -8.494266,41.741083,5000 -8.494059,41.74125,5000 -8.493845,41.741434,5000 -8.493592,41.741564,5000 -8.493547,41.741578,5000 -8.493501999999999,41.741584,5000 -8.493366999999999,41.741587,5000 -8.493048,41.741586,5000 -8.492716,41.741568,5000 -8.492395,41.741544,5000 -8.492346,41.741533,5000 -8.4923,41.741519,5000 -8.491996,41.741464,5000 -8.491351,41.741459,5000 -8.491042999999999,41.741572,5000 -8.490999,41.741579,5000 -8.490956000000001,41.741582,5000 -8.490823000000001,41.741582,5000 -8.490780000000001,41.741579,5000 -8.490658,41.741567,5000 -8.490622999999999,41.741562,5000 -8.490584,41.74155,5000 -8.490544,41.741532,5000 -8.490508999999999,41.74151,5000 -8.490327000000001,41.741323,5000 -8.490133,41.74115,5000 -8.489884,41.740993,5000 -8.48964,41.740828,5000 -8.4894,41.740682,5000 -8.489125,41.740546,5000 -8.488837,41.74042,5000 -8.488557,41.740326,5000 -8.488287,41.74023,5000 -8.488189999999999,41.740189,5000 -8.48751,41.739972,5000 -8.487315000000001,41.739865,5000 -8.487215000000001,41.739659,5000 -8.487159,41.739437,5000 -8.487079,41.739215,5000 -8.486991,41.738991,5000 -8.486919,41.738845,5000 -8.486884999999999,41.738529,5000 -8.486832,41.737575,5000 -8.486846999999999,41.736897,5000 -8.486884,41.736453,5000 -8.486916000000001,41.735941,5000 -8.486938,41.735677,5000 -8.486976,41.735441,5000 -8.487007,41.735141,5000 -8.487038999999999,41.734851,5000 -8.487121999999999,41.734278,5000 -8.487140999999999,41.73357,5000 -8.487121999999999,41.733482,5000 -8.487361,41.732651,5000 -8.487505000000001,41.732175,5000 -8.487674,41.731051,5000 -8.487795,41.729749,5000 -8.487703,41.728914,5000 -8.487574,41.728621,5000 -8.487355000000001,41.72832,5000 -8.487034,41.727942,5000 -8.486807000000001,41.727733,5000 -8.486666,41.727618,5000 -8.486307999999999,41.727388,5000 -8.486025,41.727238,5000 -8.485855000000001,41.727191,5000 -8.485842999999999,41.727195,5000 -8.485742999999999,41.727211,5000 -8.485184,41.7274,5000 -8.484529999999999,41.727621,5000 -8.483855,41.727879,5000 -8.483558,41.728008,5000 -8.483139,41.728165,5000 -8.482514,41.728418,5000 -8.481911999999999,41.728618,5000 -8.481862,41.728637,5000 -8.479521,41.729357,5000 -8.477615999999999,41.729348,5000 -8.476088000000001,41.729561,5000 -8.475318,41.729709,5000 -8.475103000000001,41.729761,5000 -8.474674,41.729866,5000 -8.474660999999999,41.729867,5000 -8.473483,41.730099,5000 -8.47265,41.730263,5000 -8.471749000000001,41.730408,5000 -8.471080000000001,41.730532,5000 -8.470250999999999,41.730768,5000 -8.469011,41.731138,5000 -8.468764,41.731191,5000 -8.467426,41.73148,5000 -8.465007999999999,41.731819,5000 -8.463227,41.73218,5000 -8.462572,41.732267,5000 -8.462009999999999,41.732293,5000 -8.46153,41.732285,5000 -8.461506,41.732297,5000 -8.462802999999999,41.733198,5000 -8.463308,41.733447,5000 -8.465358,41.734641,5000 -8.466862000000001,41.735399,5000 -8.468017,41.735921,5000 -8.472408,41.738133,5000 -8.473198,41.738818,5000 -8.474425,41.739469,5000 -8.475125999999999,41.739893,5000 -8.475274000000001,41.740042,5000 -8.475395000000001,41.74017,5000 -8.475415999999999,41.740208,5000 -8.475432,41.74025,5000 -8.475441999999999,41.740294,5000 -8.475441999999999,41.740521,5000 -8.475379,41.740748,5000 -8.475282999999999,41.74089,5000 -8.475225999999999,41.741124,5000 -8.475206999999999,41.741365,5000 -8.475167000000001,41.741594,5000 -8.475099999999999,41.74182,5000 -8.475069,41.741886,5000 -8.475054999999999,41.741928,5000 -8.475059,41.741969,5000 -8.47508,41.742009,5000 -8.475171,41.742151,5000 -8.47518,41.742173,5000 -8.475187,41.742193,5000 -8.475203,41.743273,5000 -8.474881999999999,41.743926,5000 -8.473966000000001,41.745176,5000 -8.473431,41.745806,5000 -8.47184,41.746134,5000 -8.471398000000001,41.747373,5000 -8.471292999999999,41.747667,5000 -8.471188,41.747704,5000 -8.47096,41.747813,5000 -8.470651,41.748018,5000 -8.470406000000001,41.74822,5000 -8.470179,41.74843,5000 -8.470019000000001,41.74869,5000 -8.469927999999999,41.748926,5000 -8.469792,41.749995,5000 -8.469783,41.751319,5000 -8.46974,41.751395,5000 -8.469709,41.75144,5000 -8.469576,41.751622,5000 -8.469502,41.751834,5000 -8.469455,41.752067,5000 -8.469405,41.752362,5000 -8.469393,41.752715,5000 -8.469393,41.753,5000 -8.469385000000001,41.753216,5000 -8.469389,41.753418,5000 -8.469445,41.753568,5000 -8.469498,41.753692,5000 -8.4695,41.753788,5000 -8.469448,41.753925,5000 -8.469302000000001,41.754115,5000 -8.469175,41.754241,5000 -8.468921,41.754362,5000 -8.468674999999999,41.754457,5000 -8.468461,41.754551,5000 -8.468246000000001,41.754663,5000 -8.46809,41.754803,5000 -8.468055,41.754918,5000 -8.468003,41.755006,5000 -8.468031,41.755116,5000 -8.468036,41.755249,5000 -8.46804,41.755379,5000 -8.468061000000001,41.755474,5000 -8.468128,41.755561,5000 -8.468227000000001,41.755638,5000 -8.468323,41.755682,5000 -8.468484,41.75575,5000 -8.468617999999999,41.755816,5000 -8.468731999999999,41.755882,5000 -8.468738,41.755967,5000 -8.468665,41.756074,5000 -8.468619,41.756196,5000 -8.468643,41.75635,5000 -8.46871,41.756524,5000 -8.468693,41.756698,5000 -8.468641,41.756898,5000 -8.468650999999999,41.757341,5000 -8.468645,41.757513,5000 -8.468636999999999,41.75765,5000 -8.468676,41.757793,5000 -8.468654000000001,41.757989,5000 -8.468738,41.758299,5000 -8.468734,41.758484,5000 -8.468800999999999,41.758642,5000 -8.468992,41.758761,5000 -8.46912,41.758907,5000 -8.469132,41.759088,5000 -8.469078,41.75931,5000 -8.468997,41.759475,5000 -8.469011999999999,41.759577,5000 -8.469196,41.759572,5000 -8.469381,41.759515,5000 -8.469586,41.759504,5000 -8.469684000000001,41.759578,5000 -8.469659999999999,41.759677,5000 -8.469503,41.759839,5000 -8.469386,41.760009,5000 -8.469272,41.760171,5000 -8.469086000000001,41.760338,5000 -8.468896000000001,41.760473,5000 -8.468593,41.760675,5000 -8.468451,41.760819,5000 -8.468444,41.760948,5000 -8.468518,41.761137,5000 -8.468486,41.761248,5000 -8.468419000000001,41.761349,5000 -8.46841,41.76144,5000 -8.468392,41.761543,5000 -8.468310000000001,41.761568,5000 -8.468215000000001,41.761548,5000 -8.468121,41.761545,5000 -8.468040999999999,41.761628,5000 -8.467992000000001,41.761763,5000 -8.467929,41.761894,5000 -8.467803999999999,41.76203,5000 -8.467646,41.762126,5000 -8.467453000000001,41.762235,5000 -8.467321,41.762347,5000 -8.467279,41.762514,5000 -8.467338,41.762656,5000 -8.467385999999999,41.762794,5000 -8.467418,41.762927,5000 -8.467452,41.763079,5000 -8.467495,41.763187,5000 -8.467516,41.763185,5000 -8.467587,41.76325,5000 -8.467654,41.763378,5000 -8.467696999999999,41.763499,5000 -8.467791,41.763672,5000 -8.467878000000001,41.763874,5000 -8.467803,41.764062,5000 -8.467677,41.764276,5000 -8.467525,41.764464,5000 -8.467444,41.764668,5000 -8.467419,41.764857,5000 -8.467366999999999,41.765039,5000 -8.467259,41.765254,5000 -8.467139,41.765409,5000 -8.467027,41.765475,5000 -8.46682,41.765553,5000 -8.466678999999999,41.765573,5000 -8.4665,41.76553,5000 -8.466374,41.765567,5000 -8.466418000000001,41.765589,5000 -8.466682,41.765742,5000 -8.466946,41.765927,5000 -8.467157,41.766109,5000 -8.467357,41.766297,5000 -8.46753,41.766486,5000 -8.467718,41.766703,5000 -8.467903,41.766924,5000 -8.468066,41.767131,5000 -8.468246000000001,41.767337,5000 -8.468444,41.767493,5000 -8.468658,41.76764,5000 -8.468885999999999,41.767787,5000 -8.469116,41.767923,5000 -8.469355,41.768074,5000 -8.46959,41.768214,5000 -8.469825,41.76836,5000 -8.470067999999999,41.768471,5000 -8.470851,41.768282,5000 -8.471048,41.768072,5000 -8.471235,41.767948,5000 -8.472287,41.767892,5000 -8.472562999999999,41.76803,5000 -8.472772000000001,41.768181,5000 -8.473001,41.768349,5000 -8.473195,41.768512,5000 -8.473267,41.76901,5000 -8.473265,41.769051,5000 -8.473271,41.769091,5000 -8.473281999999999,41.769128,5000 -8.473300999999999,41.769163,5000 -8.473326999999999,41.769197,5000 -8.473545,41.769368,5000 -8.473597,41.769387,5000 -8.473655000000001,41.769402,5000 -8.473713,41.769412,5000 -8.473776000000001,41.769418,5000 -8.473838000000001,41.76942,5000 -8.474186,41.769407,5000 -8.474498000000001,41.769398,5000 -8.474663,41.769402,5000 -8.474676000000001,41.769403,5000 -8.474831,41.769447,5000 -8.474983999999999,41.769491,5000 -8.475103000000001,41.769548,5000 -8.475132,41.769561,5000 -8.475368,41.769732,5000 -8.475572,41.769925,5000 -8.47575,41.770141,5000 -8.475785,41.77017,5000 -8.476107000000001,41.770369,5000 -8.476195000000001,41.770395,5000 -8.476533,41.770475,5000 -8.476858999999999,41.770501,5000 -8.477179,41.770498,5000 -8.477510000000001,41.770484,5000 -8.477841,41.770394,5000 -8.478336000000001,41.770638,5000 -8.478626999999999,41.770775,5000 -8.479229,41.771216,5000 -8.479664,41.771543,5000 -8.479888000000001,41.771788,5000 -8.479865,41.771918,5000 -8.479618,41.773316,5000 -8.478339999999999,41.776458,5000 -8.478194999999999,41.776929,5000 -8.477342999999999,41.777834,5000 -8.475951999999999,41.778895,5000 -8.475315,41.779485,5000 -8.474157,41.782102,5000 -8.473637999999999,41.783493,5000 -8.47237,41.786748,5000 -8.472364000000001,41.786782,5000 -8.472125,41.788327,5000 -8.475262000000001,41.791479,5000 -8.476901,41.793455,5000 -8.477198,41.79387,5000 -8.478116999999999,41.795259,5000 -8.479236,41.794928,5000 -8.480184,41.794712,5000 -8.480988,41.794381,5000 -8.481058000000001,41.794352,5000 -8.481873,41.79392,5000 -8.483181999999999,41.793355,5000 -8.484377,41.792866,5000 -8.485436,41.792527,5000 -8.486661,41.792262,5000 -8.486821000000001,41.792248,5000 -8.48795,41.79215,5000 -8.488818999999999,41.792074,5000 -8.489668999999999,41.792064,5000 -8.4907,41.792156,5000 -8.491921,41.792296,5000 -8.492388,41.792268,5000 -8.493226,41.792217,5000 -8.493988,41.791936,5000 -8.494756000000001,41.791605,5000 -8.495513000000001,41.791267,5000 -8.496295999999999,41.790996,5000 -8.497123999999999,41.790853,5000 -8.498103,41.790861,5000 -8.499344000000001,41.791018,5000 -8.499979,41.791194,5000 -8.500627,41.79142,5000 -8.500813000000001,41.791496,5000 -8.501522,41.791785,5000 -8.502243,41.792064,5000 -8.503892,41.792472,5000 -8.504541,41.792633,5000 -8.505527000000001,41.792993,5000 -8.506899000000001,41.793253,5000 -8.508106,41.793461,5000 -8.509100999999999,41.793517,5000 -8.509789,41.793518,5000 -8.510028999999999,41.793519,5000 -8.510126,41.793519,5000 -8.510198000000001,41.793519,5000 -8.511075,41.793416,5000 -8.511914000000001,41.793228,5000 -8.512817999999999,41.792888,5000 -8.514011,41.79247,5000 -8.514894999999999,41.792561,5000 -8.515637,41.792747,5000 -8.516695,41.793504,5000 -8.516738999999999,41.793789,5000 -8.516797,41.794189,5000 -8.516914999999999,41.795042,5000 -8.51702,41.795766,5000 -8.517039,41.796207,5000 -8.517037999999999,41.796492,5000 -8.517151,41.796958,5000 -8.517170999999999,41.797007,5000 -8.517405,41.797554,5000 -8.517573000000001,41.798015,5000 -8.517677000000001,41.798119,5000 -8.515188,41.801099,5000 -8.515599,41.801664,5000 -8.515946,41.802194,5000 -8.516747000000001,41.802994,5000 -8.517226000000001,41.803743,5000 -8.517541,41.804254,5000 -8.518195,41.804989,5000 -8.518788000000001,41.805587,5000 -8.519043,41.805918,5000 -8.521919,41.805758,5000 -8.522736,41.805754,5000 -8.522944000000001,41.806173,5000 -8.523203000000001,41.806657,5000 -8.523421000000001,41.807146,5000 -8.523558,41.807546,5000 -8.523588,41.807884,5000 -8.523580000000001,41.808096,5000 -8.523510999999999,41.808771,5000 -8.523415999999999,41.809409,5000 -8.523110000000001,41.809986,5000 -8.522864,41.810256,5000 -8.522746,41.810386,5000 -8.52252,41.810635,5000 -8.522157,41.811118,5000 -8.521953999999999,41.811479,5000 -8.521903,41.811643,5000 -8.521922,41.81211,5000 -8.521898,41.812504,5000 -8.521824000000001,41.813107,5000 -8.521734,41.813799,5000 -8.521642999999999,41.814236,5000 -8.521528,41.814705,5000 -8.521412,41.815285,5000 -8.521471999999999,41.815752,5000 -8.521497,41.816114,5000 -8.521602,41.8166,5000 -8.521723,41.817224,5000 -8.521587999999999,41.818159,5000 -8.521436,41.818779,5000 -8.521547999999999,41.819361,5000 -8.521610000000001,41.819743,5000 -8.521592999999999,41.819978,5000 -8.521572000000001,41.82,5000 -8.521376999999999,41.820188,5000 -8.521286,41.82043,5000 -8.521217999999999,41.820669,5000 -8.521193,41.820707,5000 -8.521001999999999,41.820879,5000 -8.520822000000001,41.821071,5000 -8.520583999999999,41.821207,5000 -8.520531,41.821225,5000 -8.520477,41.821244,5000 -8.520338000000001,41.821322,5000 -8.520223,41.821405,5000 -8.520139,41.821498,5000 -8.520014,41.821727,5000 -8.519942,41.821959,5000 -8.519845,41.822195,5000 -8.519793,41.822327,5000 -8.519639,41.822539,5000 -8.519526000000001,41.82265,5000 -8.519754000000001,41.822727,5000 -8.519992999999999,41.822804,5000 -8.52028,41.822938,5000 -8.520676999999999,41.82306,5000 -8.521253,41.823149,5000 -8.521463000000001,41.823134,5000 -8.521687,41.823225,5000 -8.521945000000001,41.823471,5000 -8.522413,41.82355,5000 -8.523353,41.823438,5000 -8.524091,41.82326,5000 -8.524846999999999,41.823231,5000 -8.525479000000001,41.823342,5000 -8.526099,41.823509,5000 -8.526578000000001,41.82363,5000 -8.526764999999999,41.823765,5000 -8.526871999999999,41.823924,5000 -8.526968999999999,41.82418,5000 -8.527054,41.824385,5000 -8.527119000000001,41.824553,5000 -8.527243,41.824694,5000 -8.527445,41.824909,5000 -8.527665000000001,41.825156,5000 -8.527708000000001,41.825315,5000 -8.527699999999999,41.8254,5000 -8.527734000000001,41.825534,5000 -8.527855000000001,41.825618,5000 -8.528074999999999,41.825742,5000 -8.528435999999999,41.825952,5000 -8.528708999999999,41.826078,5000 -8.529035,41.826164,5000 -8.529396,41.826308,5000 -8.529726,41.826497,5000 -8.530498,41.828108,5000 -8.530778,41.82912,5000 -8.531036,41.830218,5000 -8.530968,41.831414,5000 -8.530867000000001,41.831598,5000 -8.530427,41.832397,5000 -8.530052,41.835776,5000 -8.528559,41.84048,5000 -8.52774,41.841915,5000 -8.526801000000001,41.843558,5000 -8.526578000000001,41.84391,5000 -8.526123,41.844517,5000 -8.525620999999999,41.845182,5000 -8.525074,41.84581,5000 -8.524652,41.846419,5000 -8.524309000000001,41.846949,5000 -8.524065,41.847404,5000 -8.523887999999999,41.847909,5000 -8.524032999999999,41.849057,5000 -8.524008,41.84926,5000 -8.523972000000001,41.849501,5000 -8.523955000000001,41.849592,5000 -8.523895,41.84992,5000 -8.523879000000001,41.850027,5000 -8.523835,41.850216,5000 -8.5238,41.850285,5000 -8.523706000000001,41.850414,5000 -8.523638,41.850473,5000 -8.523529,41.850446,5000 -8.5236,41.852158,5000 -8.523605999999999,41.852255,5000 -8.523206999999999,41.853736,5000 -8.523111,41.854181,5000 -8.523128,41.854471,5000 -8.523173999999999,41.854904,5000 -8.523284,41.855009,5000 -8.52352,41.855223,5000 -8.523724,41.85539,5000 -8.523939,41.855533,5000 -8.524089,41.855682,5000 -8.524241,41.855899,5000 -8.524331999999999,41.856067,5000 -8.524380000000001,41.856193,5000 -8.524412,41.856342,5000 -8.524457,41.856492,5000 -8.524551000000001,41.856764,5000 -8.524673999999999,41.857058,5000 -8.524762000000001,41.857195,5000 -8.524857000000001,41.857274,5000 -8.525017,41.857374,5000 -8.525510000000001,41.857607,5000 -8.525808,41.857758,5000 -8.525983,41.857862,5000 -8.526059,41.85793,5000 -8.526147,41.858032,5000 -8.526223999999999,41.858216,5000 -8.526477,41.858743,5000 -8.526588,41.858929,5000 -8.526752,41.859115,5000 -8.527039,41.859405,5000 -8.527322,41.859719,5000 -8.527623999999999,41.86002,5000 -8.528115,41.860356,5000 -8.528472000000001,41.860586,5000 -8.528757000000001,41.86072,5000 -8.529017,41.860803,5000 -8.529233,41.860789,5000 -8.530246,41.860698,5000 -8.530697999999999,41.860642,5000 -8.531446000000001,41.860632,5000 -8.532543,41.860637,5000 -8.533307000000001,41.860645,5000 -8.533562999999999,41.860656,5000 -8.534138,41.860752,5000 -8.534587,41.860807,5000 -8.535278,41.860887,5000 -8.535500000000001,41.860921,5000 -8.535688,41.860984,5000 -8.535875000000001,41.861079,5000 -8.536016,41.861194,5000 -8.536206999999999,41.86138,5000 -8.53637,41.861506,5000 -8.536467,41.861549,5000 -8.536567,41.861561,5000 -8.536692,41.861558,5000 -8.537064000000001,41.861501,5000 -8.537179,41.861505,5000 -8.537373000000001,41.861528,5000 -8.537553000000001,41.861565,5000 -8.537734,41.861612,5000 -8.537966000000001,41.86169,5000 -8.538069,41.861755,5000 -8.538242,41.861921,5000 -8.538544,41.862256,5000 -8.538728000000001,41.862415,5000 -8.538828000000001,41.862457,5000 -8.538963000000001,41.862489,5000 -8.539313,41.8625,5000 -8.540623999999999,41.86261,5000 -8.540929999999999,41.862656,5000 -8.541152,41.862716,5000 -8.541309,41.862807,5000 -8.541456999999999,41.862923,5000 -8.541662000000001,41.863216,5000 -8.541795,41.863416,5000 -8.541839,41.863413,5000 -8.544468,41.863245,5000 -8.546328000000001,41.863536,5000 -8.548016000000001,41.863855,5000 -8.550998999999999,41.864331,5000 -8.556713,41.868502,5000 -8.561715,41.870329,5000 -8.570233999999999,41.870107,5000 -8.574113000000001,41.864694,5000 -8.574560999999999,41.864354,5000 -8.576015999999999,41.863246,5000 
						</coordinates>
					</LinearRing>
				</outerBoundaryIs>
			</Polygon>
		</MultiGeometry>
		<atom:link rel="app" href="https://www.google.com/earth/about/versions/#earth-pro" title="Google Earth Pro 7.3.7.1155"></atom:link>
	</Placemark>
</Document>
</kml>
