<?xml version="1.0" encoding="UTF-8"?>
<kml xmlns="http://www.opengis.net/kml/2.2" xmlns:gx="http://www.google.com/kml/ext/2.2" xmlns:kml="http://www.opengis.net/kml/2.2" xmlns:atom="http://www.w3.org/2005/Atom">
<Document>
	<name>Viana do Castelo.kml</name>
	<Style id="PolyStyle000001">
		<LabelStyle>
			<color>ff000000</color>
			<scale>1.2</scale>
		</LabelStyle>
		<LineStyle>
			<color>ff0000ff</color>
			<width>2</width>
		</LineStyle>
		<PolyStyle>
			<color>4dffffff</color>
		</PolyStyle>
	</Style>
	<Style id="PolyStyle00005">
		<LabelStyle>
			<color>ff000000</color>
			<scale>1.2</scale>
		</LabelStyle>
		<LineStyle>
			<color>ff0000ff</color>
			<width>2</width>
		</LineStyle>
		<PolyStyle>
			<color>4dffffff</color>
		</PolyStyle>
	</Style>
	<StyleMap id="PolyStyle00183">
		<Pair>
			<key>normal</key>
			<styleUrl>#PolyStyle00005</styleUrl>
		</Pair>
		<Pair>
			<key>highlight</key>
			<styleUrl>#PolyStyle000001</styleUrl>
		</Pair>
	</StyleMap>
	<Placemark>
		<name>Viana do Castelo</name>
		<visibility>0</visibility>
		<Snippet maxLines="0"></Snippet>
		<styleUrl>#PolyStyle00183</styleUrl>
		<MultiGeometry>
			<extrude>1</extrude>
			<Polygon>
				<extrude>1</extrude>
				<tessellate>1</tessellate>
				<outerBoundaryIs>
					<LinearRing>
						<coordinates>
							-8.756126999999999,41.796244,5000 -8.756835000000001,41.79626,5000 -8.757307000000001,41.796375,5000 -8.757910000000001,41.796372,5000 -8.759138999999999,41.796228,5000 -8.760185999999999,41.796124,5000 -8.761962,41.795663,5000 -8.7628,41.795541,5000 -8.763062,41.795579,5000 -8.763672,41.79636,5000 -8.764094,41.796671,5000 -8.764322999999999,41.796755,5000 -8.764725,41.796904,5000 -8.765537,41.796899,5000 -8.766374000000001,41.796777,5000 -8.766921999999999,41.796577,5000 -8.76731,41.796124,5000 -8.767830999999999,41.795788,5000 -8.768167,41.795335,5000 -8.768295,41.795,5000 -8.76845,41.794844,5000 -8.768547,41.794838,5000 -8.768843,41.794821,5000 -8.769470999999999,41.794719,5000 -8.769785000000001,41.794757,5000 -8.769893,41.79511,5000 -8.769978,41.795737,5000 -8.770085,41.795991,5000 -8.770377,41.796303,5000 -8.771431,41.796984,5000 -8.771674000000001,41.797669,5000 -8.771758,41.798238,5000 -8.771603000000001,41.798454,5000 -8.770638,41.798911,5000 -8.770092,41.799266,5000 -8.769937000000001,41.799542,5000 -8.769992999999999,41.799836,5000 -8.77023,41.799972,5000 -8.770833,41.800086,5000 -8.771124,41.80034,5000 -8.771649999999999,41.800533,5000 -8.772360000000001,41.800843,5000 -8.773177,41.801309,5000 -8.773649000000001,41.801385,5000 -8.774105,41.801373,5000 -8.774549,41.801253,5000 -8.774784,41.801173,5000 -8.774995000000001,41.80127,5000 -8.775061000000001,41.801424,5000 -8.775157,41.801685,5000 -8.775321999999999,41.801824,5000 -8.775555000000001,41.801852,5000 -8.775748999999999,41.801833,5000 -8.77599,41.801774,5000 -8.776532,41.801585,5000 -8.776818,41.801467,5000 -8.776966,41.801411,5000 -8.777307,41.801342,5000 -8.777393,41.801344,5000 -8.77754,41.801346,5000 -8.777813,41.801449,5000 -8.778274,41.80172,5000 -8.778721000000001,41.802026,5000 -8.778855999999999,41.802116,5000 -8.778962999999999,41.802188,5000 -8.779145,41.802507,5000 -8.779296,41.802838,5000 -8.779788999999999,41.803161,5000 -8.779921999999999,41.803265,5000 -8.780153,41.803343,5000 -8.780364000000001,41.8034,5000 -8.780543,41.803411,5000 -8.780713,41.803323,5000 -8.780836000000001,41.803217,5000 -8.781848999999999,41.801908,5000 -8.782636,41.800837,5000 -8.782792000000001,41.800795,5000 -8.782939000000001,41.800789,5000 -8.783265999999999,41.800816,5000 -8.783834000000001,41.800923,5000 -8.784200999999999,41.801008,5000 -8.784427000000001,41.801059,5000 -8.784808,41.801074,5000 -8.785231,41.801043,5000 -8.78603,41.800911,5000 -8.786356,41.80081,5000 -8.786891000000001,41.800655,5000 -8.787471999999999,41.8005,5000 -8.788387999999999,41.800344,5000 -8.788747000000001,41.80028,5000 -8.788793999999999,41.800272,5000 -8.78936,41.800082,5000 -8.789808000000001,41.799824,5000 -8.790006,41.799474,5000 -8.790118,41.798995,5000 -8.790175,41.798509,5000 -8.790312999999999,41.798316,5000 -8.790490999999999,41.79821,5000 -8.790801,41.798127,5000 -8.790948999999999,41.798167,5000 -8.791081999999999,41.798265,5000 -8.791311,41.798596,5000 -8.791306000000001,41.798887,5000 -8.791333,41.799265,5000 -8.791484000000001,41.799491,5000 -8.791916000000001,41.799943,5000 -8.792379,41.800382,5000 -8.792627,41.80056,5000 -8.792998000000001,41.800658,5000 -8.793241,41.800657,5000 -8.793143000000001,41.800916,5000 -8.792991000000001,41.801211,5000 -8.792942999999999,41.801578,5000 -8.792844000000001,41.801964,5000 -8.793003000000001,41.802384,5000 -8.793161,41.802732,5000 -8.793269,41.80319,5000 -8.793041000000001,41.803612,5000 -8.792786,41.803834,5000 -8.792918999999999,41.8042,5000 -8.792755,41.804289,5000 -8.792611000000001,41.804367,5000 -8.792119,41.804205,5000 -8.791835000000001,41.804133,5000 -8.791473999999999,41.804153,5000 -8.791193,41.80443,5000 -8.791403000000001,41.804777,5000 -8.791588000000001,41.805235,5000 -8.791615999999999,41.805641,5000 -8.792118,41.805797,5000 -8.79481,41.805529,5000 -8.795,41.80551,5000 -8.800347,41.805016,5000 -8.800784,41.804976,5000 -8.803388,41.80452,5000 -8.804948,41.802312,5000 -8.807206000000001,41.802171,5000 -8.811621000000001,41.801894,5000 -8.819813,41.80299,5000 -8.821014999999999,41.803298,5000 -8.823898,41.804036,5000 -8.827536,41.803379,5000 -8.829711,41.803181,5000 -8.831162000000001,41.803048,5000 -8.832440999999999,41.802449,5000 -8.834130999999999,41.801657,5000 -8.834422999999999,41.801519,5000 -8.834584,41.801229,5000 -8.834858000000001,41.801392,5000 -8.834948000000001,41.80142,5000 -8.835203999999999,41.801457,5000 -8.835317,41.801246,5000 -8.836126999999999,41.800427,5000 -8.836527,41.799543,5000 -8.836335999999999,41.798444,5000 -8.837604000000001,41.79743,5000 -8.837771,41.795493,5000 -8.837396999999999,41.791259,5000 -8.843045999999999,41.781833,5000 -8.843021999999999,41.781839,5000 -8.843152,41.781698,5000 -8.843794000000001,41.780785,5000 -8.849069999999999,41.784289,5000 -8.850816999999999,41.785658,5000 -8.851508000000001,41.786085,5000 -8.852392,41.786686,5000 -8.853869,41.788124,5000 -8.854257,41.788644,5000 -8.855048999999999,41.789026,5000 -8.859560999999999,41.790412,5000 -8.862774,41.791298,5000 -8.868744,41.794307,5000 -8.869837,41.794816,5000 -8.871708,41.795208,5000 -8.8743,41.796084,5000 -8.874336,41.796,5000 -8.874340999999999,41.795986,5000 -8.874347,41.795956,5000 -8.874345,41.795935,5000 -8.874337000000001,41.795857,5000 -8.874325000000001,41.795728,5000 -8.87426,41.795613,5000 -8.874193,41.795541,5000 -8.87415,41.79551,5000 -8.874104000000001,41.795485,5000 -8.873832999999999,41.795336,5000 -8.873661999999999,41.79514,5000 -8.873589000000001,41.794916,5000 -8.873505,41.794694,5000 -8.873472,41.794627,5000 -8.873462999999999,41.794594,5000 -8.873457,41.794526,5000 -8.873447000000001,41.79449,5000 -8.873429,41.794453,5000 -8.873402,41.794417,5000 -8.873367,41.794384,5000 -8.873137,41.794232,5000 -8.873115,41.794208,5000 -8.873096,41.79418,5000 -8.873081000000001,41.79415,5000 -8.873047,41.793917,5000 -8.873018999999999,41.793692,5000 -8.87303,41.79345,5000 -8.87304,41.793181,5000 -8.873008,41.792945,5000 -8.872985,41.792699,5000 -8.872985999999999,41.792474,5000 -8.872982,41.792431,5000 -8.872973,41.792391,5000 -8.872956,41.792354,5000 -8.872802,41.792138,5000 -8.872725000000001,41.791891,5000 -8.872717,41.791852,5000 -8.872704000000001,41.791814,5000 -8.872683,41.79178,5000 -8.872653,41.791749,5000 -8.872548999999999,41.791667,5000 -8.872392,41.791449,5000 -8.872277,41.791225,5000 -8.872172000000001,41.791001,5000 -8.872146000000001,41.790741,5000 -8.871871000000001,41.7906,5000 -8.871893,41.790339,5000 -8.871905999999999,41.790111,5000 -8.871919999999999,41.789873,5000 -8.871923000000001,41.789633,5000 -8.871919999999999,41.789374,5000 -8.871942000000001,41.789111,5000 -8.871964999999999,41.788852,5000 -8.872018000000001,41.788598,5000 -8.872058000000001,41.788353,5000 -8.872071,41.788076,5000 -8.872047,41.787816,5000 -8.872024,41.787532,5000 -8.872014,41.787246,5000 -8.872002,41.786958,5000 -8.871979,41.786678,5000 -8.871968000000001,41.786423,5000 -8.872035,41.786134,5000 -8.872056000000001,41.785996,5000 -8.872075000000001,41.785931,5000 -8.872197999999999,41.78567,5000 -8.872294,41.785433,5000 -8.872522999999999,41.784984,5000 -8.872540000000001,41.784939,5000 -8.872551,41.784891,5000 -8.872553999999999,41.784841,5000 -8.87251,41.784482,5000 -8.872493,41.784436,5000 -8.872463,41.784392,5000 -8.872425,41.784356,5000 -8.872341,41.784299,5000 -8.872301999999999,41.784269,5000 -8.872272000000001,41.784235,5000 -8.872163,41.784019,5000 -8.872178,41.783752,5000 -8.872204999999999,41.783507,5000 -8.872196000000001,41.783232,5000 -8.872230999999999,41.782962,5000 -8.872242999999999,41.782731,5000 -8.872204999999999,41.782636,5000 -8.872132000000001,41.782426,5000 -8.872052999999999,41.782205,5000 -8.871917,41.782003,5000 -8.871776000000001,41.781783,5000 -8.871691,41.781548,5000 -8.871641,41.781295,5000 -8.871629,41.781043,5000 -8.871604,41.780808,5000 -8.871592,41.780697,5000 -8.871623,41.78043,5000 -8.871604,41.780189,5000 -8.871608,41.779961,5000 -8.871623,41.779729,5000 -8.871636000000001,41.779497,5000 -8.871698,41.779227,5000 -8.871744,41.778991,5000 -8.871774,41.778735,5000 -8.871760999999999,41.778462,5000 -8.871744,41.778295,5000 -8.871778000000001,41.778034,5000 -8.871826,41.777797,5000 -8.871880000000001,41.77757,5000 -8.871949000000001,41.777329,5000 -8.872012,41.777069,5000 -8.872014999999999,41.777061,5000 -8.872085999999999,41.776835,5000 -8.872177000000001,41.776584,5000 -8.872263999999999,41.776324,5000 -8.872344999999999,41.776107,5000 -8.872427999999999,41.775879,5000 -8.872505,41.775655,5000 -8.872562,41.775413,5000 -8.872582,41.775146,5000 -8.872615,41.774914,5000 -8.872655,41.774669,5000 -8.872706000000001,41.774436,5000 -8.872750999999999,41.77418,5000 -8.872771,41.77395,5000 -8.87283,41.773723,5000 -8.872937,41.7735,5000 -8.873063999999999,41.773282,5000 -8.873188000000001,41.773055,5000 -8.873379999999999,41.772612,5000 -8.873493,41.772383,5000 -8.873614,41.772171,5000 -8.873733,41.771954,5000 -8.873837,41.771742,5000 -8.873995000000001,41.771492,5000 -8.874121000000001,41.771285,5000 -8.874233,41.771071,5000 -8.874418,41.770841,5000 -8.874563999999999,41.770628,5000 -8.87467,41.770404,5000 -8.874772,41.770189,5000 -8.874876,41.769958,5000 -8.874972,41.769742,5000 -8.875049000000001,41.769516,5000 -8.875143,41.769292,5000 -8.875219,41.769029,5000 -8.875323,41.768806,5000 -8.875476000000001,41.768602,5000 -8.875634,41.768399,5000 -8.875778,41.768194,5000 -8.875855,41.768106,5000 -8.875897,41.768072,5000 -8.876142,41.767939,5000 -8.876298999999999,41.767874,5000 -8.876607,41.767806,5000 -8.876701000000001,41.767783,5000 -8.876744,41.767769,5000 -8.876915,41.767673,5000 -8.876950000000001,41.767642,5000 -8.876977,41.767608,5000 -8.876996,41.767572,5000 -8.877003999999999,41.767534,5000 -8.877008999999999,41.767277,5000 -8.877003999999999,41.767143,5000 -8.876992,41.767096,5000 -8.876886000000001,41.76687,5000 -8.87684,41.766642,5000 -8.876879000000001,41.766384,5000 -8.876904,41.766341,5000 -8.876939999999999,41.766301,5000 -8.877162,41.76614,5000 -8.877231,41.766072,5000 -8.877259,41.766032,5000 -8.877273000000001,41.765992,5000 -8.877273000000001,41.765948,5000 -8.877230000000001,41.765818,5000 -8.877219999999999,41.765777,5000 -8.877217999999999,41.765738,5000 -8.877299000000001,41.765469,5000 -8.87738,41.765319,5000 -8.877428,41.765175,5000 -8.877446000000001,41.765131,5000 -8.877466,41.765098,5000 -8.877471,41.765089,5000 -8.877503000000001,41.765048,5000 -8.877542,41.765008,5000 -8.87776,41.764835,5000 -8.877795000000001,41.764799,5000 -8.877872,41.764666,5000 -8.877884999999999,41.764622,5000 -8.877890000000001,41.764577,5000 -8.87785,41.764326,5000 -8.877863,41.764171,5000 -8.877872,41.764059,5000 -8.877910999999999,41.763844,5000 -8.877986,41.763523,5000 -8.878064999999999,41.763276,5000 -8.878162,41.763042,5000 -8.878280999999999,41.762833,5000 -8.878603999999999,41.762472,5000 -8.878615,41.762437,5000 -8.878750999999999,41.762236,5000 -8.878762999999999,41.7622,5000 -8.87881,41.761962,5000 -8.87884,41.761829,5000 -8.878842000000001,41.761788,5000 -8.878799000000001,41.761555,5000 -8.878743999999999,41.761406,5000 -8.878736999999999,41.761366,5000 -8.878736,41.761325,5000 -8.878769,41.761163,5000 -8.878773000000001,41.761124,5000 -8.878772,41.761089,5000 -8.878762999999999,41.761055,5000 -8.878745,41.761024,5000 -8.878717999999999,41.760993,5000 -8.878683000000001,41.760965,5000 -8.878643,41.760944,5000 -8.878596999999999,41.760932,5000 -8.878549,41.760927,5000 -8.878374000000001,41.760933,5000 -8.878337999999999,41.760928,5000 -8.878304,41.760916,5000 -8.878272000000001,41.760897,5000 -8.878242,41.760871,5000 -8.878218,41.760843,5000 -8.878196000000001,41.760811,5000 -8.87818,41.760777,5000 -8.878145,41.760522,5000 -8.878174,41.760416,5000 -8.87818,41.760378,5000 -8.878178999999999,41.760341,5000 -8.878171999999999,41.760303,5000 -8.878138,41.760181,5000 -8.878143,41.759917,5000 -8.878123,41.759666,5000 -8.878057,41.75943,5000 -8.877981999999999,41.75919,5000 -8.877957,41.758918,5000 -8.877912,41.758692,5000 -8.87791,41.758428,5000 -8.877902000000001,41.758202,5000 -8.877916000000001,41.757958,5000 -8.877997000000001,41.757727,5000 -8.878128,41.757541,5000 -8.87815,41.75751,5000 -8.878240999999999,41.757398,5000 -8.878259,41.757359,5000 -8.878270000000001,41.757318,5000 -8.878273,41.75728,5000 -8.878269,41.757239,5000 -8.878257,41.757198,5000 -8.878235,41.757157,5000 -8.878183,41.757084,5000 -8.878164999999999,41.757048,5000 -8.878156000000001,41.757009,5000 -8.878157,41.756763,5000 -8.878187,41.756513,5000 -8.878208000000001,41.756474,5000 -8.878237,41.756441,5000 -8.878494,41.75626,5000 -8.878631,41.756193,5000 -8.878666000000001,41.756168,5000 -8.878684,41.756137,5000 -8.878686,41.7561,5000 -8.878641,41.755939,5000 -8.878640000000001,41.755897,5000 -8.878703,41.75567,5000 -8.878740000000001,41.755606,5000 -8.878764,41.755579,5000 -8.878791,41.755558,5000 -8.878825000000001,41.755545,5000 -8.879162000000001,41.755483,5000 -8.879216,41.755476,5000 -8.879314000000001,41.755453,5000 -8.87945,41.755397,5000 -8.87969,41.755209,5000 -8.879879000000001,41.755026,5000 -8.880020999999999,41.754827,5000 -8.880132,41.754596,5000 -8.880214,41.75436,5000 -8.880226,41.754323,5000 -8.880231999999999,41.754285,5000 -8.880231999999999,41.754246,5000 -8.8802,41.75407,5000 -8.880201,41.754025,5000 -8.880209000000001,41.753981,5000 -8.880222,41.753937,5000 -8.880242000000001,41.753897,5000 -8.880267,41.753863,5000 -8.880298,41.753836,5000 -8.880337000000001,41.753813,5000 -8.880381,41.7538,5000 -8.880526,41.753783,5000 -8.880573,41.753774,5000 -8.880618,41.753759,5000 -8.880660000000001,41.753738,5000 -8.880701999999999,41.753711,5000 -8.880728,41.753679,5000 -8.880725999999999,41.753643,5000 -8.880717000000001,41.753612,5000 -8.880684,41.753544,5000 -8.880675,41.753509,5000 -8.880677,41.753474,5000 -8.880693000000001,41.753441,5000 -8.88072,41.75341,5000 -8.880751999999999,41.753381,5000 -8.880789,41.753354,5000 -8.880827,41.753332,5000 -8.880905,41.753297,5000 -8.880934999999999,41.753282,5000 -8.880969,41.753254,5000 -8.880991,41.753224,5000 -8.881002000000001,41.753191,5000 -8.881012,41.753044,5000 -8.881091,41.75281,5000 -8.8811,41.752771,5000 -8.881100999999999,41.752732,5000 -8.880998999999999,41.752512,5000 -8.880953999999999,41.752435,5000 -8.880939,41.752395,5000 -8.880929999999999,41.752353,5000 -8.880931,41.752087,5000 -8.880927,41.751837,5000 -8.88086,41.7516,5000 -8.88083,41.751556,5000 -8.880610000000001,41.751347,5000 -8.880504,41.75125,5000 -8.880376,41.751018,5000 -8.880373000000001,41.750979,5000 -8.880376999999999,41.750942,5000 -8.880471999999999,41.750727,5000 -8.880585999999999,41.750513,5000 -8.880602,41.750471,5000 -8.880610000000001,41.750429,5000 -8.880610000000001,41.75039,5000 -8.880604,41.750352,5000 -8.880509999999999,41.750125,5000 -8.880401000000001,41.749882,5000 -8.88026,41.749657,5000 -8.880089999999999,41.749429,5000 -8.879915,41.749214,5000 -8.879771,41.749009,5000 -8.879758000000001,41.748977,5000 -8.879749,41.748944,5000 -8.879744000000001,41.748906,5000 -8.879742999999999,41.74865,5000 -8.879733,41.748602,5000 -8.879714,41.748557,5000 -8.879683999999999,41.748519,5000 -8.879657,41.748482,5000 -8.879619999999999,41.74845,5000 -8.879495,41.748376,5000 -8.87945,41.748358,5000 -8.879403,41.748344,5000 -8.879352000000001,41.748335,5000 -8.879026,41.748336,5000 -8.878933999999999,41.748329,5000 -8.878892,41.748322,5000 -8.878850999999999,41.748311,5000 -8.878588000000001,41.748169,5000 -8.878461,41.748047,5000 -8.878396,41.747984,5000 -8.878204,41.747764,5000 -8.878071,41.747619,5000 -8.877969,41.74739,5000 -8.877946,41.747132,5000 -8.877965,41.746891,5000 -8.87801,41.746652,5000 -8.878106000000001,41.74642,5000 -8.878144000000001,41.746183,5000 -8.878147999999999,41.746053,5000 -8.878143,41.746017,5000 -8.878128999999999,41.745985,5000 -8.878107999999999,41.745957,5000 -8.878079,41.745934,5000 -8.877912999999999,41.745842,5000 -8.877886,41.745818,5000 -8.877865,41.745793,5000 -8.877851,41.745764,5000 -8.877845000000001,41.745732,5000 -8.877891,41.745474,5000 -8.877909000000001,41.745426,5000 -8.878061000000001,41.7452,5000 -8.878164,41.74505,5000 -8.878178,41.74501,5000 -8.878182000000001,41.744922,5000 -8.878176,41.744878,5000 -8.878164999999999,41.744839,5000 -8.878147999999999,41.744801,5000 -8.878003,41.744592,5000 -8.877895000000001,41.744367,5000 -8.877882,41.744118,5000 -8.877961000000001,41.743851,5000 -8.878078,41.74361,5000 -8.878196000000001,41.743369,5000 -8.878302,41.743119,5000 -8.878313,41.743071,5000 -8.878323999999999,41.742832,5000 -8.878318999999999,41.742794,5000 -8.878306,41.742757,5000 -8.878289000000001,41.742719,5000 -8.878265000000001,41.742684,5000 -8.878078,41.742482,5000 -8.878057999999999,41.742441,5000 -8.878045,41.742398,5000 -8.878031,41.74225,5000 -8.878019,41.742217,5000 -8.877998,41.742185,5000 -8.877971000000001,41.742155,5000 -8.877936,41.74213,5000 -8.877896,41.74211,5000 -8.877615,41.741999,5000 -8.877523999999999,41.74194,5000 -8.877473,41.741892,5000 -8.877432000000001,41.741834,5000 -8.877402,41.741766,5000 -8.877394000000001,41.741733,5000 -8.877389000000001,41.741702,5000 -8.87739,41.741569,5000 -8.877383999999999,41.741533,5000 -8.877371999999999,41.741498,5000 -8.877354,41.741464,5000 -8.877329,41.74143,5000 -8.877178000000001,41.741286,5000 -8.877160999999999,41.741255,5000 -8.877132,41.741142,5000 -8.877117999999999,41.741105,5000 -8.877098,41.741072,5000 -8.876882999999999,41.740876,5000 -8.876849999999999,41.740858,5000 -8.876818999999999,41.740844,5000 -8.876787,41.740833,5000 -8.876754,41.740826,5000 -8.876638,41.74081,5000 -8.876424,41.74073,5000 -8.876384,41.740706,5000 -8.876179,41.740514,5000 -8.876059,41.740387,5000 -8.875772,41.739932,5000 -8.875595000000001,41.739744,5000 -8.875444999999999,41.739501,5000 -8.875398000000001,41.739268,5000 -8.875424000000001,41.739035,5000 -8.875437,41.738998,5000 -8.875446,41.738957,5000 -8.875446,41.738912,5000 -8.875366,41.738673,5000 -8.875299,41.738552,5000 -8.875283,41.73851,5000 -8.875273,41.738466,5000 -8.875271,41.738423,5000 -8.875311,41.738163,5000 -8.875311,41.737937,5000 -8.875310000000001,41.73767,5000 -8.875298000000001,41.737616,5000 -8.875279000000001,41.737565,5000 -8.875152,41.737392,5000 -8.875351,41.73706,5000 -8.875294999999999,41.736808,5000 -8.875192,41.73654,5000 -8.874907,41.73629,5000 -8.874615,41.736196,5000 -8.874216000000001,41.735964,5000 -8.873861,41.735664,5000 -8.873613000000001,41.735396,5000 -8.873557999999999,41.735242,5000 -8.873668,41.734932,5000 -8.873887,41.734725,5000 -8.873991999999999,41.734649,5000 -8.87396,41.734484,5000 -8.873827,41.73425,5000 -8.873640999999999,41.734006,5000 -8.873623,41.733845,5000 -8.873521,41.7336,5000 -8.873286999999999,41.733195,5000 -8.872999999999999,41.732803,5000 -8.872666000000001,41.732354,5000 -8.872393000000001,41.731909,5000 -8.872104,41.731396,5000 -8.871907999999999,41.730963,5000 -8.871758,41.730655,5000 -8.871817999999999,41.730529,5000 -8.872068000000001,41.730435,5000 -8.872297,41.730405,5000 -8.872426000000001,41.730341,5000 -8.872491999999999,41.730169,5000 -8.872489,41.729905,5000 -8.872514000000001,41.729505,5000 -8.872479,41.72919,5000 -8.872559000000001,41.728869,5000 -8.872616000000001,41.728566,5000 -8.872437,41.728304,5000 -8.872251,41.728036,5000 -8.872201,41.727745,5000 -8.872135999999999,41.727459,5000 -8.872049000000001,41.727214,5000 -8.871880000000001,41.727123,5000 -8.871833000000001,41.727049,5000 -8.871893,41.726923,5000 -8.872019999999999,41.72671,5000 -8.871995999999999,41.726642,5000 -8.871797000000001,41.726569,5000 -8.871454999999999,41.726521,5000 -8.870614,41.727034,5000 -8.870378000000001,41.726974,5000 -8.870329,41.726959,5000 -8.870283000000001,41.726939,5000 -8.870036000000001,41.726796,5000 -8.86994,41.726696,5000 -8.869730000000001,41.726508,5000 -8.869605999999999,41.726409,5000 -8.86956,41.726381,5000 -8.869465999999999,41.72634,5000 -8.869382,41.726295,5000 -8.869342,41.726274,5000 -8.869305000000001,41.726251,5000 -8.869154999999999,41.726116,5000 -8.869033999999999,41.725895,5000 -8.868952,41.72564,5000 -8.868852,41.725426,5000 -8.868741,41.725204,5000 -8.868617,41.724983,5000 -8.868594999999999,41.724955,5000 -8.86857,41.72493,5000 -8.868385,41.724744,5000 -8.868233999999999,41.724504,5000 -8.868103,41.724267,5000 -8.867969,41.724066,5000 -8.867841,41.723821,5000 -8.867756999999999,41.723588,5000 -8.867679000000001,41.723336,5000 -8.867642999999999,41.723231,5000 -8.867621,41.723189,5000 -8.867594,41.723152,5000 -8.867398,41.722936,5000 -8.867191999999999,41.722731,5000 -8.867096999999999,41.722609,5000 -8.86707,41.722547,5000 -8.867022,41.722319,5000 -8.866994999999999,41.722049,5000 -8.866997,41.721808,5000 -8.867067,41.721563,5000 -8.867188000000001,41.721328,5000 -8.867348,41.721134,5000 -8.867388999999999,41.721058,5000 -8.867395,41.721014,5000 -8.867392000000001,41.72099,5000 -8.867386,41.720966,5000 -8.867376,41.720942,5000 -8.867236,41.720743,5000 -8.867096,41.720527,5000 -8.866930999999999,41.7203,5000 -8.866752999999999,41.720095,5000 -8.866604000000001,41.719868,5000 -8.866597000000001,41.719833,5000 -8.86661,41.719604,5000 -8.866678,41.719382,5000 -8.866683999999999,41.719348,5000 -8.86664,41.719102,5000 -8.866578000000001,41.718851,5000 -8.866460999999999,41.718599,5000 -8.866344,41.71836,5000 -8.866242,41.718123,5000 -8.866132,41.717888,5000 -8.866015000000001,41.717663,5000 -8.865936,41.717401,5000 -8.865913000000001,41.717375,5000 -8.865656,41.7172,5000 -8.865422000000001,41.717057,5000 -8.865346000000001,41.717009,5000 -8.865319,41.716995,5000 -8.865285999999999,41.716981,5000 -8.865249,41.716969,5000 -8.865204,41.716959,5000 -8.864891999999999,41.71694,5000 -8.864803,41.716928,5000 -8.864767000000001,41.716913,5000 -8.864748000000001,41.716892,5000 -8.864746999999999,41.71686,5000 -8.864744999999999,41.716781,5000 -8.864751,41.716754,5000 -8.864834999999999,41.716627,5000 -8.864846,41.716598,5000 -8.864848,41.716569,5000 -8.864843,41.716541,5000 -8.864831000000001,41.716512,5000 -8.864694,41.716308,5000 -8.864639,41.716187,5000 -8.864611,41.715937,5000 -8.864575,41.715712,5000 -8.864489000000001,41.715488,5000 -8.864382000000001,41.71525,5000 -8.864280000000001,41.715003,5000 -8.864191999999999,41.714734,5000 -8.864087,41.714451,5000 -8.864055,41.714335,5000 -8.86406,41.714165,5000 -8.863987,41.713942,5000 -8.863903000000001,41.71372,5000 -8.863802,41.713502,5000 -8.863712,41.713274,5000 -8.863647,41.713048,5000 -8.863547000000001,41.712835,5000 -8.863429,41.712625,5000 -8.863258,41.712423,5000 -8.863201,41.712422,5000 -8.863143000000001,41.712415,5000 -8.863085,41.712401,5000 -8.862904,41.712399,5000 -8.862852999999999,41.712403,5000 -8.862741,41.712419,5000 -8.862412000000001,41.712407,5000 -8.862151000000001,41.712284,5000 -8.862009,41.712226,5000 -8.861846999999999,41.712123,5000 -8.86182,41.712099,5000 -8.861796999999999,41.712073,5000 -8.861689,41.711862,5000 -8.86159,41.711648,5000 -8.861497,41.711408,5000 -8.861485,41.711349,5000 -8.861511999999999,41.711094,5000 -8.861537999999999,41.710848,5000 -8.861542999999999,41.710614,5000 -8.861610000000001,41.710385,5000 -8.86168,41.71013,5000 -8.86177,41.709886,5000 -8.861806,41.709803,5000 -8.861812,41.709774,5000 -8.861787,41.709536,5000 -8.861713999999999,41.709299,5000 -8.861663,41.709166,5000 -8.861582,41.709059,5000 -8.86138,41.708885,5000 -8.861203,41.708695,5000 -8.860994,41.708522,5000 -8.860772000000001,41.708328,5000 -8.860647999999999,41.708109,5000 -8.860581,41.707857,5000 -8.860578,41.707619,5000 -8.860571999999999,41.707587,5000 -8.860486999999999,41.707434,5000 -8.860296999999999,41.707222,5000 -8.860163,41.706987,5000 -8.86013,41.706757,5000 -8.860128,41.706704,5000 -8.860093000000001,41.706464,5000 -8.860073999999999,41.706394,5000 -8.859952,41.70616,5000 -8.859875000000001,41.705918,5000 -8.859855,41.705835,5000 -8.859842,41.705778,5000 -8.859859,41.705528,5000 -8.859857999999999,41.705301,5000 -8.859814999999999,41.705152,5000 -8.8598,41.705124,5000 -8.859779,41.705099,5000 -8.859579999999999,41.704911,5000 -8.859559000000001,41.704883,5000 -8.859541,41.704854,5000 -8.859527,41.704824,5000 -8.859496999999999,41.704696,5000 -8.859486,41.704664,5000 -8.859468,41.704632,5000 -8.859261999999999,41.704439,5000 -8.858991,41.704289,5000 -8.858959,41.704269,5000 -8.858776000000001,41.70409,5000 -8.858654,41.703838,5000 -8.858547,41.703616,5000 -8.858447,41.703366,5000 -8.858311,41.703142,5000 -8.858195,41.702916,5000 -8.858183,41.702894,5000 -8.858159000000001,41.702871,5000 -8.857996,41.702671,5000 -8.857834,41.702478,5000 -8.857699999999999,41.702247,5000 -8.857651000000001,41.702015,5000 -8.857653000000001,41.701764,5000 -8.857647,41.701511,5000 -8.857544000000001,41.701292,5000 -8.857374999999999,41.70109,5000 -8.857157000000001,41.7009,5000 -8.856944,41.700733,5000 -8.856885,41.700678,5000 -8.856840999999999,41.700618,5000 -8.856828999999999,41.700587,5000 -8.856825000000001,41.700554,5000 -8.856892999999999,41.700313,5000 -8.856923,41.700247,5000 -8.856933,41.700214,5000 -8.856938,41.700181,5000 -8.856937,41.70015,5000 -8.85693,41.700118,5000 -8.856916999999999,41.700088,5000 -8.856901000000001,41.700061,5000 -8.856728,41.699869,5000 -8.856528000000001,41.699683,5000 -8.856336000000001,41.699494,5000 -8.856218,41.699367,5000 -8.856192,41.699347,5000 -8.856163,41.699333,5000 -8.856127000000001,41.699322,5000 -8.856090999999999,41.699317,5000 -8.856055,41.699321,5000 -8.856021,41.69933,5000 -8.85599,41.699344,5000 -8.855962999999999,41.699363,5000 -8.855941,41.699387,5000 -8.855924,41.699412,5000 -8.855912,41.69944,5000 -8.85586,41.69963,5000 -8.855843,41.699657,5000 -8.855821000000001,41.699681,5000 -8.855795000000001,41.699703,5000 -8.855765,41.699722,5000 -8.855733000000001,41.699739,5000 -8.855701,41.699753,5000 -8.855665,41.699765,5000 -8.85535,41.699799,5000 -8.855233999999999,41.699796,5000 -8.855195,41.699792,5000 -8.85516,41.699784,5000 -8.855127,41.699773,5000 -8.855096,41.69976,5000 -8.855069,41.699744,5000 -8.855043999999999,41.699727,5000 -8.855022999999999,41.699706,5000 -8.855005999999999,41.699684,5000 -8.854965,41.699585,5000 -8.854953,41.699562,5000 -8.854937,41.69954,5000 -8.854917,41.69952,5000 -8.854894,41.699502,5000 -8.854867,41.699489,5000 -8.854837,41.699481,5000 -8.854808999999999,41.699481,5000 -8.854768999999999,41.699488,5000 -8.854735,41.699499,5000 -8.854635,41.699541,5000 -8.854441,41.699622,5000 -8.854134999999999,41.69964,5000 -8.854079,41.699638,5000 -8.853747,41.699579,5000 -8.8536,41.699541,5000 -8.853462,41.699504,5000 -8.853205000000001,41.699399,5000 -8.852995,41.699274,5000 -8.852930000000001,41.699235,5000 -8.852793,41.699113,5000 -8.852786999999999,41.699107,5000 -8.852776,41.699095,5000 -8.852762999999999,41.699082,5000 -8.852753,41.699069,5000 -8.852665999999999,41.698891,5000 -8.852643,41.698842,5000 -8.85258,41.698612,5000 -8.852572,41.69856,5000 -8.852556,41.69847,5000 -8.852551,41.698454,5000 -8.852543000000001,41.698433,5000 -8.852525,41.698411,5000 -8.852489,41.698377,5000 -8.852269,41.69823,5000 -8.852166,41.698129,5000 -8.852073000000001,41.698037,5000 -8.851922,41.697833,5000 -8.851801999999999,41.697596,5000 -8.851774000000001,41.697567,5000 -8.85162,41.697418,5000 -8.851424,41.697288,5000 -8.851378,41.697258,5000 -8.851165999999999,41.69707,5000 -8.851092,41.696962,5000 -8.851024000000001,41.696859,5000 -8.850966,41.696728,5000 -8.850871,41.696577,5000 -8.850695,41.696291,5000 -8.850593,41.696056,5000 -8.850576,41.696014,5000 -8.850495,41.695806,5000 -8.850415999999999,41.69555,5000 -8.850356,41.695297,5000 -8.850301999999999,41.695043,5000 -8.850292,41.694971,5000 -8.850285,41.694922,5000 -8.850258999999999,41.694727,5000 -8.850244999999999,41.694561,5000 -8.850198000000001,41.694318,5000 -8.850194,41.694092,5000 -8.850194,41.694077,5000 -8.850196,41.694014,5000 -8.850205000000001,41.693985,5000 -8.850365,41.69377,5000 -8.850402000000001,41.693735,5000 -8.850495,41.69368,5000 -8.850593,41.693643,5000 -8.850638999999999,41.693632,5000 -8.850686,41.69363,5000 -8.850787,41.693643,5000 -8.850839000000001,41.693644,5000 -8.850884000000001,41.693631,5000 -8.850911999999999,41.693599,5000 -8.850917000000001,41.693556,5000 -8.850910000000001,41.693508,5000 -8.850903000000001,41.693485,5000 -8.850882,41.693446,5000 -8.850847999999999,41.693419,5000 -8.850797999999999,41.69341,5000 -8.850739000000001,41.693413,5000 -8.850443,41.693506,5000 -8.850266,41.693563,5000 -8.849971999999999,41.69366,5000 -8.849942,41.693666,5000 -8.849883,41.693672,5000 -8.849824,41.693671,5000 -8.849766000000001,41.693666,5000 -8.849731999999999,41.69366,5000 -8.849703,41.693649,5000 -8.849672,41.693636,5000 -8.849646,41.693591,5000 -8.849565,41.693544,5000 -8.849496,41.693476,5000 -8.849422000000001,41.693364,5000 -8.849297,41.693152,5000 -8.849246000000001,41.693104,5000 -8.849225000000001,41.693078,5000 -8.849201000000001,41.693062,5000 -8.849183,41.69304,5000 -8.849062,41.692872,5000 -8.849038999999999,41.692839,5000 -8.849017999999999,41.692817,5000 -8.849000999999999,41.692794,5000 -8.848962999999999,41.692721,5000 -8.848933000000001,41.692613,5000 -8.848893,41.692383,5000 -8.848856,41.69213,5000 -8.848815999999999,41.691872,5000 -8.848737,41.691405,5000 -8.848703,41.69117,5000 -8.848674000000001,41.690917,5000 -8.848642,41.690656,5000 -8.848604,41.690395,5000 -8.848565000000001,41.69016,5000 -8.848535,41.689925,5000 -8.84853,41.689896,5000 -8.848485,41.689672,5000 -8.848421999999999,41.689426,5000 -8.848362,41.689184,5000 -8.848319999999999,41.68894,5000 -8.848274999999999,41.6887,5000 -8.848242000000001,41.688464,5000 -8.848212,41.688238,5000 -8.848171000000001,41.688005,5000 -8.848129,41.687763,5000 -8.848105,41.687523,5000 -8.848075,41.687285,5000 -8.848069000000001,41.687245,5000 -8.848038000000001,41.687039,5000 -8.847998,41.686801,5000 -8.84796,41.686575,5000 -8.847928,41.686327,5000 -8.847887999999999,41.686093,5000 -8.847833,41.685867,5000 -8.847784000000001,41.685629,5000 -8.847782,41.685601,5000 -8.847738,41.68536,5000 -8.8477,41.685109,5000 -8.847655,41.684858,5000 -8.847636,41.684796,5000 -8.847609,41.684608,5000 -8.847572,41.684359,5000 -8.847534,41.684121,5000 -8.847498,41.683876,5000 -8.847479999999999,41.683788,5000 -8.847435000000001,41.683552,5000 -8.847390000000001,41.683292,5000 -8.847346,41.683028,5000 -8.84731,41.682786,5000 -8.847270999999999,41.682538,5000 -8.847224000000001,41.682293,5000 -8.847191,41.682066,5000 -8.847143000000001,41.68182,5000 -8.847096000000001,41.681592,5000 -8.847053000000001,41.681364,5000 -8.847015000000001,41.681135,5000 -8.846983,41.680908,5000 -8.846927000000001,41.680681,5000 -8.846886,41.680454,5000 -8.84684,41.680218,5000 -8.846788999999999,41.679976,5000 -8.846723000000001,41.679742,5000 -8.846659000000001,41.679507,5000 -8.846607000000001,41.679271,5000 -8.846519000000001,41.679039,5000 -8.846431000000001,41.678804,5000 -8.846344,41.678578,5000 -8.846263,41.678353,5000 -8.846171,41.678121,5000 -8.846088,41.6779,5000 -8.846005,41.677658,5000 -8.845896,41.677424,5000 -8.845805,41.677198,5000 -8.845715,41.676953,5000 -8.845618999999999,41.676715,5000 -8.845510000000001,41.676474,5000 -8.845416999999999,41.676244,5000 -8.845298,41.676003,5000 -8.845198999999999,41.675765,5000 -8.845094,41.675532,5000 -8.845084,41.675503,5000 -8.845053,41.675349,5000 -8.844998,41.675124,5000 -8.844903,41.674901,5000 -8.844804999999999,41.674686,5000 -8.844714,41.674449,5000 -8.844605,41.674238,5000 -8.844493,41.674018,5000 -8.844474999999999,41.673999,5000 -8.844443999999999,41.673973,5000 -8.844419,41.67396,5000 -8.844386,41.673948,5000 -8.844353999999999,41.673945,5000 -8.844293,41.673944,5000 -8.844192,41.673956,5000 -8.844113999999999,41.673983,5000 -8.844091000000001,41.674,5000 -8.844067000000001,41.674014,5000 -8.844044999999999,41.674031,5000 -8.843976,41.674123,5000 -8.843977000000001,41.674192,5000 -8.843995,41.674216,5000 -8.843999999999999,41.674354,5000 -8.844011,41.674382,5000 -8.844032,41.674406,5000 -8.844185,41.674501,5000 -8.844207000000001,41.67452,5000 -8.844227,41.674541,5000 -8.844265,41.674595,5000 -8.844274,41.674618,5000 -8.844279,41.674643,5000 -8.844277,41.674669,5000 -8.844268,41.674696,5000 -8.844256,41.674719,5000 -8.844248,41.674744,5000 -8.844249,41.67477,5000 -8.844258,41.674794,5000 -8.844357,41.675023,5000 -8.844483,41.675247,5000 -8.844503,41.67528,5000 -8.844552999999999,41.675336,5000 -8.844575000000001,41.675368,5000 -8.844626999999999,41.675488,5000 -8.844694,41.67563,5000 -8.844808,41.675865,5000 -8.84491,41.6761,5000 -8.844919000000001,41.676135,5000 -8.844922,41.676221,5000 -8.844927,41.676245,5000 -8.844939999999999,41.676267,5000 -8.844977999999999,41.676309,5000 -8.844996999999999,41.676335,5000 -8.845067999999999,41.676486,5000 -8.845072999999999,41.676519,5000 -8.845071000000001,41.676552,5000 -8.845058999999999,41.676615,5000 -8.845058999999999,41.676643,5000 -8.845065999999999,41.676667,5000 -8.845090000000001,41.676699,5000 -8.845151,41.676757,5000 -8.845198999999999,41.676829,5000 -8.845302,41.67706,5000 -8.845382000000001,41.677299,5000 -8.845477000000001,41.677539,5000 -8.845560000000001,41.677767,5000 -8.845597,41.67793,5000 -8.845613,41.677959,5000 -8.845674000000001,41.678024,5000 -8.845727,41.678105,5000 -8.845832,41.678334,5000 -8.845909000000001,41.67857,5000 -8.845993,41.678816,5000 -8.846114,41.679027,5000 -8.846125000000001,41.67905,5000 -8.846126,41.679216,5000 -8.846104,41.679286,5000 -8.8461,41.679309,5000 -8.846102,41.679333,5000 -8.846114999999999,41.679355,5000 -8.846135,41.679374,5000 -8.846159,41.679391,5000 -8.846178999999999,41.679414,5000 -8.846259,41.679582,5000 -8.846291000000001,41.679733,5000 -8.846344999999999,41.67996,5000 -8.846382,41.6802,5000 -8.846387,41.680454,5000 -8.846394,41.680483,5000 -8.846428,41.680532,5000 -8.846439999999999,41.680557,5000 -8.846477,41.680747,5000 -8.846520999999999,41.680986,5000 -8.84657,41.681238,5000 -8.846624,41.681474,5000 -8.846646,41.68173,5000 -8.846648,41.681794,5000 -8.846666000000001,41.681846,5000 -8.846667,41.681919,5000 -8.846653999999999,41.681937,5000 -8.846641,41.681959,5000 -8.846626000000001,41.681979,5000 -8.846526000000001,41.682067,5000 -8.846503999999999,41.682094,5000 -8.846469000000001,41.682169,5000 -8.846484,41.682397,5000 -8.846507000000001,41.682644,5000 -8.846534,41.68287,5000 -8.846546999999999,41.683118,5000 -8.846543,41.683148,5000 -8.846534,41.683174,5000 -8.846508,41.683225,5000 -8.846455000000001,41.683458,5000 -8.846458999999999,41.68349,5000 -8.846479,41.683538,5000 -8.846482999999999,41.683565,5000 -8.846482999999999,41.68359,5000 -8.846479,41.683614,5000 -8.846469000000001,41.683636,5000 -8.846399999999999,41.683719,5000 -8.846327,41.683783,5000 -8.846265000000001,41.683823,5000 -8.846007,41.683942,5000 -8.845824,41.684065,5000 -8.845563,41.684179,5000 -8.845539,41.684193,5000 -8.845508000000001,41.684216,5000 -8.845483,41.68423,5000 -8.845416999999999,41.684264,5000 -8.845394000000001,41.684288,5000 -8.845316,41.684329,5000 -8.845249000000001,41.684373,5000 -8.845221,41.684382,5000 -8.845190000000001,41.684388,5000 -8.84515,41.684387,5000 -8.84511,41.684375,5000 -8.845071000000001,41.684359,5000 -8.845032,41.684346,5000 -8.844996,41.684343,5000 -8.844969000000001,41.684354,5000 -8.844950000000001,41.684375,5000 -8.844941,41.684402,5000 -8.844939,41.684434,5000 -8.844925999999999,41.684466,5000 -8.844905000000001,41.684489,5000 -8.844873,41.684506,5000 -8.844803000000001,41.6845,5000 -8.844764,41.684502,5000 -8.844726,41.684508,5000 -8.84459,41.684551,5000 -8.844564999999999,41.684571,5000 -8.844528,41.684622,5000 -8.844388,41.684742,5000 -8.844362,41.684756,5000 -8.844326000000001,41.684768,5000 -8.844288000000001,41.684773,5000 -8.844265,41.684756,5000 -8.844244,41.684738,5000 -8.844225,41.684715,5000 -8.844211,41.684693,5000 -8.844065000000001,41.68449,5000 -8.843913000000001,41.684282,5000 -8.843748,41.684066,5000 -8.843558,41.683856,5000 -8.843389,41.683645,5000 -8.843306999999999,41.683568,5000 -8.843225,41.683486,5000 -8.843197999999999,41.68347,5000 -8.843166,41.683466,5000 -8.843132000000001,41.683466,5000 -8.842885000000001,41.683511,5000 -8.842599,41.683586,5000 -8.842288999999999,41.683671,5000 -8.841977,41.683755,5000 -8.841661999999999,41.683816,5000 -8.841430000000001,41.68389,5000 -8.841400999999999,41.683907,5000 -8.841385000000001,41.683927,5000 -8.841357,41.68398,5000 -8.841346,41.684069,5000 -8.841348999999999,41.684096,5000 -8.84137,41.68417,5000 -8.841388,41.684191,5000 -8.841417,41.684201,5000 -8.841447000000001,41.68421,5000 -8.841519999999999,41.684241,5000 -8.841557,41.684252,5000 -8.841588,41.684259,5000 -8.841896999999999,41.68431,5000 -8.841927999999999,41.684315,5000 -8.841998,41.684334,5000 -8.842034,41.684347,5000 -8.842060999999999,41.684367,5000 -8.842078000000001,41.684386,5000 -8.842091999999999,41.684409,5000 -8.842129,41.684498,5000 -8.842216000000001,41.684731,5000 -8.842207,41.684755,5000 -8.842177,41.684766,5000 -8.842142000000001,41.684774,5000 -8.842124999999999,41.684756,5000 -8.842114,41.684731,5000 -8.842091,41.684713,5000 -8.842077,41.684735,5000 -8.842090000000001,41.684755,5000 -8.84221,41.685002,5000 -8.842286,41.685238,5000 -8.842415000000001,41.685496,5000 -8.842529000000001,41.685712,5000 -8.842636000000001,41.685953,5000 -8.842745000000001,41.686191,5000 -8.842832,41.686434,5000 -8.842931999999999,41.686647,5000 -8.843024,41.686885,5000 -8.843116,41.687112,5000 -8.843223,41.687339,5000 -8.843242,41.687357,5000 -8.843309,41.687339,5000 -8.843341000000001,41.687336,5000 -8.843351,41.687357,5000 -8.84337,41.687377,5000 -8.843384,41.687397,5000 -8.843397,41.687423,5000 -8.843502000000001,41.687641,5000 -8.843506,41.687665,5000 -8.843508,41.687738,5000 -8.843565,41.687962,5000 -8.84361,41.688215,5000 -8.843655,41.688453,5000 -8.843716000000001,41.688691,5000 -8.843728,41.688756,5000 -8.843738,41.688784,5000 -8.843707999999999,41.688784,5000 -8.843552000000001,41.688795,5000 -8.843524,41.688785,5000 -8.843545000000001,41.68899,5000 -8.843579999999999,41.689215,5000 -8.843581,41.689242,5000 -8.843555,41.689255,5000 -8.843368999999999,41.68927,5000 -8.843118,41.689308,5000 -8.843112,41.689204,5000 -8.843087000000001,41.689063,5000 -8.843031999999999,41.688825,5000 -8.842988,41.688574,5000 -8.842957999999999,41.688336,5000 -8.842917999999999,41.688104,5000 -8.84282,41.687889,5000 -8.84271,41.687668,5000 -8.842635,41.687489,5000 -8.842574000000001,41.687504,5000 -8.842509,41.687521,5000 -8.842442999999999,41.687533,5000 -8.842124,41.687595,5000 -8.842047000000001,41.687616,5000 -8.841761,41.687688,5000 -8.841694,41.687708,5000 -8.841664,41.687726,5000 -8.841666999999999,41.68775,5000 -8.841677000000001,41.687773,5000 -8.841692999999999,41.687797,5000 -8.841706,41.687825,5000 -8.841754,41.687974,5000 -8.841863,41.688189,5000 -8.841958999999999,41.688433,5000 -8.842052000000001,41.688658,5000 -8.842169,41.688895,5000 -8.842183,41.688948,5000 -8.842180000000001,41.688976,5000 -8.842169999999999,41.688998,5000 -8.842142000000001,41.68901,5000 -8.842109000000001,41.689015,5000 -8.841962000000001,41.689017,5000 -8.841934999999999,41.689004,5000 -8.841923,41.688979,5000 -8.841905000000001,41.68896,5000 -8.841891,41.688937,5000 -8.84188,41.688909,5000 -8.841797,41.688678,5000 -8.841697999999999,41.688441,5000 -8.841606000000001,41.688212,5000 -8.841516,41.687987,5000 -8.841437000000001,41.687788,5000 -8.841407,41.687792,5000 -8.841346,41.687818,5000 -8.841331,41.687839,5000 -8.841340000000001,41.687846,5000 -8.841383,41.687956,5000 -8.841509,41.688185,5000 -8.841545,41.688279,5000 -8.841602,41.688515,5000 -8.841616,41.688555,5000 -8.841680999999999,41.688666,5000 -8.841702,41.688713,5000 -8.841810000000001,41.688945,5000 -8.841906,41.689177,5000 -8.841991,41.689407,5000 -8.842079,41.689634,5000 -8.842185000000001,41.689871,5000 -8.842266,41.690093,5000 -8.842359999999999,41.690306,5000 -8.842442,41.69053,5000 -8.842536000000001,41.69076,5000 -8.842582999999999,41.69084,5000 -8.842587999999999,41.69087,5000 -8.842523,41.690884,5000 -8.842349,41.690932,5000 -8.842286,41.690958,5000 -8.842257,41.690966,5000 -8.842224999999999,41.690972,5000 -8.842181999999999,41.690866,5000 -8.842096,41.69065,5000 -8.842001,41.690433,5000 -8.841829000000001,41.689992,5000 -8.841723999999999,41.689779,5000 -8.841710000000001,41.689755,5000 -8.841691000000001,41.689736,5000 -8.841678,41.689715,5000 -8.841637,41.689591,5000 -8.841611,41.689542,5000 -8.841602999999999,41.689518,5000 -8.841500999999999,41.689294,5000 -8.8414,41.689046,5000 -8.841307,41.688824,5000 -8.841215,41.68861,5000 -8.841049999999999,41.688133,5000 -8.84094,41.687911,5000 -8.840920000000001,41.687888,5000 -8.840786,41.687927,5000 -8.840757999999999,41.687944,5000 -8.840763000000001,41.68801,5000 -8.840821999999999,41.688164,5000 -8.840923999999999,41.688395,5000 -8.841035,41.688638,5000 -8.841141,41.688874,5000 -8.841232,41.689091,5000 -8.841329999999999,41.68931,5000 -8.841433,41.689541,5000 -8.841431,41.689568,5000 -8.841398999999999,41.689571,5000 -8.841359000000001,41.689582,5000 -8.841046,41.689669,5000 -8.840718000000001,41.689756,5000 -8.840680000000001,41.689757,5000 -8.840591,41.689536,5000 -8.840477999999999,41.689297,5000 -8.840384999999999,41.689055,5000 -8.840285,41.688826,5000 -8.840178,41.688573,5000 -8.840097,41.688351,5000 -8.839994000000001,41.688125,5000 -8.839962,41.688114,5000 -8.839827,41.688144,5000 -8.839534,41.688227,5000 -8.839513,41.68821,5000 -8.839484000000001,41.68814,5000 -8.839468,41.688117,5000 -8.839410000000001,41.687984,5000 -8.839397,41.687964,5000 -8.839380999999999,41.687943,5000 -8.839244000000001,41.687833,5000 -8.838967,41.68774,5000 -8.838917,41.687733,5000 -8.838782999999999,41.687735,5000 -8.838711,41.687748,5000 -8.838621,41.687777,5000 -8.838592,41.687792,5000 -8.838536,41.687833,5000 -8.838509999999999,41.687847,5000 -8.838478,41.687858,5000 -8.838305999999999,41.687895,5000 -8.838274,41.687893,5000 -8.838258,41.687873,5000 -8.838086000000001,41.68768,5000 -8.83808,41.687658,5000 -8.838107000000001,41.687637,5000 -8.838134999999999,41.687621,5000 -8.838279999999999,41.687553,5000 -8.838298,41.68754,5000 -8.838265,41.687501,5000 -8.838243,41.687483,5000 -8.83821,41.687474,5000 -8.838105000000001,41.687462,5000 -8.837782000000001,41.687465,5000 -8.837742,41.687474,5000 -8.837497000000001,41.687609,5000 -8.837329,41.687686,5000 -8.837062,41.687837,5000 -8.836956000000001,41.68789,5000 -8.836784,41.687986,5000 -8.836684999999999,41.688022,5000 -8.836656,41.688035,5000 -8.836625,41.688059,5000 -8.836575,41.688106,5000 -8.836558999999999,41.688132,5000 -8.836558,41.688155,5000 -8.83656,41.688195,5000 -8.836563999999999,41.688225,5000 -8.836577,41.688246,5000 -8.836632,41.688221,5000 -8.836886,41.688064,5000 -8.837031,41.687995,5000 -8.837058000000001,41.687983,5000 -8.837133,41.688142,5000 -8.837115000000001,41.688159,5000 -8.837090999999999,41.688174,5000 -8.837026,41.688205,5000 -8.836755,41.688348,5000 -8.836668,41.688392,5000 -8.836751,41.688568,5000 -8.836793999999999,41.688618,5000 -8.83677,41.688634,5000 -8.836729,41.688655,5000 -8.836622,41.688693,5000 -8.836587,41.688697,5000 -8.836577999999999,41.688675,5000 -8.836550000000001,41.688668,5000 -8.836517000000001,41.688677,5000 -8.836489,41.688688,5000 -8.836427,41.688714,5000 -8.836143,41.688825,5000 -8.836105,41.68884,5000 -8.835841,41.688953,5000 -8.835808,41.688966,5000 -8.835750000000001,41.688986,5000 -8.835751,41.689009,5000 -8.835539000000001,41.689091,5000 -8.835509999999999,41.689097,5000 -8.835489000000001,41.689081,5000 -8.835436,41.688987,5000 -8.835419999999999,41.688962,5000 -8.835277,41.688734,5000 -8.835119000000001,41.688529,5000 -8.835119000000001,41.688503,5000 -8.835148,41.688493,5000 -8.835179999999999,41.688476,5000 -8.835316000000001,41.68842,5000 -8.835599999999999,41.688318,5000 -8.835906,41.688217,5000 -8.836198,41.688113,5000 -8.836221,41.688095,5000 -8.836219,41.688069,5000 -8.836206000000001,41.688044,5000 -8.836173,41.688036,5000 -8.836055999999999,41.688066,5000 -8.835908,41.688132,5000 -8.835869000000001,41.688144,5000 -8.835784,41.688156,5000 -8.835756,41.688175,5000 -8.835737999999999,41.688194,5000 -8.835449000000001,41.68831,5000 -8.835158,41.688435,5000 -8.835126000000001,41.68844,5000 -8.835065999999999,41.688418,5000 -8.835038000000001,41.688429,5000 -8.834859,41.688513,5000 -8.834958,41.688734,5000 -8.835103,41.688937,5000 -8.835072,41.688943,5000 -8.834758000000001,41.689026,5000 -8.834443,41.68912,5000 -8.834144,41.689222,5000 -8.833857999999999,41.689308,5000 -8.833546,41.689386,5000 -8.833195,41.68951,5000 -8.833019,41.68956,5000 -8.832684,41.689688,5000 -8.832376,41.689809,5000 -8.83211,41.689905,5000 -8.831810000000001,41.690017,5000 -8.831533,41.69014,5000 -8.831492000000001,41.690156,5000 -8.831215,41.690264,5000 -8.830947999999999,41.690368,5000 -8.830652000000001,41.690487,5000 -8.830356999999999,41.69059,5000 -8.830071,41.690702,5000 -8.830005999999999,41.690738,5000 -8.829934,41.690766,5000 -8.829901,41.690772,5000 -8.829884,41.690751,5000 -8.829872,41.69073,5000 -8.829834999999999,41.690682,5000 -8.829791,41.690611,5000 -8.829732,41.69054,5000 -8.829692,41.690463,5000 -8.829670999999999,41.690439,5000 -8.829668,41.690414,5000 -8.829689999999999,41.690396,5000 -8.829725,41.690381,5000 -8.829972,41.690251,5000 -8.830253000000001,41.690128,5000 -8.830306999999999,41.690099,5000 -8.830557000000001,41.689973,5000 -8.830825000000001,41.689829,5000 -8.831345000000001,41.689586,5000 -8.831607999999999,41.689448,5000 -8.831868,41.689312,5000 -8.832151,41.689185,5000 -8.83243,41.689053,5000 -8.832696,41.688914,5000 -8.832954000000001,41.688792,5000 -8.83325,41.688669,5000 -8.833545000000001,41.688557,5000 -8.833843999999999,41.688432,5000 -8.834117000000001,41.68832,5000 -8.834154,41.688314,5000 -8.834372,41.688225,5000 -8.834631999999999,41.688112,5000 -8.834924000000001,41.68799,5000 -8.835191,41.687861,5000 -8.83548,41.687734,5000 -8.835768,41.687628,5000 -8.835801999999999,41.687632,5000 -8.835857000000001,41.6877,5000 -8.835863,41.687724,5000 -8.835803,41.687747,5000 -8.835537,41.687876,5000 -8.835248,41.687974,5000 -8.834970999999999,41.688087,5000 -8.834706000000001,41.688209,5000 -8.834679,41.688228,5000 -8.834661000000001,41.688247,5000 -8.834652,41.688274,5000 -8.834663000000001,41.688296,5000 -8.834681,41.68832,5000 -8.834701000000001,41.688343,5000 -8.834731,41.688369,5000 -8.834758000000001,41.688384,5000 -8.83479,41.688381,5000 -8.834998000000001,41.688298,5000 -8.83502,41.68828,5000 -8.835039999999999,41.68826,5000 -8.835134,41.688221,5000 -8.835309000000001,41.68814,5000 -8.835369,41.688119,5000 -8.835677,41.688034,5000 -8.835974,41.68792,5000 -8.836283,41.687823,5000 -8.836581000000001,41.687717,5000 -8.836866000000001,41.687599,5000 -8.837128999999999,41.687455,5000 -8.837391,41.687324,5000 -8.837668000000001,41.687168,5000 -8.837911,41.68703,5000 -8.837932,41.687012,5000 -8.837942999999999,41.686958,5000 -8.837939,41.686934,5000 -8.837922000000001,41.686914,5000 -8.837892,41.686914,5000 -8.837593999999999,41.68706,5000 -8.837325,41.687206,5000 -8.837085,41.687355,5000 -8.836963000000001,41.687418,5000 -8.836931,41.687411,5000 -8.836874,41.687359,5000 -8.836807,41.687283,5000 -8.836627999999999,41.687087,5000 -8.836448000000001,41.686893,5000 -8.836422000000001,41.686871,5000 -8.836404,41.686851,5000 -8.836423,41.686829,5000 -8.836482,41.68679,5000 -8.836595000000001,41.686701,5000 -8.836821,41.686524,5000 -8.837058000000001,41.686353,5000 -8.837301999999999,41.686181,5000 -8.837545,41.686006,5000 -8.837569,41.685991,5000 -8.837591,41.685974,5000 -8.837638,41.685936,5000 -8.837714,41.685887,5000 -8.837745999999999,41.685866,5000 -8.837996,41.685658,5000 -8.838011,41.685637,5000 -8.838011,41.685613,5000 -8.83799,41.685594,5000 -8.837960000000001,41.685588,5000 -8.83793,41.685607,5000 -8.837899999999999,41.685608,5000 -8.837842,41.685571,5000 -8.837778,41.68551,5000 -8.837707,41.68546,5000 -8.837685,41.685442,5000 -8.837683999999999,41.685417,5000 -8.837706000000001,41.685396,5000 -8.837728,41.685378,5000 -8.837755,41.685359,5000 -8.837782000000001,41.685343,5000 -8.837831,41.685323,5000 -8.838013,41.685208,5000 -8.838248999999999,41.685037,5000 -8.838474,41.684875,5000 -8.838523,41.684834,5000 -8.838554999999999,41.684825,5000 -8.838594000000001,41.684825,5000 -8.838818,41.68485,5000 -8.839135000000001,41.684871,5000 -8.839164999999999,41.684868,5000 -8.839187000000001,41.68485,5000 -8.839199000000001,41.684823,5000 -8.839195,41.684799,5000 -8.839171,41.684782,5000 -8.839141,41.684776,5000 -8.838934,41.68475,5000 -8.838623,41.684717,5000 -8.838588,41.684704,5000 -8.838576,41.684681,5000 -8.8386,41.684498,5000 -8.838635999999999,41.684253,5000 -8.838687999999999,41.684019,5000 -8.838710000000001,41.683777,5000 -8.838735,41.683545,5000 -8.838761,41.683526,5000 -8.839066000000001,41.68361,5000 -8.839373,41.683705,5000 -8.83944,41.68373,5000 -8.839594999999999,41.683771,5000 -8.839664000000001,41.683782,5000 -8.839736,41.683801,5000 -8.839772,41.6838,5000 -8.839802000000001,41.683786,5000 -8.839812999999999,41.683763,5000 -8.839810999999999,41.683739,5000 -8.839793,41.683717,5000 -8.839767999999999,41.683703,5000 -8.839703999999999,41.683675,5000 -8.839674,41.683665,5000 -8.839366999999999,41.683577,5000 -8.839062,41.683481,5000 -8.83877,41.683396,5000 -8.838761999999999,41.683374,5000 -8.838775999999999,41.68324,5000 -8.838773,41.683215,5000 -8.838766,41.683191,5000 -8.838749,41.683171,5000 -8.838697,41.683132,5000 -8.838668,41.683121,5000 -8.838635,41.68312,5000 -8.838599,41.683125,5000 -8.838573999999999,41.683145,5000 -8.838497,41.683223,5000 -8.838341,41.68343,5000 -8.838175,41.683635,5000 -8.838006999999999,41.683856,5000 -8.837838,41.684067,5000 -8.83771,41.684281,5000 -8.837695,41.684301,5000 -8.83766,41.684338,5000 -8.837484999999999,41.684531,5000 -8.837292,41.684732,5000 -8.837095,41.684935,5000 -8.836895,41.685143,5000 -8.836835000000001,41.685199,5000 -8.835988,41.684678,5000 -8.836004000000001,41.684665,5000 -8.835856,41.684509,5000 -8.835414999999999,41.684003,5000 -8.834927,41.683388,5000 -8.834447000000001,41.682814,5000 -8.833697000000001,41.682074,5000 -8.834141000000001,41.681817,5000 -8.8344,41.681666,5000 -8.83464,41.681507,5000 -8.834894999999999,41.681365,5000 -8.834944999999999,41.681332,5000 -8.835184,41.681196,5000 -8.83544,41.681068,5000 -8.835687999999999,41.680923,5000 -8.835915999999999,41.680775,5000 -8.836164,41.680626,5000 -8.836411999999999,41.680498,5000 -8.83644,41.680474,5000 -8.836484,41.680426,5000 -8.836496,41.680402,5000 -8.836513,41.680351,5000 -8.836618,41.680138,5000 -8.836706,41.67989,5000 -8.8368,41.679655,5000 -8.836892000000001,41.679423,5000 -8.836983999999999,41.679203,5000 -8.837061,41.678967,5000 -8.837153000000001,41.67875,5000 -8.837234,41.678531,5000 -8.837308999999999,41.678306,5000 -8.83742,41.678051,5000 -8.837469,41.677972,5000 -8.837488,41.67795,5000 -8.837531,41.677906,5000 -8.837547000000001,41.677881,5000 -8.837558,41.677856,5000 -8.837562999999999,41.677833,5000 -8.837564,41.677806,5000 -8.837555,41.677778,5000 -8.837543999999999,41.677757,5000 -8.837529,41.677735,5000 -8.837508,41.677717,5000 -8.837486999999999,41.677707,5000 -8.837460999999999,41.677694,5000 -8.837398,41.677683,5000 -8.837336000000001,41.677687,5000 -8.837305000000001,41.677701,5000 -8.837284,41.677722,5000 -8.837232999999999,41.677752,5000 -8.837213,41.677776,5000 -8.837206,41.677799,5000 -8.837204,41.677848,5000 -8.837206999999999,41.677871,5000 -8.837215,41.677898,5000 -8.837218999999999,41.677922,5000 -8.837213,41.677944,5000 -8.837209,41.678,5000 -8.837204,41.678031,5000 -8.837192,41.678062,5000 -8.837119,41.678288,5000 -8.837002999999999,41.678506,5000 -8.836930000000001,41.678731,5000 -8.836892000000001,41.678832,5000 -8.836857,41.678985,5000 -8.836748999999999,41.67921,5000 -8.836626000000001,41.679432,5000 -8.836551999999999,41.679673,5000 -8.836465,41.679903,5000 -8.836444,41.679923,5000 -8.836232000000001,41.679952,5000 -8.836161000000001,41.679955,5000 -8.836116000000001,41.679953,5000 -8.835891999999999,41.679921,5000 -8.835578999999999,41.679895,5000 -8.83527,41.679842,5000 -8.834956,41.679791,5000 -8.834652,41.679732,5000 -8.834349,41.679659,5000 -8.834034000000001,41.67954,5000 -8.833748,41.679452,5000 -8.833435,41.67938,5000 -8.833145999999999,41.679296,5000 -8.832865,41.679176,5000 -8.832611999999999,41.679049,5000 -8.832357,41.678914,5000 -8.832101,41.678761,5000 -8.831860000000001,41.678621,5000 -8.831611000000001,41.678476,5000 -8.831367999999999,41.678323,5000 -8.830883,41.678007,5000 -8.830636,41.677846,5000 -8.830423,41.677685,5000 -8.830199,41.677512,5000 -8.82999,41.677337,5000 -8.829784,41.67715,5000 -8.829573,41.676959,5000 -8.829381,41.676778,5000 -8.829202,41.676561,5000 -8.829056,41.676332,5000 -8.828934,41.676125,5000 -8.82874,41.675907,5000 -8.828676,41.675789,5000 -8.828545,41.675581,5000 -8.82836,41.675373,5000 -8.828334,41.675327,5000 -8.828260999999999,41.67524,5000 -8.82823,41.675178,5000 -8.828118,41.674968,5000 -8.828036000000001,41.674749,5000 -8.82802,41.67472,5000 -8.827957,41.674547,5000 -8.827952,41.674538,5000 -8.827842,41.674316,5000 -8.827707,41.674092,5000 -8.827676,41.674045,5000 -8.827665,41.674019,5000 -8.827498,41.673726,5000 -8.827349999999999,41.673517,5000 -8.827229000000001,41.673306,5000 -8.827106000000001,41.67307,5000 -8.826961000000001,41.672808,5000 -8.826838,41.672598,5000 -8.826752000000001,41.672454,5000 -8.826699,41.672366,5000 -8.826552,41.672116,5000 -8.826420000000001,41.671854,5000 -8.826295999999999,41.671594,5000 -8.826183,41.671327,5000 -8.826071000000001,41.671052,5000 -8.825961,41.670771,5000 -8.825850000000001,41.670464,5000 -8.825768999999999,41.670166,5000 -8.825711,41.66986,5000 -8.825652,41.669552,5000 -8.825595,41.669239,5000 -8.825530000000001,41.668931,5000 -8.825464999999999,41.668622,5000 -8.825407,41.668318,5000 -8.825352000000001,41.668022,5000 -8.825321000000001,41.667722,5000 -8.825288,41.667416,5000 -8.825260999999999,41.667123,5000 -8.825246999999999,41.666833,5000 -8.825222999999999,41.666521,5000 -8.825188000000001,41.666209,5000 -8.825151999999999,41.665904,5000 -8.825139999999999,41.665601,5000 -8.825143000000001,41.665297,5000 -8.825155000000001,41.664981,5000 -8.825182,41.664675,5000 -8.825215,41.664368,5000 -8.825248,41.664063,5000 -8.825256,41.663755,5000 -8.825259000000001,41.663444,5000 -8.825263,41.663132,5000 -8.825267999999999,41.662811,5000 -8.825289,41.662495,5000 -8.825315,41.662189,5000 -8.825346,41.661897,5000 -8.825390000000001,41.661594,5000 -8.825424999999999,41.661302,5000 -8.825481999999999,41.661001,5000 -8.825538999999999,41.660706,5000 -8.825606000000001,41.660412,5000 -8.825654999999999,41.66012,5000 -8.825697,41.659824,5000 -8.825742999999999,41.659534,5000 -8.825799999999999,41.659246,5000 -8.825865,41.658962,5000 -8.825931000000001,41.658679,5000 -8.825994,41.658398,5000 -8.826044,41.658032,5000 -8.826063,41.657756,5000 -8.826084,41.657482,5000 -8.826093999999999,41.657201,5000 -8.826105999999999,41.656926,5000 -8.826112999999999,41.656652,5000 -8.826134,41.656396,5000 -8.826159000000001,41.656135,5000 -8.826193,41.655863,5000 -8.826231,41.655591,5000 -8.826205,41.655228,5000 -8.826195999999999,41.654948,5000 -8.826167999999999,41.654679,5000 -8.826150999999999,41.654416,5000 -8.826164,41.654146,5000 -8.82619,41.653881,5000 -8.826197000000001,41.653602,5000 -8.82621,41.653337,5000 -8.826231,41.653064,5000 -8.826269,41.652797,5000 -8.826299000000001,41.652523,5000 -8.826351000000001,41.652255,5000 -8.826428999999999,41.651994,5000 -8.826506,41.651733,5000 -8.826585,41.651465,5000 -8.826681000000001,41.651189,5000 -8.826788000000001,41.650925,5000 -8.826893,41.65067,5000 -8.827005,41.650425,5000 -8.827108000000001,41.650266,5000 -8.827133999999999,41.650211,5000 -8.827299999999999,41.649971,5000 -8.827387,41.649836,5000 -8.827400000000001,41.649799,5000 -8.827404,41.649765,5000 -8.827401999999999,41.649737,5000 -8.827389,41.64971,5000 -8.827372,41.649685,5000 -8.827209,41.649561,5000 -8.827185,41.649538,5000 -8.827074,41.649381,5000 -8.827045999999999,41.649354,5000 -8.826827,41.64916,5000 -8.826708999999999,41.648902,5000 -8.826648,41.648638,5000 -8.826577,41.648402,5000 -8.826471,41.648137,5000 -8.826445,41.6481,5000 -8.826359999999999,41.64798,5000 -8.826248,41.64776,5000 -8.826214999999999,41.64767,5000 -8.826169,41.64749,5000 -8.826150999999999,41.647355,5000 -8.826134,41.647289,5000 -8.826221,41.647281,5000 -8.82616,41.647179,5000 -8.826072,41.64711,5000 -8.825934999999999,41.647041,5000 -8.825841,41.646944,5000 -8.825729000000001,41.646682,5000 -8.825566,41.646241,5000 -8.825426999999999,41.645964,5000 -8.825255,41.645691,5000 -8.825170999999999,41.645519,5000 -8.824839000000001,41.645075,5000 -8.824764999999999,41.644834,5000 -8.824773,41.644374,5000 -8.824775000000001,41.644072,5000 -8.824837,41.643883,5000 -8.824847999999999,41.643652,5000 -8.824851000000001,41.64344,5000 -8.82485,41.643366,5000 -8.824835999999999,41.643318,5000 -8.824816999999999,41.643265,5000 -8.824797999999999,41.643236,5000 -8.824642000000001,41.64305,5000 -8.824434999999999,41.642835,5000 -8.824242,41.6426,5000 -8.824088,41.642373,5000 -8.823969,41.642144,5000 -8.823873000000001,41.642,5000 -8.823784,41.641875,5000 -8.823567000000001,41.641587,5000 -8.823464,41.641441,5000 -8.823342999999999,41.641255,5000 -8.823261,41.641052,5000 -8.823134,41.640874,5000 -8.822858999999999,41.640544,5000 -8.822395,41.640125,5000 -8.822127,41.63996,5000 -8.821961999999999,41.639727,5000 -8.821657999999999,41.639052,5000 -8.821564,41.638586,5000 -8.821561000000001,41.638286,5000 -8.821524,41.638063,5000 -8.821351999999999,41.637687,5000 -8.82105,41.637217,5000 -8.820874,41.63701,5000 -8.820557000000001,41.636564,5000 -8.820378,41.636375,5000 -8.820214999999999,41.636072,5000 -8.820126999999999,41.635922,5000 -8.820050999999999,41.635673,5000 -8.820005999999999,41.635452,5000 -8.820003,41.634972,5000 -8.820008,41.634918,5000 -8.820021000000001,41.634682,5000 -8.820076,41.634433,5000 -8.820126,41.634204,5000 -8.820183999999999,41.633946,5000 -8.820188999999999,41.633719,5000 -8.820181,41.633482,5000 -8.820167,41.633334,5000 -8.820157999999999,41.63324,5000 -8.820133999999999,41.633011,5000 -8.820125000000001,41.632783,5000 -8.820099000000001,41.632542,5000 -8.820034,41.632297,5000 -8.819984,41.632047,5000 -8.819925,41.631788,5000 -8.819922999999999,41.63153,5000 -8.819925,41.631262,5000 -8.819925,41.631011,5000 -8.819929,41.630739,5000 -8.819962,41.630488,5000 -8.820040000000001,41.630258,5000 -8.820159,41.630034,5000 -8.820297999999999,41.629834,5000 -8.820473,41.629609,5000 -8.820594,41.6294,5000 -8.82061,41.629337,5000 -8.820611,41.629309,5000 -8.820603999999999,41.629285,5000 -8.820586,41.629264,5000 -8.820562000000001,41.629246,5000 -8.820535,41.629234,5000 -8.820505000000001,41.629227,5000 -8.820256000000001,41.629195,5000 -8.820224,41.629184,5000 -8.820197,41.629171,5000 -8.820173,41.629154,5000 -8.820154,41.629131,5000 -8.820137000000001,41.629104,5000 -8.820107999999999,41.629037,5000 -8.820052,41.6288,5000 -8.820047000000001,41.628557,5000 -8.820046,41.628286,5000 -8.819991999999999,41.628031,5000 -8.819896999999999,41.62779,5000 -8.81981,41.627568,5000 -8.819718,41.627306,5000 -8.819644,41.627063,5000 -8.81958,41.626816,5000 -8.819516999999999,41.626563,5000 -8.819508000000001,41.626535,5000 -8.819493,41.626511,5000 -8.819470000000001,41.62649,5000 -8.819442,41.626474,5000 -8.81941,41.626462,5000 -8.819373000000001,41.626455,5000 -8.819334,41.626451,5000 -8.819119000000001,41.626464,5000 -8.819084,41.626473,5000 -8.819051,41.626485,5000 -8.818994999999999,41.626516,5000 -8.818968,41.626527,5000 -8.818916,41.62653,5000 -8.818880999999999,41.626505,5000 -8.81887,41.626482,5000 -8.81883,41.626357,5000 -8.818716,41.626117,5000 -8.81861,41.625905,5000 -8.818419,41.625703,5000 -8.818205000000001,41.625515,5000 -8.818171,41.625494,5000 -8.818136000000001,41.625479,5000 -8.818099,41.625471,5000 -8.818015000000001,41.625462,5000 -8.817971,41.625454,5000 -8.817928999999999,41.625441,5000 -8.81789,41.625425,5000 -8.817855,41.625403,5000 -8.817691,41.625204,5000 -8.817548,41.624967,5000 -8.817384000000001,41.624737,5000 -8.817233999999999,41.624514,5000 -8.817029,41.624336,5000 -8.816775,41.624164,5000 -8.816556,41.62398,5000 -8.816354,41.623778,5000 -8.816209000000001,41.62355,5000 -8.816051,41.623326,5000 -8.815913,41.623124,5000 -8.815753000000001,41.622888,5000 -8.815588999999999,41.622675,5000 -8.815422,41.622466,5000 -8.815223,41.622086,5000 -8.81521,41.622054,5000 -8.815189999999999,41.622024,5000 -8.815109,41.621929,5000 -8.815099999999999,41.621904,5000 -8.814978,41.621736,5000 -8.814799000000001,41.621508,5000 -8.814621000000001,41.621302,5000 -8.814477,41.621104,5000 -8.814321,41.620911,5000 -8.814185999999999,41.620708,5000 -8.814074,41.620479,5000 -8.813929999999999,41.620262,5000 -8.813921000000001,41.620237,5000 -8.813832,41.620081,5000 -8.813756,41.619849,5000 -8.81368,41.619594,5000 -8.813651999999999,41.619537,5000 -8.813560000000001,41.619392,5000 -8.813526,41.619324,5000 -8.813509,41.619288,5000 -8.813394000000001,41.619042,5000 -8.813262999999999,41.618828,5000 -8.813145,41.618599,5000 -8.813034999999999,41.618357,5000 -8.812937,41.618133,5000 -8.812854,41.617914,5000 -8.812803000000001,41.617684,5000 -8.812787,41.617459,5000 -8.812832,41.617209,5000 -8.812875,41.616968,5000 -8.812936000000001,41.616734,5000 -8.812942,41.616507,5000 -8.812935,41.616475,5000 -8.812923,41.616444,5000 -8.81279,41.61624,5000 -8.812601000000001,41.616055,5000 -8.812372999999999,41.61586,5000 -8.812315,41.615791,5000 -8.812184,41.615579,5000 -8.812073,41.615329,5000 -8.811982,41.615099,5000 -8.811877000000001,41.614816,5000 -8.811786,41.614586,5000 -8.811714,41.614343,5000 -8.811674,41.614093,5000 -8.811650999999999,41.613837,5000 -8.811648999999999,41.613593,5000 -8.811654000000001,41.613365,5000 -8.811645,41.613128,5000 -8.811692000000001,41.612895,5000 -8.811749000000001,41.612643,5000 -8.811783999999999,41.612417,5000 -8.811780000000001,41.61235,5000 -8.811705999999999,41.612123,5000 -8.811658,41.611892,5000 -8.811641,41.611659,5000 -8.811615,41.611601,5000 -8.811363,41.611738,5000 -8.810987000000001,41.611695,5000 -8.810867,41.611706,5000 -8.810435,41.611847,5000 -8.810257999999999,41.611901,5000 -8.810093999999999,41.61199,5000 -8.809951,41.612119,5000 -8.809645,41.612546,5000 -8.809396,41.612684,5000 -8.809241,41.612874,5000 -8.809322,41.613153,5000 -8.809364,41.613382,5000 -8.809272,41.613543,5000 -8.809051,41.613695,5000 -8.808728,41.613749,5000 -8.808395000000001,41.613665,5000 -8.807881999999999,41.613346,5000 -8.807646999999999,41.612835,5000 -8.807767999999999,41.611892,5000 -8.807594999999999,41.610528,5000 -8.806613,41.609214,5000 -8.805165000000001,41.608688,5000 -8.803213,41.607171,5000 -8.801487,41.606513,5000 -8.800794,41.606413,5000 -8.800143,41.606521,5000 -8.800008999999999,41.606878,5000 -8.799623,41.607304,5000 -8.798641999999999,41.6077,5000 -8.797143,41.608417,5000 -8.796526999999999,41.608962,5000 -8.795963,41.60928,5000 -8.795175,41.609518,5000 -8.794662000000001,41.609612,5000 -8.794231,41.609571,5000 -8.793957000000001,41.609587,5000 -8.790974,41.610574,5000 -8.789667,41.611051,5000 -8.789103000000001,41.611407,5000 -8.788715,41.611777,5000 -8.788461,41.6124,5000 -8.788273999999999,41.612617,5000 -8.788067,41.612789,5000 -8.787938,41.612837,5000 -8.787731000000001,41.612829,5000 -8.787231999999999,41.612751,5000 -8.786552,41.612582,5000 -8.785589,41.61212,5000 -8.785167,41.61193,5000 -8.784761,41.611837,5000 -8.783822000000001,41.611687,5000 -8.783239,41.611733,5000 -8.782651,41.611943,5000 -8.782256,41.612213,5000 -8.782154999999999,41.612487,5000 -8.782159999999999,41.612682,5000 -8.782177000000001,41.613474,5000 -8.782169,41.613809,5000 -8.781848999999999,41.613961,5000 -8.780327,41.614381,5000 -8.778808,41.614913,5000 -8.778280000000001,41.615097,5000 -8.777850000000001,41.615188,5000 -8.777111,41.615292,5000 -8.776673000000001,41.615415,5000 -8.776566000000001,41.615461,5000 -8.776497000000001,41.615538,5000 -8.776384,41.615842,5000 -8.776346,41.615916,5000 -8.776265,41.61598,5000 -8.776138,41.616016,5000 -8.775997,41.616021,5000 -8.7758,41.615986,5000 -8.775406,41.615832,5000 -8.775111000000001,41.615675,5000 -8.774865,41.615409,5000 -8.77481,41.61518,5000 -8.77483,41.614894,5000 -8.774913,41.614528,5000 -8.775009000000001,41.614278,5000 -8.775077,41.614125,5000 -8.775074999999999,41.614019,5000 -8.774957000000001,41.613855,5000 -8.77467,41.613706,5000 -8.774348,41.613652,5000 -8.774153,41.613647,5000 -8.773796000000001,41.613671,5000 -8.773557,41.613718,5000 -8.773217000000001,41.613856,5000 -8.772973,41.614051,5000 -8.772715,41.614345,5000 -8.772257,41.614949,5000 -8.77205,41.61555,5000 -8.771884,41.615874,5000 -8.771652,41.616092,5000 -8.771466999999999,41.616182,5000 -8.771295,41.616196,5000 -8.771146999999999,41.616163,5000 -8.770880999999999,41.616043,5000 -8.770762,41.615939,5000 -8.770555999999999,41.615705,5000 -8.770042,41.614789,5000 -8.769971,41.614628,5000 -8.769940999999999,41.614452,5000 -8.769957,41.614274,5000 -8.770061,41.614073,5000 -8.770137999999999,41.613876,5000 -8.770133,41.613773,5000 -8.769970000000001,41.613572,5000 -8.769703,41.613483,5000 -8.769437999999999,41.613438,5000 -8.769129,41.613431,5000 -8.768941,41.613463,5000 -8.768575,41.613599,5000 -8.768345,41.613735,5000 -8.768203,41.613807,5000 -8.767965999999999,41.613911,5000 -8.767693,41.613962,5000 -8.767422,41.613964,5000 -8.767318,41.613938,5000 -8.767291999999999,41.613931,5000 -8.766857999999999,41.613826,5000 -8.766235999999999,41.613645,5000 -8.766000999999999,41.613566,5000 -8.765549,41.61347,5000 -8.765154000000001,41.61342,5000 -8.764597,41.613362,5000 -8.764272,41.613354,5000 -8.763992,41.613398,5000 -8.76375,41.613473,5000 -8.763604000000001,41.613535,5000 -8.763493,41.613608,5000 -8.763374000000001,41.613745,5000 -8.76329,41.613887,5000 -8.763114,41.614467,5000 -8.763032000000001,41.614766,5000 -8.762953,41.61492,5000 -8.762874999999999,41.614997,5000 -8.762790000000001,41.615045,5000 -8.762675,41.615067,5000 -8.762475999999999,41.615083,5000 -8.762333,41.615086,5000 -8.762098,41.615089,5000 -8.761718999999999,41.615073,5000 -8.761502,41.615047,5000 -8.761108999999999,41.614949,5000 -8.76092,41.614898,5000 -8.760374000000001,41.614645,5000 -8.760031,41.614466,5000 -8.759715999999999,41.614346,5000 -8.759503,41.614314,5000 -8.759333,41.614303,5000 -8.759078000000001,41.614282,5000 -8.758717000000001,41.614302,5000 -8.758585,41.614312,5000 -8.757901,41.614362,5000 -8.756852,41.614418,5000 -8.756791,41.617682,5000 -8.757053000000001,41.62121,5000 -8.756762999999999,41.621562,5000 -8.756273999999999,41.621769,5000 -8.750995,41.624006,5000 -8.748271000000001,41.624969,5000 -8.741994,41.619145,5000 -8.741598,41.619219,5000 -8.741201999999999,41.619272,5000 -8.741102,41.619304,5000 -8.740417000000001,41.619586,5000 -8.739890000000001,41.619675,5000 -8.739587999999999,41.619698,5000 -8.739243999999999,41.619726,5000 -8.739057000000001,41.619779,5000 -8.738879000000001,41.619989,5000 -8.738792999999999,41.620274,5000 -8.738683,41.620498,5000 -8.7384,41.620728,5000 -8.73795,41.621044,5000 -8.737772,41.621202,5000 -8.737493000000001,41.621381,5000 -8.737314,41.621429,5000 -8.737059,41.621425,5000 -8.736689999999999,41.621422,5000 -8.736357999999999,41.621403,5000 -8.735882,41.621212,5000 -8.735746000000001,41.621181,5000 -8.735602,41.621172,5000 -8.735408,41.621199,5000 -8.735226000000001,41.621313,5000 -8.734866999999999,41.621592,5000 -8.734705,41.621682,5000 -8.734404,41.621762,5000 -8.734152999999999,41.6218,5000 -8.733679,41.62184,5000 -8.733320000000001,41.621826,5000 -8.733025,41.621806,5000 -8.73268,41.621758,5000 -8.732502999999999,41.621729,5000 -8.732486,41.621721,5000 -8.730185000000001,41.625374,5000 -8.72758,41.628931,5000 -8.725925,41.632424,5000 -8.725612999999999,41.632977,5000 -8.725102,41.633508,5000 -8.725033,41.633536,5000 -8.724232000000001,41.633855,5000 -8.722547,41.634161,5000 -8.719340000000001,41.634743,5000 -8.718647000000001,41.634807,5000 -8.717477000000001,41.634917,5000 -8.715037000000001,41.634914,5000 -8.713865999999999,41.634876,5000 -8.713032,41.634776,5000 -8.711944000000001,41.63447,5000 -8.711525,41.634155,5000 -8.711053,41.633849,5000 -8.710699,41.633492,5000 -8.710262999999999,41.633052,5000 -8.709892,41.632842,5000 -8.709788,41.632773,5000 -8.709312000000001,41.632435,5000 -8.70872,41.632098,5000 -8.708280999999999,41.63195,5000 -8.707897000000001,41.631929,5000 -8.707504999999999,41.631908,5000 -8.706317,41.632106,5000 -8.705908000000001,41.632359,5000 -8.705403,41.632672,5000 -8.704965,41.633108,5000 -8.70482,41.633344,5000 -8.704749,41.63341,5000 -8.704665,41.633549,5000 -8.704487,41.6338,5000 -8.704345,41.634002,5000 -8.704276999999999,41.63412,5000 -8.703908,41.634693,5000 -8.703642,41.635592,5000 -8.703322999999999,41.636167,5000 -8.702021999999999,41.63805,5000 -8.700805000000001,41.638625,5000 -8.698741999999999,41.639688,5000 -8.697456000000001,41.640472,5000 -8.696859999999999,41.640723,5000 -8.696388000000001,41.640774,5000 -8.694629000000001,41.640616,5000 -8.693391999999999,41.639976,5000 -8.693375,41.639976,5000 -8.693123999999999,41.639977,5000 -8.692937000000001,41.639905,5000 -8.692482,41.639701,5000 -8.692093,41.639589,5000 -8.691826000000001,41.639539,5000 -8.691566,41.639502,5000 -8.691036,41.639505,5000 -8.690579,41.639617,5000 -8.690375,41.639685,5000 -8.690160000000001,41.639791,5000 -8.689995,41.639875,5000 -8.68956,41.64006,5000 -8.689315000000001,41.640095,5000 -8.689177000000001,41.640081,5000 -8.688860999999999,41.639992,5000 -8.688655000000001,41.639898,5000 -8.688135000000001,41.63971,5000 -8.687901999999999,41.63969,5000 -8.687834000000001,41.63969,5000 -8.687697,41.63969,5000 -8.68755,41.639702,5000 -8.687303999999999,41.639801,5000 -8.686963,41.640022,5000 -8.686741,41.640222,5000 -8.686641,41.640284,5000 -8.686514000000001,41.640343,5000 -8.686411,41.640372,5000 -8.686197,41.640391,5000 -8.685972,41.640333,5000 -8.685802000000001,41.640242,5000 -8.685676000000001,41.64016,5000 -8.685487999999999,41.639999,5000 -8.685271999999999,41.63997,5000 -8.685178000000001,41.639986,5000 -8.684922,41.64008,5000 -8.684716,41.640175,5000 -8.684592,41.640221,5000 -8.684369999999999,41.640241,5000 -8.684086000000001,41.640231,5000 -8.683239,41.64014,5000 -8.682814,41.640135,5000 -8.682693,41.640134,5000 -8.682264999999999,41.6401,5000 -8.681898,41.640037,5000 -8.68163,41.639968,5000 -8.681119000000001,41.639867,5000 -8.680869,41.639843,5000 -8.680699000000001,41.639834,5000 -8.680498,41.63982,5000 -8.680192999999999,41.639733,5000 -8.679656,41.63952,5000 -8.679150999999999,41.639393,5000 -8.678691000000001,41.63938,5000 -8.678353,41.639423,5000 -8.677887999999999,41.639507,5000 -8.677327,41.639678,5000 -8.677047,41.639815,5000 -8.676906000000001,41.639893,5000 -8.676703,41.640005,5000 -8.676701,41.640012,5000 -8.676629999999999,41.640052,5000 -8.676422000000001,41.640136,5000 -8.676087000000001,41.640175,5000 -8.675667000000001,41.640217,5000 -8.675589,41.640227,5000 -8.675044,41.640297,5000 -8.674256,41.640523,5000 -8.673033,41.64094,5000 -8.672700000000001,41.641061,5000 -8.671474999999999,41.64129,5000 -8.670883,41.641478,5000 -8.670766,41.641528,5000 -8.670623000000001,41.641664,5000 -8.670405000000001,41.641749,5000 -8.670123,41.641762,5000 -8.669851,41.641679,5000 -8.669635,41.641534,5000 -8.669459,41.641392,5000 -8.669248,41.641225,5000 -8.669115,41.641166,5000 -8.668958999999999,41.641135,5000 -8.668574,41.641231,5000 -8.668348999999999,41.641328,5000 -8.668238000000001,41.641397,5000 -8.668077,41.641541,5000 -8.668011999999999,41.641591,5000 -8.667897999999999,41.641744,5000 -8.667809999999999,41.641944,5000 -8.667738,41.642078,5000 -8.667649000000001,41.642163,5000 -8.667546,41.642251,5000 -8.66732,41.64233,5000 -8.666975000000001,41.642418,5000 -8.66675,41.642397,5000 -8.666463,41.642352,5000 -8.666183999999999,41.6423,5000 -8.665846,41.642296,5000 -8.665551000000001,41.642294,5000 -8.665172,41.64231,5000 -8.664842,41.642311,5000 -8.664426000000001,41.64232,5000 -8.664215,41.642334,5000 -8.664068,41.642348,5000 -8.663954,41.642316,5000 -8.663803,41.642243,5000 -8.663691999999999,41.642163,5000 -8.663428,41.641924,5000 -8.663188999999999,41.641655,5000 -8.662834,41.641252,5000 -8.662725,41.641098,5000 -8.662630999999999,41.64091,5000 -8.662597999999999,41.640771,5000 -8.662588,41.640509,5000 -8.662597999999999,41.640256,5000 -8.662507,41.640197,5000 -8.662323000000001,41.64017,5000 -8.661937999999999,41.64015,5000 -8.661642000000001,41.640142,5000 -8.661548,41.640094,5000 -8.661505,41.640015,5000 -8.661446,41.639853,5000 -8.661393,41.639717,5000 -8.661286,41.639427,5000 -8.661250000000001,41.639247,5000 -8.661218999999999,41.63914,5000 -8.66114,41.63892,5000 -8.660947,41.638803,5000 -8.660644,41.638726,5000 -8.660425999999999,41.638692,5000 -8.660113000000001,41.63866,5000 -8.659976,41.638638,5000 -8.659748,41.638608,5000 -8.659367,41.63851,5000 -8.659129,41.638456,5000 -8.658889,41.638331,5000 -8.658758000000001,41.638186,5000 -8.658645,41.637998,5000 -8.658498,41.637687,5000 -8.658272999999999,41.637414,5000 -8.657954,41.637145,5000 -8.657845,41.637053,5000 -8.657653,41.636893,5000 -8.65734,41.636703,5000 -8.657112,41.636615,5000 -8.65699,41.63659,5000 -8.656779999999999,41.636572,5000 -8.656508000000001,41.636571,5000 -8.656193,41.636597,5000 -8.655975,41.636632,5000 -8.655763,41.636656,5000 -8.655633,41.636649,5000 -8.655419,41.636575,5000 -8.655293,41.636491,5000 -8.655189,41.636365,5000 -8.655182,41.636242,5000 -8.655203,41.636006,5000 -8.655239,41.635818,5000 -8.655296999999999,41.635443,5000 -8.655331,41.635112,5000 -8.655286,41.634728,5000 -8.655258999999999,41.634599,5000 -8.655256,41.634383,5000 -8.655239999999999,41.63417,5000 -8.65522,41.634005,5000 -8.655023999999999,41.633517,5000 -8.654951000000001,41.63337,5000 -8.654875000000001,41.633312,5000 -8.654702,41.633286,5000 -8.654265000000001,41.633383,5000 -8.654119,41.633448,5000 -8.65401,41.633521,5000 -8.653881,41.633616,5000 -8.653587999999999,41.633812,5000 -8.653471,41.633841,5000 -8.653295,41.63384,5000 -8.653034999999999,41.633829,5000 -8.652729000000001,41.633769,5000 -8.652531,41.6337,5000 -8.652381999999999,41.633623,5000 -8.652241999999999,41.633515,5000 -8.652117000000001,41.633394,5000 -8.652041000000001,41.633318,5000 -8.651949999999999,41.633226,5000 -8.651713000000001,41.632934,5000 -8.651546,41.632647,5000 -8.651414000000001,41.632315,5000 -8.65136,41.632102,5000 -8.651354,41.631866,5000 -8.65143,41.631666,5000 -8.651471000000001,41.631444,5000 -8.651407000000001,41.631356,5000 -8.651343000000001,41.631317,5000 -8.651248000000001,41.631302,5000 -8.651045,41.631345,5000 -8.650871,41.631407,5000 -8.650663,41.631498,5000 -8.65049,41.631594,5000 -8.650262,41.631839,5000 -8.649981,41.632226,5000 -8.649806,41.632388,5000 -8.649588,41.632512,5000 -8.649486,41.632554,5000 -8.649089,41.632777,5000 -8.648818,41.632944,5000 -8.648565,41.63304,5000 -8.648332,41.63309,5000 -8.648009999999999,41.633148,5000 -8.6478,41.633168,5000 -8.647555000000001,41.633175,5000 -8.647323999999999,41.633154,5000 -8.647171999999999,41.633123,5000 -8.646887,41.633042,5000 -8.646397,41.632832,5000 -8.646369999999999,41.63282,5000 -8.646366,41.633563,5000 -8.646357999999999,41.635425,5000 -8.645918999999999,41.638795,5000 -8.645918,41.639122,5000 -8.646146,41.639614,5000 -8.646191999999999,41.640178,5000 -8.646198999999999,41.640525,5000 -8.646383,41.640909,5000 -8.646561,41.641921,5000 -8.646716,41.643117,5000 -8.647804000000001,41.645199,5000 -8.647902,41.646436,5000 -8.647900999999999,41.646621,5000 -8.647899000000001,41.646876,5000 -8.647872,41.647044,5000 -8.647729999999999,41.647399,5000 -8.647634,41.6476,5000 -8.647437,41.647901,5000 -8.647238,41.648122,5000 -8.647117,41.648203,5000 -8.645009,41.648708,5000 -8.644012999999999,41.649967,5000 -8.643636000000001,41.65056,5000 -8.643456,41.651181,5000 -8.643444000000001,41.651913,5000 -8.643345,41.652817,5000 -8.643307999999999,41.653964,5000 -8.643312,41.654199,5000 -8.643316,41.654413,5000 -8.643318000000001,41.654439,5000 -8.643503000000001,41.654994,5000 -8.644228,41.656041,5000 -8.643857000000001,41.656606,5000 -8.643316,41.657326,5000 -8.642880999999999,41.658379,5000 -8.643242000000001,41.660812,5000 -8.643933000000001,41.661911,5000 -8.643939,41.662628,5000 -8.64456,41.66342,5000 -8.646791,41.664844,5000 -8.645709999999999,41.666387,5000 -8.645854999999999,41.667462,5000 -8.645728,41.668667,5000 -8.645709999999999,41.670646,5000 -8.646133000000001,41.672309,5000 -8.646144,41.673642,5000 -8.646698000000001,41.674664,5000 -8.646712000000001,41.676381,5000 -8.646383,41.677997,5000 -8.646464999999999,41.679688,5000 -8.646520000000001,41.679743,5000 -8.647326,41.680555,5000 -8.648527,41.681216,5000 -8.649931,41.681697,5000 -8.651301999999999,41.681921,5000 -8.652668999999999,41.681966,5000 -8.654005,41.682472,5000 -8.654786,41.683068,5000 -8.655379999999999,41.683522,5000 -8.656629000000001,41.685848,5000 -8.656465000000001,41.68672,5000 -8.655817000000001,41.686928,5000 -8.654624999999999,41.687292,5000 -8.651767,41.688596,5000 -8.651562,41.68869,5000 -8.651172000000001,41.688787,5000 -8.649025999999999,41.688835,5000 -8.647989000000001,41.68934,5000 -8.647541,41.690211,5000 -8.647641,41.690192,5000 -8.647781999999999,41.690119,5000 -8.647876,41.690014,5000 -8.648020000000001,41.69009,5000 -8.647574000000001,41.690681,5000 -8.647800999999999,41.690961,5000 -8.649476999999999,41.693645,5000 -8.648097999999999,41.694215,5000 -8.647161000000001,41.694603,5000 -8.64345,41.696183,5000 -8.643165,41.6981,5000 -8.642866,41.700111,5000 -8.642091000000001,41.701447,5000 -8.644297999999999,41.70833,5000 -8.644779,41.708661,5000 -8.645598,41.708504,5000 -8.647076999999999,41.709727,5000 -8.647499,41.711166,5000 -8.649155,41.713233,5000 -8.649264000000001,41.714002,5000 -8.649952000000001,41.714537,5000 -8.651149,41.714685,5000 -8.653337000000001,41.714752,5000 -8.654605999999999,41.714926,5000 -8.654935,41.717589,5000 -8.655075,41.717999,5000 -8.655861,41.717969,5000 -8.656646,41.717882,5000 -8.657295,41.717809,5000 -8.660266999999999,41.717667,5000 -8.661334,41.718534,5000 -8.661611000000001,41.718626,5000 -8.663589999999999,41.719286,5000 -8.66502,41.719762,5000 -8.665583,41.719949,5000 -8.665659,41.720769,5000 -8.666903,41.722454,5000 -8.666603,41.723352,5000 -8.665898,41.72545,5000 -8.665406000000001,41.726915,5000 -8.665403,41.726925,5000 -8.665330000000001,41.727215,5000 -8.664759,41.73153,5000 -8.664683999999999,41.732099,5000 -8.664389999999999,41.734331,5000 -8.665694,41.735997,5000 -8.666918000000001,41.737595,5000 -8.668101999999999,41.739088,5000 -8.668457,41.739534,5000 -8.671474999999999,41.743531,5000 -8.67179,41.743656,5000 -8.672077,41.743757,5000 -8.672362,41.743868,5000 -8.672692,41.743946,5000 -8.67299,41.744013,5000 -8.673266999999999,41.744112,5000 -8.673297,41.744133,5000 -8.673322000000001,41.744155,5000 -8.673339,41.744177,5000 -8.673349999999999,41.744202,5000 -8.673360000000001,41.74425,5000 -8.673363999999999,41.744439,5000 -8.673374000000001,41.744473,5000 -8.673406999999999,41.744529,5000 -8.673427999999999,41.744576,5000 -8.673431000000001,41.744599,5000 -8.673557000000001,41.744827,5000 -8.673563,41.74484,5000 -8.673658,41.745051,5000 -8.673816,41.745261,5000 -8.674018999999999,41.745468,5000 -8.674234999999999,41.745679,5000 -8.674474,41.74585,5000 -8.674623,41.745924,5000 -8.674754,41.745989,5000 -8.675031000000001,41.746145,5000 -8.675212999999999,41.746365,5000 -8.675307999999999,41.746589,5000 -8.675388,41.746807,5000 -8.675473,41.747047,5000 -8.675573,41.747265,5000 -8.675724000000001,41.747491,5000 -8.675863,41.747709,5000 -8.676004000000001,41.747923,5000 -8.676189000000001,41.748141,5000 -8.676206000000001,41.748167,5000 -8.676212,41.74818,5000 -8.676216999999999,41.748193,5000 -8.676206000000001,41.748448,5000 -8.676182000000001,41.7485,5000 -8.676164999999999,41.748526,5000 -8.676144000000001,41.748549,5000 -8.67609,41.748593,5000 -8.675903999999999,41.748682,5000 -8.675618999999999,41.748775,5000 -8.675371999999999,41.748936,5000 -8.675335,41.748985,5000 -8.675314,41.74904,5000 -8.675307999999999,41.74907,5000 -8.675307999999999,41.749099,5000 -8.675314,41.749127,5000 -8.675325000000001,41.749157,5000 -8.675363000000001,41.749218,5000 -8.675566999999999,41.74939,5000 -8.675789999999999,41.749555,5000 -8.675806,41.749576,5000 -8.675812000000001,41.749597,5000 -8.675819000000001,41.749618,5000 -8.67573,41.749835,5000 -8.675719000000001,41.749888,5000 -8.675719000000001,41.749913,5000 -8.675722,41.749937,5000 -8.675732,41.749961,5000 -8.675765,41.750007,5000 -8.675786,41.750028,5000 -8.676038999999999,41.750151,5000 -8.676296000000001,41.750276,5000 -8.676529,41.750445,5000 -8.67656,41.750464,5000 -8.676591999999999,41.75048,5000 -8.676624,41.750492,5000 -8.676657000000001,41.750498,5000 -8.676686999999999,41.750499,5000 -8.676741,41.750486,5000 -8.676767,41.750472,5000 -8.676878,41.750384,5000 -8.676902,41.750369,5000 -8.67693,41.750356,5000 -8.676959,41.750347,5000 -8.676989000000001,41.750341,5000 -8.677021,41.750337,5000 -8.677053000000001,41.750338,5000 -8.677085999999999,41.750347,5000 -8.67712,41.750361,5000 -8.677215,41.750413,5000 -8.677422,41.750581,5000 -8.677606000000001,41.750784,5000 -8.677764,41.750982,5000 -8.677797999999999,41.751208,5000 -8.677803000000001,41.751448,5000 -8.677811999999999,41.751679,5000 -8.677825,41.751709,5000 -8.677845,41.751738,5000 -8.677873,41.751764,5000 -8.677905000000001,41.751787,5000 -8.677943000000001,41.751805,5000 -8.677985,41.751818,5000 -8.678008,41.751822,5000 -8.678032,41.751827,5000 -8.678376999999999,41.751824,5000 -8.678425000000001,41.751828,5000 -8.678521999999999,41.751847,5000 -8.678827,41.751957,5000 -8.67911,41.752107,5000 -8.679342999999999,41.752256,5000 -8.679558999999999,41.752421,5000 -8.679746,41.752618,5000 -8.679886,41.752821,5000 -8.680028999999999,41.753027,5000 -8.680142999999999,41.753244,5000 -8.680218,41.753493,5000 -8.680282,41.753743,5000 -8.680317000000001,41.753967,5000 -8.680304,41.754199,5000 -8.680286000000001,41.754441,5000 -8.680242,41.754686,5000 -8.680178,41.75492,5000 -8.680101000000001,41.755142,5000 -8.680085,41.755377,5000 -8.680177,41.755617,5000 -8.680182,41.755648,5000 -8.680184000000001,41.755678,5000 -8.680178,41.755708,5000 -8.680135999999999,41.755824,5000 -8.680033999999999,41.756037,5000 -8.680028999999999,41.756284,5000 -8.680073999999999,41.756531,5000 -8.680097999999999,41.756587,5000 -8.680236000000001,41.756805,5000 -8.680406,41.757007,5000 -8.680618000000001,41.757218,5000 -8.680866999999999,41.757402,5000 -8.681124000000001,41.757559,5000 -8.681346,41.757716,5000 -8.681452999999999,41.757773,5000 -8.681604,41.757854,5000 -8.681891999999999,41.757995,5000 -8.681979,41.758071,5000 -8.682081,41.75823,5000 -8.682100999999999,41.758462,5000 -8.682197,41.758618,5000 -8.682416,41.758787,5000 -8.682661,41.75893,5000 -8.682924,41.759043,5000 -8.683217000000001,41.7591,5000 -8.68352,41.759143,5000 -8.683821,41.759232,5000 -8.684075,41.759381,5000 -8.684296,41.759568,5000 -8.684328000000001,41.75958,5000 -8.684574,41.759749,5000 -8.684604,41.759787,5000 -8.684614,41.759809,5000 -8.684621999999999,41.759903,5000 -8.684616,41.759928,5000 -8.684583999999999,41.76,5000 -8.684569,41.760023,5000 -8.68455,41.760048,5000 -8.684502999999999,41.760093,5000 -8.684381,41.760167,5000 -8.684116,41.76031,5000 -8.684089999999999,41.760328,5000 -8.68407,41.760349,5000 -8.684054,41.760371,5000 -8.68403,41.760418,5000 -8.684022000000001,41.760442,5000 -8.684018,41.760466,5000 -8.684017000000001,41.760489,5000 -8.68402,41.760512,5000 -8.684029000000001,41.760533,5000 -8.684037,41.760543,5000 -8.684044,41.760553,5000 -8.684297000000001,41.760709,5000 -8.684577000000001,41.760813,5000 -8.684649,41.76082,5000 -8.684787,41.760861,5000 -8.685041,41.76102,5000 -8.685236,41.761233,5000 -8.685522000000001,41.761682,5000 -8.685669000000001,41.761919,5000 -8.68586,41.762129,5000 -8.686061,41.762329,5000 -8.686178999999999,41.762547,5000 -8.686254999999999,41.762778,5000 -8.686296,41.763007,5000 -8.686334,41.763262,5000 -8.686375,41.763486,5000 -8.686472,41.763722,5000 -8.686603,41.763949,5000 -8.686766,41.764165,5000 -8.686781999999999,41.76419,5000 -8.686826999999999,41.76422,5000 -8.687004999999999,41.764423,5000 -8.687207000000001,41.764622,5000 -8.687341,41.764705,5000 -8.687602,41.764868,5000 -8.687867000000001,41.765027,5000 -8.688093,41.76518,5000 -8.688316,41.765366,5000 -8.688521,41.765452,5000 -8.688566,41.765464,5000 -8.688743000000001,41.765476,5000 -8.688784,41.765471,5000 -8.688929,41.765439,5000 -8.688966000000001,41.765436,5000 -8.689081,41.765438,5000 -8.689119,41.765447,5000 -8.689156000000001,41.765458,5000 -8.689190999999999,41.765475,5000 -8.689223,41.765497,5000 -8.689406,41.765708,5000 -8.689779,41.766095,5000 -8.689798,41.766119,5000 -8.689864,41.766253,5000 -8.689973,41.766727,5000 -8.690020000000001,41.766956,5000 -8.690078,41.767203,5000 -8.690186000000001,41.76745,5000 -8.690338000000001,41.76768,5000 -8.690488999999999,41.76788,5000 -8.690606000000001,41.768089,5000 -8.690768,41.768304,5000 -8.690928,41.768527,5000 -8.691041,41.768749,5000 -8.691184,41.76897,5000 -8.691212,41.768997,5000 -8.691333,41.769085,5000 -8.691561,41.769248,5000 -8.691801999999999,41.76943,5000 -8.692087000000001,41.769559,5000 -8.692346000000001,41.769706,5000 -8.692643,41.769825,5000 -8.692914999999999,41.769935,5000 -8.693194,41.770066,5000 -8.693231000000001,41.770078,5000 -8.693268,41.770088,5000 -8.693569,41.77007,5000 -8.693602,41.77007,5000 -8.693631,41.77008,5000 -8.693735,41.770155,5000 -8.693863,41.770311,5000 -8.693996,41.770528,5000 -8.694096,41.770754,5000 -8.694203,41.77099,5000 -8.694371,41.771208,5000 -8.694525000000001,41.771432,5000 -8.694713,41.771634,5000 -8.69496,41.771765,5000 -8.695074,41.771794,5000 -8.695352,41.771895,5000 -8.695382,41.771912,5000 -8.695465,41.771968,5000 -8.695694,41.772152,5000 -8.695836999999999,41.77236,5000 -8.695995,41.772586,5000 -8.696177,41.772786,5000 -8.69637,41.772985,5000 -8.696554000000001,41.773186,5000 -8.696744000000001,41.773382,5000 -8.696918,41.773567,5000 -8.697037999999999,41.773664,5000 -8.697283000000001,41.773837,5000 -8.697531,41.774011,5000 -8.697786000000001,41.77416,5000 -8.697813999999999,41.77417,5000 -8.69801,41.774213,5000 -8.698102,41.774218,5000 -8.698168000000001,41.774211,5000 -8.6982,41.77421,5000 -8.698230000000001,41.774216,5000 -8.698257999999999,41.774227,5000 -8.698283,41.774241,5000 -8.698306000000001,41.774258,5000 -8.698357,41.774302,5000 -8.698383,41.77432,5000 -8.698413,41.774336,5000 -8.698448000000001,41.774351,5000 -8.698485,41.774364,5000 -8.698521,41.774375,5000 -8.698596,41.774395,5000 -8.698636,41.774405,5000 -8.698779999999999,41.774432,5000 -8.698886,41.774437,5000 -8.698916000000001,41.774435,5000 -8.699227,41.774395,5000 -8.699265,41.774404,5000 -8.699296,41.774419,5000 -8.69932,41.774442,5000 -8.699365,41.774503,5000 -8.699415,41.774574,5000 -8.699429,41.774598,5000 -8.699481,41.774695,5000 -8.699598999999999,41.774929,5000 -8.699693999999999,41.775147,5000 -8.699747,41.775248,5000 -8.69975,41.77531,5000 -8.699750999999999,41.77533,5000 -8.699742000000001,41.775447,5000 -8.699724,41.775482,5000 -8.699703,41.775515,5000 -8.699679,41.775547,5000 -8.699541,41.77569,5000 -8.699448,41.775761,5000 -8.699218,41.775919,5000 -8.699123,41.776002,5000 -8.699025000000001,41.776108,5000 -8.699007999999999,41.776131,5000 -8.698993,41.776154,5000 -8.698981,41.776176,5000 -8.698973000000001,41.776201,5000 -8.698952999999999,41.776309,5000 -8.698950999999999,41.776378,5000 -8.698945,41.776401,5000 -8.698931,41.776424,5000 -8.698912,41.776446,5000 -8.698874999999999,41.776473,5000 -8.698847000000001,41.776487,5000 -8.698812999999999,41.776499,5000 -8.698774999999999,41.776508,5000 -8.698695000000001,41.776526,5000 -8.698513999999999,41.776592,5000 -8.698290999999999,41.776771,5000 -8.698092000000001,41.776981,5000 -8.697957000000001,41.777202,5000 -8.697917,41.777349,5000 -8.697915,41.777513,5000 -8.697915999999999,41.777546,5000 -8.697898,41.777715,5000 -8.697984,41.77804,5000 -8.697818,41.778268,5000 -8.697774000000001,41.778497,5000 -8.697704999999999,41.778754,5000 -8.697676,41.778802,5000 -8.697647,41.77885,5000 -8.697495,41.779065,5000 -8.697436,41.779115,5000 -8.697402,41.779141,5000 -8.697282,41.779217,5000 -8.697246,41.779234,5000 -8.697148,41.779275,5000 -8.697115999999999,41.779292,5000 -8.697081000000001,41.77931,5000 -8.696966,41.77939,5000 -8.696937,41.779409,5000 -8.696904,41.779423,5000 -8.696866,41.779437,5000 -8.696823999999999,41.779447,5000 -8.696607,41.779479,5000 -8.696586,41.779483,5000 -8.696565,41.779487,5000 -8.696292,41.779611,5000 -8.696063000000001,41.779794,5000 -8.696045,41.779819,5000 -8.696021,41.779872,5000 -8.695995999999999,41.779939,5000 -8.695982000000001,41.77996,5000 -8.695964,41.779979,5000 -8.69594,41.779996,5000 -8.695914,41.78001,5000 -8.695886,41.78002,5000 -8.695757,41.780048,5000 -8.695724999999999,41.780054,5000 -8.695683000000001,41.780064,5000 -8.695643,41.780077,5000 -8.695601999999999,41.780089,5000 -8.695565,41.780103,5000 -8.695532,41.78012,5000 -8.695499999999999,41.780139,5000 -8.695468999999999,41.78016,5000 -8.695432,41.780191,5000 -8.695409,41.780215,5000 -8.69539,41.780239,5000 -8.695373,41.780264,5000 -8.695358000000001,41.780292,5000 -8.695341000000001,41.780321,5000 -8.695281,41.780397,5000 -8.695258000000001,41.780423,5000 -8.695209,41.780497,5000 -8.695195999999999,41.78052,5000 -8.695179,41.780574,5000 -8.695173,41.780602,5000 -8.695164,41.780692,5000 -8.695152,41.780835,5000 -8.695178,41.781011,5000 -8.695183,41.781038,5000 -8.695185,41.781064,5000 -8.695164999999999,41.781221,5000 -8.695168000000001,41.781244,5000 -8.695187000000001,41.781272,5000 -8.695206000000001,41.781289,5000 -8.695264999999999,41.781336,5000 -8.695287,41.781364,5000 -8.695330999999999,41.781435,5000 -8.695356,41.781483,5000 -8.69537,41.781518,5000 -8.69538,41.781542,5000 -8.695392999999999,41.781565,5000 -8.695411999999999,41.781586,5000 -8.695434000000001,41.781605,5000 -8.695480999999999,41.781643,5000 -8.695506,41.78167,5000 -8.695518,41.781695,5000 -8.695536000000001,41.781713,5000 -8.695631000000001,41.781837,5000 -8.695644,41.781863,5000 -8.695658999999999,41.781913,5000 -8.695669000000001,41.781936,5000 -8.695687,41.781956,5000 -8.695709000000001,41.781973,5000 -8.695876,41.782096,5000 -8.695893,41.782119,5000 -8.6959,41.782142,5000 -8.695902999999999,41.782167,5000 -8.695824,41.782383,5000 -8.695808,41.782409,5000 -8.695789,41.782434,5000 -8.695767,41.782457,5000 -8.695674,41.782539,5000 -8.695653,41.782559,5000 -8.695603,41.782625,5000 -8.695592,41.782647,5000 -8.695594,41.782673,5000 -8.695523,41.782823,5000 -8.695418999999999,41.783067,5000 -8.695410000000001,41.783188,5000 -8.695409,41.783218,5000 -8.695411,41.783248,5000 -8.695408,41.783276,5000 -8.695398000000001,41.783305,5000 -8.695347999999999,41.783394,5000 -8.695316999999999,41.783433,5000 -8.695152,41.783609,5000 -8.695131,41.783635,5000 -8.694969,41.783826,5000 -8.694943,41.78385,5000 -8.694813,41.783971,5000 -8.694606,41.784139,5000 -8.694405,41.784297,5000 -8.694209000000001,41.784473,5000 -8.694172999999999,41.784524,5000 -8.694038000000001,41.78474,5000 -8.694012000000001,41.784783,5000 -8.693918,41.784988,5000 -8.693858000000001,41.785393,5000 -8.693809999999999,41.785631,5000 -8.693775,41.785757,5000 -8.693768,41.785848,5000 -8.693764,41.785882,5000 -8.693719,41.7861,5000 -8.693648,41.786332,5000 -8.693641,41.786361,5000 -8.693553,41.786583,5000 -8.693460999999999,41.786778,5000 -8.693448999999999,41.786802,5000 -8.693391,41.786934,5000 -8.693374,41.787017,5000 -8.693337,41.787185,5000 -8.693327,41.787423,5000 -8.693334999999999,41.787642,5000 -8.693374,41.78786,5000 -8.693363,41.788107,5000 -8.693336,41.788295,5000 -8.69331,41.788454,5000 -8.693307000000001,41.788484,5000 -8.693301999999999,41.78871,5000 -8.693296,41.788942,5000 -8.693281000000001,41.78919,5000 -8.693265,41.789415,5000 -8.693223,41.789638,5000 -8.693210000000001,41.789671,5000 -8.693123999999999,41.789879,5000 -8.693031,41.790101,5000 -8.693014,41.790131,5000 -8.692895999999999,41.790345,5000 -8.692823000000001,41.790558,5000 -8.692817,41.790587,5000 -8.692811000000001,41.790629,5000 -8.692812,41.790657,5000 -8.692824999999999,41.790714,5000 -8.692836,41.790742,5000 -8.69285,41.790768,5000 -8.692978,41.790976,5000 -8.692982000000001,41.791006,5000 -8.692982000000001,41.791038,5000 -8.692976,41.791087,5000 -8.692955,41.791149,5000 -8.69294,41.791179,5000 -8.692921999999999,41.791208,5000 -8.692898,41.791234,5000 -8.692733,41.791431,5000 -8.692716000000001,41.791459,5000 -8.692598,41.79168,5000 -8.692583000000001,41.79171,5000 -8.692487,41.791921,5000 -8.692475,41.791949,5000 -8.692387999999999,41.792138,5000 -8.692375999999999,41.792167,5000 -8.692352,41.792221,5000 -8.692285999999999,41.792352,5000 -8.692197,41.792573,5000 -8.692187000000001,41.792605,5000 -8.692126,41.792822,5000 -8.692005,41.793036,5000 -8.691872999999999,41.793245,5000 -8.691856,41.793274,5000 -8.691744,41.793479,5000 -8.691608,41.793726,5000 -8.691509999999999,41.793945,5000 -8.691407999999999,41.794148,5000 -8.691397,41.794179,5000 -8.691354,41.794298,5000 -8.691345999999999,41.794328,5000 -8.691338999999999,41.794393,5000 -8.691333999999999,41.794424,5000 -8.691248999999999,41.794626,5000 -8.691233,41.794654,5000 -8.691138,41.794862,5000 -8.691124,41.79489,5000 -8.691001999999999,41.795096,5000 -8.690939999999999,41.795194,5000 -8.690878,41.795294,5000 -8.690763,41.795499,5000 -8.690749,41.795527,5000 -8.690681,41.795637,5000 -8.690643,41.79575,5000 -8.690628,41.795779,5000 -8.690405,41.796122,5000 -8.690389,41.796264,5000 -8.690424999999999,41.796718,5000 -8.69035,41.796868,5000 -8.690239999999999,41.797217,5000 -8.690154,41.79742,5000 -8.690039000000001,41.797652,5000 -8.689831999999999,41.798013,5000 -8.689489999999999,41.798423,5000 -8.689098,41.798746,5000 -8.688789999999999,41.798975,5000 -8.688397999999999,41.799233,5000 -8.688338,41.799286,5000 -8.688151,41.799449,5000 -8.687957000000001,41.79966,5000 -8.687851,41.799859,5000 -8.68782,41.800003,5000 -8.687808,41.800058,5000 -8.687965999999999,41.800412,5000 -8.688594999999999,41.801373,5000 -8.689242999999999,41.802359,5000 -8.689867,41.803412,5000 -8.690284,41.804511,5000 -8.690421000000001,41.805163,5000 -8.690436999999999,41.806001,5000 -8.690345000000001,41.806921,5000 -8.690452000000001,41.808138,5000 -8.690562999999999,41.809327,5000 -8.690837,41.811524,5000 -8.690626,41.813369,5000 -8.690296999999999,41.814187,5000 -8.691844,41.814984,5000 -8.694247000000001,41.815906,5000 -8.695599,41.816623,5000 -8.697248999999999,41.817304,5000 -8.697933000000001,41.817736,5000 -8.699386000000001,41.81862,5000 -8.700424999999999,41.819134,5000 -8.701280000000001,41.819533,5000 -8.702902,41.820331,5000 -8.705064,41.821095,5000 -8.705988,41.821525,5000 -8.707042,41.822148,5000 -8.708539,41.823116,5000 -8.709607,41.823747,5000 -8.710908,41.82441,5000 -8.711748,41.82483,5000 -8.712178,41.824802,5000 -8.712419000000001,41.821799,5000 -8.713169000000001,41.821168,5000 -8.714494,41.82097,5000 -8.716548,41.821151,5000 -8.718688,41.821096,5000 -8.720317,41.820394,5000 -8.724266999999999,41.81865,5000 -8.724816000000001,41.818926,5000 -8.725154,41.819011,5000 -8.725516000000001,41.819105,5000 -8.728685,41.821529,5000 -8.728966,41.821771,5000 -8.730325000000001,41.822792,5000 -8.731111,41.82351,5000 -8.731902,41.824287,5000 -8.732229999999999,41.824529,5000 -8.733445,41.825098,5000 -8.733748,41.825201,5000 -8.734866999999999,41.825447,5000 -8.735030999999999,41.825479,5000 -8.735695,41.825608,5000 -8.736674000000001,41.825804,5000 -8.738865000000001,41.826253,5000 -8.739938,41.826579,5000 -8.740722,41.826975,5000 -8.741301,41.827828,5000 -8.742659,41.828692,5000 -8.743783000000001,41.829547,5000 -8.744021999999999,41.829749,5000 -8.746176,41.828623,5000 -8.747085,41.828188,5000 -8.747881,41.827794,5000 -8.748269000000001,41.82739,5000 -8.749034999999999,41.826673,5000 -8.750272000000001,41.825331,5000 -8.75135,41.824033,5000 -8.752176,41.823316,5000 -8.753536,41.822463,5000 -8.754652,41.82226,5000 -8.755139,41.822172,5000 -8.755928000000001,41.821692,5000 -8.756914999999999,41.821212,5000 -8.757101,41.821132,5000 -8.755992000000001,41.819301,5000 -8.757401,41.81906,5000 -8.757955000000001,41.818983,5000 -8.75853,41.818965,5000 -8.759257,41.818915,5000 -8.759461999999999,41.818901,5000 -8.759455000000001,41.818248,5000 -8.75887,41.817182,5000 -8.758710000000001,41.81694,5000 -8.758801,41.816138,5000 -8.759314,41.815897,5000 -8.759331,41.815601,5000 -8.759228999999999,41.815349,5000 -8.759345,41.815036,5000 -8.759641999999999,41.814916,5000 -8.760197,41.814913,5000 -8.760433000000001,41.814793,5000 -8.760451,41.8146,5000 -8.760389999999999,41.814392,5000 -8.760248000000001,41.814126,5000 -8.75925,41.813459,5000 -8.759103,41.812613,5000 -8.759061000000001,41.812381,5000 -8.758735,41.811388,5000 -8.758818,41.809957,5000 -8.758937,41.805978,5000 -8.758677,41.803723,5000 -8.757455999999999,41.800405,5000 -8.755518,41.796853,5000 -8.75545,41.79664,5000 -8.755553000000001,41.796424,5000 -8.755787,41.796246,5000 -8.756126999999999,41.796244,5000 
						</coordinates>
					</LinearRing>
				</outerBoundaryIs>
			</Polygon>
		</MultiGeometry>
		<atom:link rel="app" href="https://www.google.com/earth/about/versions/#earth-pro" title="Google Earth Pro 7.3.7.1155"></atom:link>
	</Placemark>
</Document>
</kml>
