<?xml version="1.0" encoding="UTF-8"?>
<kml xmlns="http://www.opengis.net/kml/2.2" xmlns:gx="http://www.google.com/kml/ext/2.2" xmlns:kml="http://www.opengis.net/kml/2.2" xmlns:atom="http://www.w3.org/2005/Atom">
<Document>
	<name>Vila Nova de Cerveira.kml</name>
	<Style id="PolyStyle000001">
		<LabelStyle>
			<color>ff000000</color>
			<scale>1.2</scale>
		</LabelStyle>
		<LineStyle>
			<color>ff0000ff</color>
			<width>2</width>
		</LineStyle>
		<PolyStyle>
			<color>4dffffff</color>
		</PolyStyle>
	</Style>
	<Style id="PolyStyle00005">
		<LabelStyle>
			<color>ff000000</color>
			<scale>1.2</scale>
		</LabelStyle>
		<LineStyle>
			<color>ff0000ff</color>
			<width>2</width>
		</LineStyle>
		<PolyStyle>
			<color>4dffffff</color>
		</PolyStyle>
	</Style>
	<StyleMap id="PolyStyle00183">
		<Pair>
			<key>normal</key>
			<styleUrl>#PolyStyle00005</styleUrl>
		</Pair>
		<Pair>
			<key>highlight</key>
			<styleUrl>#PolyStyle000001</styleUrl>
		</Pair>
	</StyleMap>
	<Placemark>
		<name>Vila Nova de Cerveira</name>
		<visibility>0</visibility>
		<Snippet maxLines="0"></Snippet>
		<styleUrl>#PolyStyle00183</styleUrl>
		<MultiGeometry>
			<extrude>1</extrude>
			<Polygon>
				<extrude>1</extrude>
				<tessellate>1</tessellate>
				<outerBoundaryIs>
					<LinearRing>
						<coordinates>
							-8.765019000000001,41.928533,5000 -8.768246,41.927162,5000 -8.769520999999999,41.926658,5000 -8.769935,41.926507,5000 -8.772245,41.924844,5000 -8.774273000000001,41.923796,5000 -8.775444999999999,41.923265,5000 -8.776956999999999,41.92241,5000 -8.778230000000001,41.921707,5000 -8.781943999999999,41.919285,5000 -8.783514,41.918476,5000 -8.785736,41.917407,5000 -8.784585,41.917266,5000 -8.783431999999999,41.917038,5000 -8.781715999999999,41.916464,5000 -8.780548,41.915652,5000 -8.780486,41.915421,5000 -8.780424999999999,41.915217,5000 -8.78023,41.914713,5000 -8.780131000000001,41.914358,5000 -8.78003,41.913773,5000 -8.779965000000001,41.913179,5000 -8.779856000000001,41.912923,5000 -8.779627,41.912631,5000 -8.779184000000001,41.912225,5000 -8.778765999999999,41.911911,5000 -8.778506,41.911719,5000 -8.778264,41.911542,5000 -8.778025,41.911392,5000 -8.77788,41.911215,5000 -8.777806999999999,41.91095,5000 -8.777635,41.910454,5000 -8.777507999999999,41.910026,5000 -8.777488,41.909958,5000 -8.777343999999999,41.909564,5000 -8.777150000000001,41.90922,5000 -8.776899,41.908999,5000 -8.776706000000001,41.908707,5000 -8.776477,41.90838,5000 -8.776094000000001,41.907991,5000 -8.775674,41.907595,5000 -8.775422000000001,41.907321,5000 -8.774981,41.907093,5000 -8.774352,41.906992,5000 -8.774127,41.898682,5000 -8.774538,41.898433,5000 -8.775057,41.898173,5000 -8.775471,41.897984,5000 -8.775990999999999,41.897794,5000 -8.776405,41.897624,5000 -8.776676,41.897427,5000 -8.777018,41.897194,5000 -8.777253,41.896962,5000 -8.777429,41.896793,5000 -8.777438,41.8965,5000 -8.777412,41.896251,5000 -8.777229999999999,41.895862,5000 -8.777191999999999,41.895667,5000 -8.777001,41.895473,5000 -8.776953000000001,41.895436,5000 -8.776617999999999,41.895173,5000 -8.77632,41.895095,5000 -8.775377000000001,41.894937,5000 -8.775119999999999,41.894915,5000 -8.774991,41.895076,5000 -8.774933000000001,41.895102,5000 -8.774755000000001,41.895184,5000 -8.774528999999999,41.895211,5000 -8.77411,41.895161,5000 -8.774032999999999,41.895152,5000 -8.773306,41.895034,5000 -8.772342,41.894969,5000 -8.772142000000001,41.894951,5000 -8.77181,41.894909,5000 -8.771442,41.894752,5000 -8.770896,41.894381,5000 -8.770569999999999,41.894126,5000 -8.770268,41.893675,5000 -8.770146,41.893525,5000 -8.769868000000001,41.893301,5000 -8.769392,41.893215,5000 -8.769072,41.893199,5000 -8.768704,41.893201,5000 -8.768335,41.893159,5000 -8.767965999999999,41.893037,5000 -8.767702999999999,41.892852,5000 -8.767571,41.892657,5000 -8.767497000000001,41.8924,5000 -8.767483,41.892187,5000 -8.767599000000001,41.891921,5000 -8.767822000000001,41.891618,5000 -8.768174,41.891234,5000 -8.768420000000001,41.890922,5000 -8.768523999999999,41.890656,5000 -8.768497999999999,41.89038,5000 -8.768352999999999,41.89016,5000 -8.767291,41.889597,5000 -8.766543,41.889173,5000 -8.766196000000001,41.888899,5000 -8.766026,41.888527,5000 -8.766022,41.888137,5000 -8.766029,41.887649,5000 -8.766,41.887046,5000 -8.765791999999999,41.886435,5000 -8.765428999999999,41.885736,5000 -8.765215,41.885395,5000 -8.764998,41.885104,5000 -8.764949,41.884909,5000 -8.764934,41.884598,5000 -8.764884,41.884386,5000 -8.764669,41.884209,5000 -8.764445,41.884123,5000 -8.763923,41.884011,5000 -8.763605999999999,41.883935,5000 -8.763156,41.883721,5000 -8.762805999999999,41.883486,5000 -8.762415000000001,41.883189,5000 -8.761832999999999,41.882677,5000 -8.760903000000001,41.882053,5000 -8.760838,41.881944,5000 -8.760778999999999,41.881663,5000 -8.7607,41.881402,5000 -8.760508,41.881115,5000 -8.760265,41.880835,5000 -8.7599,41.880592,5000 -8.759439,41.88038,5000 -8.75906,41.880245,5000 -8.758722000000001,41.880129,5000 -8.758426999999999,41.88003,5000 -8.758202000000001,41.879976,5000 -8.757752999999999,41.879993,5000 -8.757248000000001,41.880033,5000 -8.756581000000001,41.880133,5000 -8.756138,41.880298,5000 -8.755554999999999,41.880597,5000 -8.755067,41.880774,5000 -8.754599000000001,41.880876,5000 -8.753769999999999,41.881118,5000 -8.753292,41.881202,5000 -8.752776000000001,41.881227,5000 -8.752530999999999,41.881213,5000 -8.752259,41.881104,5000 -8.752034999999999,41.880986,5000 -8.751859,41.88078,5000 -8.751754999999999,41.880525,5000 -8.751614,41.880246,5000 -8.751433,41.879992,5000 -8.751123,41.879579,5000 -8.750875000000001,41.879201,5000 -8.750724,41.878857,5000 -8.750647000000001,41.878317,5000 -8.750627,41.877801,5000 -8.750628000000001,41.877368,5000 -8.750615,41.876672,5000 -8.750567,41.876406,5000 -8.750505,41.87631,5000 -8.750432999999999,41.876262,5000 -8.750162,41.876245,5000 -8.749715,41.876316,5000 -8.749127,41.876483,5000 -8.748996999999999,41.87652,5000 -8.748559999999999,41.876629,5000 -8.748224,41.876639,5000 -8.747927000000001,41.876614,5000 -8.747626,41.876479,5000 -8.747484999999999,41.876401,5000 -8.747235999999999,41.876262,5000 -8.746840000000001,41.875976,5000 -8.746392,41.875604,5000 -8.745971000000001,41.875285,5000 -8.745671,41.875171,5000 -8.745221000000001,41.875185,5000 -8.744975,41.875314,5000 -8.744776999999999,41.87563,5000 -8.744751000000001,41.875884,5000 -8.744840999999999,41.876449,5000 -8.74488,41.876829,5000 -8.744816,41.877059,5000 -8.744733,41.877136,5000 -8.744609000000001,41.877202,5000 -8.744445000000001,41.877236,5000 -8.744128,41.877217,5000 -8.74391,41.877164,5000 -8.743556999999999,41.877018,5000 -8.743307,41.876883,5000 -8.742926000000001,41.876582,5000 -8.742307,41.876013,5000 -8.741666,41.875549,5000 -8.740942,41.875138,5000 -8.740596,41.874924,5000 -8.740527999999999,41.874837,5000 -8.740506999999999,41.87473,5000 -8.740498000000001,41.874494,5000 -8.740285999999999,41.874178,5000 -8.739941,41.873862,5000 -8.73973,41.873653,5000 -8.739411,41.873415,5000 -8.739160999999999,41.873274,5000 -8.73889,41.873222,5000 -8.738628,41.873257,5000 -8.738312000000001,41.873377,5000 -8.737957,41.873648,5000 -8.737738,41.873956,5000 -8.73757,41.874621,5000 -8.737446,41.874979,5000 -8.737341000000001,41.875281,5000 -8.737163000000001,41.875716,5000 -8.736964,41.876157,5000 -8.736800000000001,41.876569,5000 -8.736568999999999,41.876962,5000 -8.736309,41.877286,5000 -8.735994,41.877439,5000 -8.735683999999999,41.877489,5000 -8.735151,41.877414,5000 -8.734854,41.877334,5000 -8.734565999999999,41.877255,5000 -8.734354,41.877197,5000 -8.73353,41.876891,5000 -8.733491000000001,41.876819,5000 -8.73349,41.876795,5000 -8.733484000000001,41.876531,5000 -8.733478,41.876358,5000 -8.733451000000001,41.876198,5000 -8.73335,41.876042,5000 -8.733116000000001,41.87588,5000 -8.732829000000001,41.875767,5000 -8.732495999999999,41.875662,5000 -8.732246,41.875655,5000 -8.732054,41.875661,5000 -8.731861,41.875714,5000 -8.731672,41.875786,5000 -8.731472999999999,41.87588,5000 -8.731274000000001,41.875856,5000 -8.731070000000001,41.875741,5000 -8.730866000000001,41.875545,5000 -8.730682,41.875283,5000 -8.730511,41.874904,5000 -8.730271,41.874611,5000 -8.729815,41.874322,5000 -8.729386999999999,41.874165,5000 -8.72911,41.874077,5000 -8.728756000000001,41.87401,5000 -8.728462,41.873971,5000 -8.727969999999999,41.873929,5000 -8.727582,41.873843,5000 -8.727071,41.873728,5000 -8.726812000000001,41.873638,5000 -8.726516999999999,41.873527,5000 -8.726241,41.873402,5000 -8.726177,41.873272,5000 -8.726222999999999,41.87307,5000 -8.726286,41.87288,5000 -8.726273000000001,41.872673,5000 -8.726084,41.87247,5000 -8.725830999999999,41.872289,5000 -8.725432,41.872101,5000 -8.724952,41.871997,5000 -8.724633000000001,41.871936,5000 -8.724204,41.871885,5000 -8.723884,41.871836,5000 -8.723737,41.871801,5000 -8.723646,41.87168,5000 -8.723718,41.871541,5000 -8.723932,41.871342,5000 -8.724054000000001,41.87115,5000 -8.724099000000001,41.870974,5000 -8.724057999999999,41.87077,5000 -8.723986,41.870649,5000 -8.723848,41.870524,5000 -8.723609,41.870368,5000 -8.723461,41.870255,5000 -8.723341,41.870113,5000 -8.723255999999999,41.869933,5000 -8.7233,41.869779,5000 -8.723438,41.869559,5000 -8.723618,41.869341,5000 -8.72376,41.869156,5000 -8.723856,41.868921,5000 -8.723837,41.8687,5000 -8.723799,41.868561,5000 -8.723746999999999,41.868416,5000 -8.72357,41.868066,5000 -8.723494000000001,41.867847,5000 -8.723495,41.867645,5000 -8.723546000000001,41.867429,5000 -8.723677,41.867229,5000 -8.723957,41.86692,5000 -8.724201000000001,41.866714,5000 -8.724643,41.866403,5000 -8.724990999999999,41.86618,5000 -8.725481,41.865927,5000 -8.725953000000001,41.865687,5000 -8.726317999999999,41.865447,5000 -8.726381999999999,41.865387,5000 -8.726402999999999,41.865303,5000 -8.726380000000001,41.865186,5000 -8.726138000000001,41.865001,5000 -8.725742,41.864739,5000 -8.725213999999999,41.864396,5000 -8.724951000000001,41.864214,5000 -8.724933999999999,41.864201,5000 -8.724741,41.864101,5000 -8.724625,41.864066,5000 -8.724462000000001,41.864011,5000 -8.724363,41.864064,5000 -8.724024999999999,41.864173,5000 -8.723696,41.864389,5000 -8.723359,41.864515,5000 -8.723065,41.864614,5000 -8.722754,41.864706,5000 -8.722396,41.864785,5000 -8.72221,41.8648,5000 -8.721897,41.864823,5000 -8.721814999999999,41.864833,5000 -8.721579,41.864908,5000 -8.721454,41.864958,5000 -8.721439,41.864968,5000 -8.721403,41.864979,5000 -8.721361999999999,41.865,5000 -8.721227000000001,41.865111,5000 -8.721154,41.865158,5000 -8.721079,41.865193,5000 -8.721005,41.865217,5000 -8.720950999999999,41.865231,5000 -8.720852000000001,41.865239,5000 -8.720596,41.865246,5000 -8.72054,41.865256,5000 -8.720485,41.865273,5000 -8.720447999999999,41.865278,5000 -8.720321,41.865304,5000 -8.720034,41.865386,5000 -8.719912000000001,41.86543,5000 -8.719856,41.865454,5000 -8.719776,41.865495,5000 -8.719716,41.865529,5000 -8.719669,41.865558,5000 -8.719424999999999,41.865711,5000 -8.719155000000001,41.865869,5000 -8.719054,41.865921,5000 -8.718768000000001,41.86607,5000 -8.718681,41.8661,5000 -8.718659000000001,41.866108,5000 -8.718244,41.866178,5000 -8.717936,41.86621,5000 -8.71758,41.866214,5000 -8.717245,41.866203,5000 -8.716756,41.866199,5000 -8.716402,41.866208,5000 -8.71564,41.866175,5000 -8.71444,41.866237,5000 -8.711294000000001,41.867558,5000 -8.710869000000001,41.867739,5000 -8.710535999999999,41.867719,5000 -8.710292000000001,41.867572,5000 -8.709784000000001,41.866785,5000 -8.709116,41.865658,5000 -8.708327000000001,41.864721,5000 -8.708133999999999,41.864594,5000 -8.708083,41.864521,5000 -8.706367,41.863025,5000 -8.706039000000001,41.862745,5000 -8.705938,41.862678,5000 -8.705717999999999,41.862514,5000 -8.705651,41.862452,5000 -8.705572999999999,41.86237,5000 -8.705514000000001,41.862288,5000 -8.705477999999999,41.8621,5000 -8.705458999999999,41.862078,5000 -8.704466,41.859846,5000 -8.702963,41.858227,5000 -8.702722,41.858009,5000 -8.702330999999999,41.857637,5000 -8.701933,41.857347,5000 -8.701387,41.857017,5000 -8.700829000000001,41.85669,5000 -8.700336,41.856499,5000 -8.699811,41.856285,5000 -8.699032000000001,41.856057,5000 -8.698543000000001,41.855934,5000 -8.698218000000001,41.855855,5000 -8.698001,41.855806,5000 -8.697763999999999,41.855743,5000 -8.697179,41.855573,5000 -8.696730000000001,41.855441,5000 -8.696407000000001,41.85533,5000 -8.696228,41.855274,5000 -8.695855999999999,41.855149,5000 -8.695361,41.854989,5000 -8.695095,41.854897,5000 -8.694704,41.854756,5000 -8.694470000000001,41.854673,5000 -8.694062000000001,41.854516,5000 -8.693773,41.854413,5000 -8.693303999999999,41.854226,5000 -8.692888999999999,41.854072,5000 -8.692641,41.853993,5000 -8.692240999999999,41.85387,5000 -8.691777,41.853731,5000 -8.691198,41.85355,5000 -8.690759999999999,41.85341,5000 -8.690537000000001,41.85333,5000 -8.690288000000001,41.853239,5000 -8.690004,41.85314,5000 -8.689501999999999,41.85311,5000 -8.689154,41.85311,5000 -8.688466999999999,41.853015,5000 -8.687912000000001,41.852855,5000 -8.687544000000001,41.852721,5000 -8.686817,41.852479,5000 -8.686403,41.852293,5000 -8.686203000000001,41.852184,5000 -8.685734999999999,41.851929,5000 -8.685084,41.851462,5000 -8.68446,41.851046,5000 -8.684032,41.850748,5000 -8.683494,41.850397,5000 -8.683263999999999,41.850256,5000 -8.682814,41.850111,5000 -8.682195,41.849937,5000 -8.681466,41.849747,5000 -8.68042,41.849606,5000 -8.679439,41.849458,5000 -8.678680999999999,41.849256,5000 -8.677725000000001,41.849027,5000 -8.676799000000001,41.848749,5000 -8.676072,41.848442,5000 -8.675209000000001,41.848223,5000 -8.674256,41.847986,5000 -8.673207,41.847789,5000 -8.672357,41.847448,5000 -8.671256,41.847124,5000 -8.670135,41.846787,5000 -8.669938999999999,41.846784,5000 -8.669407,41.846773,5000 -8.668894999999999,41.84675,5000 -8.668167,41.846735,5000 -8.667489,41.846717,5000 -8.666885000000001,41.846757,5000 -8.666641,41.846779,5000 -8.666287000000001,41.846834,5000 -8.665827999999999,41.846967,5000 -8.665317999999999,41.847218,5000 -8.664960000000001,41.847466,5000 -8.664486999999999,41.847912,5000 -8.66431,41.848055,5000 -8.664148000000001,41.848178,5000 -8.664001000000001,41.848258,5000 -8.663904,41.848313,5000 -8.663776,41.848385,5000 -8.663652000000001,41.848454,5000 -8.663554,41.848508,5000 -8.663396000000001,41.848656,5000 -8.663449999999999,41.84883,5000 -8.663543000000001,41.848932,5000 -8.663608999999999,41.849026,5000 -8.663655,41.849144,5000 -8.663656,41.849255,5000 -8.66362,41.849404,5000 -8.663584999999999,41.849536,5000 -8.66357,41.849625,5000 -8.663558999999999,41.849756,5000 -8.663541,41.849883,5000 -8.663543000000001,41.850096,5000 -8.663562000000001,41.850214,5000 -8.663584999999999,41.850388,5000 -8.663589,41.850451,5000 -8.663606,41.850623,5000 -8.663637,41.850751,5000 -8.663653,41.850863,5000 -8.663667999999999,41.850978,5000 -8.663684,41.851221,5000 -8.663600000000001,41.851452,5000 -8.663353000000001,41.85166,5000 -8.663066000000001,41.851823,5000 -8.66297,41.851888,5000 -8.662794999999999,41.852019,5000 -8.662713999999999,41.852096,5000 -8.662578999999999,41.852315,5000 -8.66253,41.852455,5000 -8.662443,41.852888,5000 -8.662428,41.852994,5000 -8.662426,41.853102,5000 -8.662454,41.853251,5000 -8.662478999999999,41.853417,5000 -8.662494000000001,41.85367,5000 -8.662493,41.853801,5000 -8.662471999999999,41.853996,5000 -8.662224,41.854329,5000 -8.662086,41.854412,5000 -8.661949999999999,41.854527,5000 -8.661896,41.854703,5000 -8.661823999999999,41.854864,5000 -8.661657999999999,41.85502,5000 -8.661265,41.854998,5000 -8.660895999999999,41.854966,5000 -8.660603,41.855054,5000 -8.660413999999999,41.855334,5000 -8.660252,41.855616,5000 -8.660166,41.855845,5000 -8.659916000000001,41.856104,5000 -8.659693000000001,41.856326,5000 -8.659496000000001,41.856526,5000 -8.659205999999999,41.856753,5000 -8.658951999999999,41.856983,5000 -8.658690999999999,41.857186,5000 -8.658445,41.857368,5000 -8.658215999999999,41.857578,5000 -8.658037,41.857792,5000 -8.657864,41.857985,5000 -8.656644,41.85842,5000 -8.656561999999999,41.862709,5000 -8.658594000000001,41.865165,5000 -8.658462999999999,41.868294,5000 -8.664246,41.874523,5000 -8.668647,41.879526,5000 -8.671842,41.885534,5000 -8.674936000000001,41.887445,5000 -8.675420000000001,41.887774,5000 -8.675127,41.88793,5000 -8.674912000000001,41.888091,5000 -8.674739000000001,41.888163,5000 -8.674594000000001,41.888208,5000 -8.674434,41.88821,5000 -8.674262000000001,41.888176,5000 -8.673965000000001,41.88807,5000 -8.673553999999999,41.887849,5000 -8.673321,41.88771,5000 -8.673177000000001,41.887646,5000 -8.672957,41.88759,5000 -8.672718,41.887567,5000 -8.672492999999999,41.887544,5000 -8.672300999999999,41.887561,5000 -8.672065999999999,41.887619,5000 -8.671832999999999,41.887713,5000 -8.671623,41.88784,5000 -8.671566,41.887875,5000 -8.671433,41.888056,5000 -8.671287,41.888328,5000 -8.671143000000001,41.888521,5000 -8.670980999999999,41.888636,5000 -8.670648,41.888754,5000 -8.670318,41.88878,5000 -8.67001,41.888811,5000 -8.669862999999999,41.888813,5000 -8.669791,41.888794,5000 -8.669677,41.888719,5000 -8.669513,41.888565,5000 -8.669395,41.888371,5000 -8.669233,41.888038,5000 -8.669143999999999,41.887808,5000 -8.669063,41.887694,5000 -8.668896,41.887598,5000 -8.668699,41.887539,5000 -8.668214000000001,41.887485,5000 -8.667949,41.887457,5000 -8.667717,41.887388,5000 -8.667486999999999,41.887272,5000 -8.667232,41.887119,5000 -8.667133,41.887008,5000 -8.667088,41.886867,5000 -8.667014999999999,41.886789,5000 -8.666836999999999,41.886716,5000 -8.666650000000001,41.8867,5000 -8.666399999999999,41.886717,5000 -8.666045,41.886787,5000 -8.665856,41.886828,5000 -8.665711,41.886838,5000 -8.665571999999999,41.886808,5000 -8.665414999999999,41.886687,5000 -8.665265,41.886484,5000 -8.665096999999999,41.886344,5000 -8.664908,41.886288,5000 -8.664472999999999,41.886287,5000 -8.664,41.886337,5000 -8.663836,41.886335,5000 -8.663709000000001,41.886252,5000 -8.663277000000001,41.885852,5000 -8.662846999999999,41.885556,5000 -8.662603000000001,41.885481,5000 -8.662342000000001,41.885442,5000 -8.662159000000001,41.88546,5000 -8.661572,41.885536,5000 -8.661322,41.885578,5000 -8.661008000000001,41.885729,5000 -8.661014,41.885845,5000 -8.661051,41.886309,5000 -8.660849000000001,41.886322,5000 -8.660684,41.886366,5000 -8.660556,41.886425,5000 -8.660504,41.886463,5000 -8.660484,41.886509,5000 -8.660477,41.886682,5000 -8.660456999999999,41.886775,5000 -8.660377,41.887053,5000 -8.660345,41.887149,5000 -8.660318999999999,41.887218,5000 -8.660304999999999,41.88728,5000 -8.660311,41.887334,5000 -8.660322000000001,41.887391,5000 -8.660346000000001,41.887431,5000 -8.660394,41.887481,5000 -8.661182999999999,41.88842,5000 -8.660287,41.890515,5000 -8.659309,41.892616,5000 -8.658880999999999,41.89636,5000 -8.65692,41.897671,5000 -8.657105,41.899136,5000 -8.656421,41.900205,5000 -8.656415000000001,41.900349,5000 -8.656369,41.900479,5000 -8.656319,41.900614,5000 -8.656248,41.90074,5000 -8.656200999999999,41.900836,5000 -8.656133000000001,41.90096,5000 -8.656022,41.901079,5000 -8.655957000000001,41.901202,5000 -8.655894,41.90139,5000 -8.655851,41.901544,5000 -8.655756999999999,41.901773,5000 -8.655677000000001,41.901965,5000 -8.655540999999999,41.902171,5000 -8.655322,41.902495,5000 -8.655231000000001,41.902621,5000 -8.655141,41.902792,5000 -8.655098000000001,41.902945,5000 -8.655079000000001,41.903058,5000 -8.655016,41.903175,5000 -8.654968999999999,41.903277,5000 -8.654953000000001,41.903355,5000 -8.654961999999999,41.903468,5000 -8.654961,41.903522,5000 -8.654947,41.903557,5000 -8.654911999999999,41.903599,5000 -8.65489,41.903669,5000 -8.65489,41.903714,5000 -8.652108,41.903543,5000 -8.648227,41.903304,5000 -8.64786,41.903296,5000 -8.645084000000001,41.906254,5000 -8.640337000000001,41.907473,5000 -8.638596,41.909098,5000 -8.638192999999999,41.910083,5000 -8.637620999999999,41.912942,5000 -8.639189,41.927211,5000 -8.641090999999999,41.928739,5000 -8.643195,41.929254,5000 -8.64545,41.929664,5000 -8.647843999999999,41.929916,5000 -8.651856,41.930109,5000 -8.652419,41.930211,5000 -8.654608,41.930727,5000 -8.655806,41.930984,5000 -8.659611,41.931755,5000 -8.662646000000001,41.93295,5000 -8.663917,41.933523,5000 -8.665331999999999,41.934463,5000 -8.666401,41.934969,5000 -8.666653999999999,41.940186,5000 -8.667929000000001,41.942726,5000 -8.668322999999999,41.945577,5000 -8.668856,41.948605,5000 -8.668856999999999,41.948611,5000 -8.668872,41.948715,5000 -8.668704,41.949442,5000 -8.668672000000001,41.949591,5000 -8.668144,41.951803,5000 -8.667977,41.953458,5000 -8.667875,41.954496,5000 -8.667680000000001,41.956473,5000 -8.667662999999999,41.95659,5000 -8.667229000000001,41.958762,5000 -8.667138,41.96021,5000 -8.667176,41.960586,5000 -8.667026999999999,41.961533,5000 -8.666471,41.965484,5000 -8.666788,41.965479,5000 -8.666993,41.965475,5000 -8.67277,41.965448,5000 -8.673195,41.965656,5000 -8.673204,41.965701,5000 -8.673342,41.966392,5000 -8.675003999999999,41.977969,5000 -8.674918999999999,41.978511,5000 -8.674381,41.981948,5000 -8.680559000000001,41.98497,5000 -8.680857,41.985205,5000 -8.681051999999999,41.98585,5000 -8.681143,41.986644,5000 -8.681775999999999,41.988182,5000 -8.681925,41.988924,5000 -8.681939,41.990599,5000 -8.683464000000001,41.990685,5000 -8.684329999999999,41.990663,5000 -8.6858,41.990623,5000 -8.686937,41.990548,5000 -8.688734999999999,41.99008,5000 -8.690734000000001,41.988938,5000 -8.692416,41.987728,5000 -8.694288999999999,41.986289,5000 -8.696009,41.985045,5000 -8.697005000000001,41.984508,5000 -8.698714000000001,41.983786,5000 -8.700334,41.983373,5000 -8.701604,41.983049,5000 -8.708824999999999,41.98174,5000 -8.712338000000001,41.981133,5000 -8.71457,41.98068,5000 -8.716162000000001,41.980176,5000 -8.717487,41.97954,5000 -8.718634,41.978961,5000 -8.720452,41.978074,5000 -8.723392,41.976964,5000 -8.725644000000001,41.976092,5000 -8.728089000000001,41.974919,5000 -8.729996,41.974006,5000 -8.730567000000001,41.973738,5000 -8.732756,41.972712,5000 -8.735200000000001,41.971431,5000 -8.737584999999999,41.969834,5000 -8.740325,41.967925,5000 -8.74216,41.966969,5000 -8.744189,41.965899,5000 -8.745995000000001,41.964565,5000 -8.747134000000001,41.963202,5000 -8.747966,41.96204,5000 -8.748575000000001,41.960812,5000 -8.748825,41.959156,5000 -8.748262,41.955842,5000 -8.747455,41.953631,5000 -8.746762,41.95146,5000 -8.746634,41.950369,5000 -8.746817999999999,41.949062,5000 -8.747280999999999,41.946952,5000 -8.747375999999999,41.94619,5000 -8.747754,41.943161,5000 -8.748089,41.942394,5000 -8.748258,41.941896,5000 -8.74865,41.941338,5000 -8.750121,41.940062,5000 -8.752973000000001,41.936785,5000 -8.754287,41.935375,5000 -8.754594000000001,41.935046,5000 -8.755519,41.934024,5000 -8.756309,41.933148,5000 -8.757939,41.931991,5000 -8.759986,41.931104,5000 -8.761589000000001,41.930263,5000 -8.765019000000001,41.928533,5000 
						</coordinates>
					</LinearRing>
				</outerBoundaryIs>
			</Polygon>
		</MultiGeometry>
		<atom:link rel="app" href="https://www.google.com/earth/about/versions/#earth-pro" title="Google Earth Pro 7.3.7.1155"></atom:link>
	</Placemark>
</Document>
</kml>
